name,address,Is Early Voting,Precincts (Or Locality-wide),Is Drop Off,lon,lat
1ST CHURCH OF CHRIST SCIENTIST-SCHL RM,6165 LA FLECHA RANCHO SANTA FE CA 92067,False,"RANCHO SANTA FE, RANCHO SANTA FE, RANCHO SANTA FE, LOMAS SANTA FE, RANCHO SANTA FE, LOMAS SANTA FE",False,-117.2005,33.0208
1ST CHURCH OF CHRIST SCIENTIST-SCHL RM,6165 LA FLECHA RANCHO SANTA FE CA 92067,True,"RANCHO SANTA FE, RANCHO SANTA FE, RANCHO SANTA FE, LOMAS SANTA FE, RANCHO SANTA FE, LOMAS SANTA FE",False,-117.2005,33.0208
ADA W HARRIS ELEM SCHOOL-MPR,1508 WINDSOR RD SCHL CARDIFF BY THE SEA CA 92007,False,ENCINITAS,False,-117.274,33.03139
ADA W HARRIS ELEM SCHOOL-MPR,1508 WINDSOR RD SCHL CARDIFF BY THE SEA CA 92007,True,ENCINITAS,False,-117.274,33.03139
ALLIED GARDENS REC CENTER-GYM,5155 GREENBRIER AVE SAN DIEGO CA 92120,False,"SAN CARLOS, NAVAJO, SAN CARLOS",False,-117.08065,32.79599
ALLIED GARDENS REC CENTER-GYM,5155 GREENBRIER AVE SAN DIEGO CA 92120,True,"SAN CARLOS, NAVAJO, SAN CARLOS",False,-117.08065,32.79599
ALPINE ELEMENTARY SCHOOL-AUDITORIUM,1850 ALPINE BLVD SCHL ALPINE CA 91901,False,"ALPINE, ALPINE",False,-116.77418,32.83871
ALPINE ELEMENTARY SCHOOL-AUDITORIUM,1850 ALPINE BLVD SCHL ALPINE CA 91901,True,"ALPINE, ALPINE",False,-116.77418,32.83871
AVIARA OAKS ELEM SCHOOL-AUDITORIUM,6900 AMBROSIA LN SCHL CARLSBAD CA 92011,False,"CARLSBAD, CARLSBAD, CARLSBAD, CARLSBAD",False,-117.27673,33.1027
AVIARA OAKS ELEM SCHOOL-AUDITORIUM,6900 AMBROSIA LN SCHL CARLSBAD CA 92011,True,"CARLSBAD, CARLSBAD, CARLSBAD, CARLSBAD",False,-117.27673,33.1027
BANCROFT COMMUNITY SCHOOL-MPR,8805 TYLER ST SPRING VALLEY CA 91977,False,"SPRING VALLEY, SPRING VALLEY",False,-117.00759,32.72962
BANCROFT COMMUNITY SCHOOL-MPR,8805 TYLER ST SPRING VALLEY CA 91977,True,"SPRING VALLEY, SPRING VALLEY",False,-117.00759,32.72962
BAY PARK ELEM SCHOOL-AUDITORIUM,2433 DENVER ST SAN DIEGO CA 92110,False,"MISSION VALLEY, LINDA VISTA, CLAIREMONT S",False,-117.20353,32.78754
BAY PARK ELEM SCHOOL-AUDITORIUM,2433 DENVER ST SAN DIEGO CA 92110,True,"MISSION VALLEY, LINDA VISTA, CLAIREMONT S",False,-117.20353,32.78754
BELL MIDDLE SCHOOL-ASSEMBLY/DINING,620 BRIARWOOD RD SCHL SAN DIEGO CA 92139,False,"PARADISE HILLS, PARADISE HILLS",False,-117.03863,32.68814
BELL MIDDLE SCHOOL-ASSEMBLY/DINING,620 BRIARWOOD RD SCHL SAN DIEGO CA 92139,True,"PARADISE HILLS, PARADISE HILLS",False,-117.03863,32.68814
BETHUNE ELEMENTARY SCHOOL-AUDITORIUM,6835 BENJAMIN HOLT RD SAN DIEGO CA 92114,False,ENCANTO E,False,-117.04937,32.68886
BETHUNE ELEMENTARY SCHOOL-AUDITORIUM,6835 BENJAMIN HOLT RD SAN DIEGO CA 92114,True,ENCANTO E,False,-117.04937,32.68886
BONITA VISTA HIGH SCHOOL-CAFETERIA,751 OTAY LAKES RD SCHL CHULA VISTA CA 91913,False,"BONITA, CHULA VISTA, CHULA VISTA",False,-116.99956,32.64591
BONITA VISTA HIGH SCHOOL-CAFETERIA,751 OTAY LAKES RD SCHL CHULA VISTA CA 91913,True,"BONITA, CHULA VISTA, CHULA VISTA",False,-116.99956,32.64591
BONITA VISTA MIDDLE SCHOOL-CAFETERIA,650 OTAY LAKES RD SCHL CHULA VISTA CA 91910,False,"CHULA VISTA, CHULA VISTA",False,-117.00674,32.64821
BONITA VISTA MIDDLE SCHOOL-CAFETERIA,650 OTAY LAKES RD SCHL CHULA VISTA CA 91910,True,"CHULA VISTA, CHULA VISTA",False,-117.00674,32.64821
BONSALL COMMUNITY CTR-MAIN RM,31505 OLD RIVER RD SCHL BONSALL CA 92003,True,"FALLBROOK, GOPHER CANYON, FALLBROOK, BONSALL, BONSALL, RHO MONSERATE, BONSALL",False,-117.21994,33.28675
BONSALL COMMUNITY CTR-MAIN RM,31505 OLD RIVER RD SCHL BONSALL CA 92003,False,"GOPHER CANYON, FALLBROOK, BONSALL, BONSALL, RHO MONSERATE, FALLBROOK, BONSALL",False,-117.21994,33.28675
BORREGO SPRINGS HIGH SCHOOL-GYM,2281 DIEGUENO RD SCHL BORREGO SPRINGS CA 92004,False,BORREGO SPRINGS,False,-116.38222,33.26419
BORREGO SPRINGS HIGH SCHOOL-GYM,2281 DIEGUENO RD SCHL BORREGO SPRINGS CA 92004,True,BORREGO SPRINGS,False,-116.38222,33.26419
BOSTONIA REC CENTER - GYMNASIUM,1049 BOSTONIA ST EL CAJON CA 92021,False,"EL CAJON, EL CAJON, EL CAJON, EL CAJON",False,-116.9333,32.80923
BOSTONIA REC CENTER - GYMNASIUM,1049 BOSTONIA ST EL CAJON CA 92021,True,"EL CAJON, EL CAJON, EL CAJON, EL CAJON",False,-116.9333,32.80923
BREEZE HILL ELEM SCHOOL-MPR,1111 MELROSE WAY SCHL VISTA CA 92081,False,"VISTA, VISTA, VISTA, VISTA",False,-117.25471,33.18507
BREEZE HILL ELEM SCHOOL-MPR,1111 MELROSE WAY SCHL VISTA CA 92081,True,"VISTA, VISTA, VISTA, VISTA",False,-117.25471,33.18507
CABRILLO ELEMENTARY SCHOOL-AUDITORIUM,3120 TALBOT ST SAN DIEGO CA 92106,False,"HARBOR, HARBOR",False,-117.23344,32.72168
CABRILLO ELEMENTARY SCHOOL-AUDITORIUM,3120 TALBOT ST SAN DIEGO CA 92106,True,"HARBOR, HARBOR",False,-117.23344,32.72168
CADMAN ELEM SCHOOL-AUDITORIUM,4370 KAMLOOP AVE SAN DIEGO CA 92117,False,CLAIREMONT N,False,-117.21612,32.82187
CADMAN ELEM SCHOOL-AUDITORIUM,4370 KAMLOOP AVE SAN DIEGO CA 92117,True,CLAIREMONT N,False,-117.21612,32.82187
CAJON PARK SCHOOL-MPR,10300 N MAGNOLIA AVE SCHL SANTEE CA 92071,False,"SANTEE, SANTEE",False,-116.97188,32.86581
CAJON PARK SCHOOL-MPR,10300 N MAGNOLIA AVE SCHL SANTEE CA 92071,True,"SANTEE, SANTEE",False,-116.97188,32.86581
CALAVERA COMMUNITY PARK - GYM,2997 GLASGOW DR CARLSBAD CA 92010,False,"CARLSBAD, CARLSBAD, CARLSBAD, CARLSBAD, CARLSBAD",False,-117.29911,33.16617
CALAVERA COMMUNITY PARK - GYM,2997 GLASGOW DR CARLSBAD CA 92010,True,"CARLSBAD, CARLSBAD, CARLSBAD, CARLSBAD, CARLSBAD",False,-117.29911,33.16617
"CAMARENA, ENRIQUE S ELEM SCHOOL-MPR",1650 EXPLORATION FALLS DR CHULA VISTA CA 91915,False,CHULA VISTA,False,-116.9585,32.62445
"CAMARENA, ENRIQUE S ELEM SCHOOL-MPR",1650 EXPLORATION FALLS DR CHULA VISTA CA 91915,True,CHULA VISTA,False,-116.9585,32.62445
CANYON VIEW ELEM SCHOOL-MPR,9225 ADOLPHIA ST SCHL SAN DIEGO CA 92129,False,"RHO PENASQUITOS, RHO PENASQUITOS, RHO PENASQUITOS",False,-117.12887,32.94556
CANYON VIEW ELEM SCHOOL-MPR,9225 ADOLPHIA ST SCHL SAN DIEGO CA 92129,True,"RHO PENASQUITOS, RHO PENASQUITOS, RHO PENASQUITOS",False,-117.12887,32.94556
CARLSBAD HIGH SCHOOL-GYM,3557 MONROE ST SCHL CARLSBAD CA 92008,False,"CARLSBAD, CARLSBAD, CARLSBAD, CARLSBAD",False,-117.32799,33.16339
CARLSBAD HIGH SCHOOL-GYM,3557 MONROE ST SCHL CARLSBAD CA 92008,True,"CARLSBAD, CARLSBAD, CARLSBAD, CARLSBAD",False,-117.32799,33.16339
CARLTON HILLS SCHOOL-MPR,9353 PIKE RD SANTEE CA 92071,False,"SANTEE, SANTEE",False,-116.9955,32.84819
CARLTON HILLS SCHOOL-MPR,9353 PIKE RD SANTEE CA 92071,True,"SANTEE, SANTEE",False,-116.9955,32.84819
CARMEL DEL MAR ELEM SCHOOL-MUR,12345 CARMEL PARK DR SCHL SAN DIEGO CA 92130,False,DEL MAR HEIGHTS,False,-117.22858,32.94075
CARMEL DEL MAR ELEM SCHOOL-MUR,12345 CARMEL PARK DR SCHL SAN DIEGO CA 92130,True,DEL MAR HEIGHTS,False,-117.22858,32.94075
CARMEL MOUNTAIN RANCH REC CENTER-GYM,10152 RANCHO CARMEL DR SAN DIEGO CA 92128,False,"RHO PENASQUITOS, POMERADO",False,-117.09131,32.96705
CARMEL MOUNTAIN RANCH REC CENTER-GYM,10152 RANCHO CARMEL DR SAN DIEGO CA 92128,True,"RHO PENASQUITOS, POMERADO",False,-117.09131,32.96705
CARMEL VALLEY REC CENTER - GYM,3777 TOWNSGATE DR SAN DIEGO CA 92130,False,"DEL MAR HEIGHTS, DEL MAR HEIGHTS",False,-117.23254,32.94927
CARMEL VALLEY REC CENTER - GYM,3777 TOWNSGATE DR SAN DIEGO CA 92130,True,"DEL MAR HEIGHTS, DEL MAR HEIGHTS",False,-117.23254,32.94927
CARRILLO ELEM SCHOOL-MPR,2875 POINSETTIA LN CARLSBAD CA 92009,False,"CARLSBAD, CARLSBAD",False,-117.23829,33.12094
CARRILLO ELEM SCHOOL-MPR,2875 POINSETTIA LN CARLSBAD CA 92009,True,"CARLSBAD, CARLSBAD",False,-117.23829,33.12094
CASITA CENTER-MPR,260 CEDAR RD VISTA CA 92083,False,"OCEANSIDE, VISTA",False,-117.28563,33.19055
CASITA CENTER-MPR,260 CEDAR RD VISTA CA 92083,True,"OCEANSIDE, VISTA",False,-117.28563,33.19055
CASTLE PARK ELEM SCHOOL-MPR,25 EMERSON ST SCHL CHULA VISTA CA 91911,False,CHULA VISTA,False,-117.05652,32.6148
CASTLE PARK ELEM SCHOOL-MPR,25 EMERSON ST SCHL CHULA VISTA CA 91911,True,CHULA VISTA,False,-117.05652,32.6148
CASTLE PARK HIGH SCHOOL-STUDENT UNION,1395 HILLTOP DR CHULA VISTA CA 91911,False,CHULA VISTA,False,-117.05029,32.60628
CASTLE PARK HIGH SCHOOL-STUDENT UNION,1395 HILLTOP DR CHULA VISTA CA 91911,True,CHULA VISTA,False,-117.05029,32.60628
CENTRAL ELEM SCHOOL-AUDITORIUM,122 W 4TH AVE ESCONDIDO CA 92025,False,"ESCONDIDO, ESCONDIDO, ESCONDIDO, ESCONDIDO, ESCONDIDO, ESCONDIDO",False,-117.08033,33.11884
CENTRAL ELEM SCHOOL-AUDITORIUM,122 W 4TH AVE ESCONDIDO CA 92025,True,"ESCONDIDO, ESCONDIDO, ESCONDIDO, ESCONDIDO, ESCONDIDO, ESCONDIDO",False,-117.08033,33.11884
CESAR CHAVEZ COMMUNITY CTR-GYM,455 SYCAMORE RD POLL SAN YSIDRO CA 92173,False,NESTOR,False,-117.04537,32.5467
CESAR CHAVEZ COMMUNITY CTR-GYM,455 SYCAMORE RD POLL SAN YSIDRO CA 92173,True,NESTOR,False,-117.04537,32.5467
CESAR CHAVEZ MIDDLE SCHOOL-MPR,202 OLEANDER DR OCEANSIDE CA 92057,False,OCEANSIDE,False,-117.30208,33.24239
CESAR CHAVEZ MIDDLE SCHOOL-MPR,202 OLEANDER DR OCEANSIDE CA 92057,True,OCEANSIDE,False,-117.30208,33.24239
CHALLENGER MID SCHOOL-ACTIVITY RM,10810 PARKDALE AVE SCHL SAN DIEGO CA 92126,False,MIRA MESA,False,-117.15702,32.91328
CHALLENGER MID SCHOOL-ACTIVITY RM,10810 PARKDALE AVE SCHL SAN DIEGO CA 92126,True,MIRA MESA,False,-117.15702,32.91328
CHULA VISTA MIDDLE SCHOOL-AUDITORIUM,415 5TH AVE CHULA VISTA CA 91910,False,CHULA VISTA,False,-117.08456,32.63518
CHULA VISTA MIDDLE SCHOOL-AUDITORIUM,415 5TH AVE CHULA VISTA CA 91910,True,CHULA VISTA,False,-117.08456,32.63518
COLINA DEL SOL REC CENTER-GYM,5319 ORANGE AVE SAN DIEGO CA 92115,False,NORMAL HEIGHTS,False,-117.0801,32.75277
COLINA DEL SOL REC CENTER-GYM,5319 ORANGE AVE SAN DIEGO CA 92115,True,NORMAL HEIGHTS,False,-117.0801,32.75277
COLONEL IRVING SALOMON COMM CTR - GYM,179 DIZA RD SAN YSIDRO CA 92173,False,"SAN YSIDRO, SAN YSIDRO",False,-117.04585,32.56508
COLONEL IRVING SALOMON COMM CTR - GYM,179 DIZA RD SAN YSIDRO CA 92173,True,"SAN YSIDRO, SAN YSIDRO",False,-117.04585,32.56508
CORREIA MIDDLE SCHOOL-RM 801,4302 VALETA ST SAN DIEGO CA 92107,False,OCEAN BEACH,False,-117.23188,32.74807
CORREIA MIDDLE SCHOOL-RM 801,4302 VALETA ST SAN DIEGO CA 92107,True,OCEAN BEACH,False,-117.23188,32.74807
CRAWFORD HIGH SCHOOL-GYM,5600 SPARTAN DR SAN DIEGO CA 92115,False,"ROLANDO REDWOOD, ROLANDO REDWOOD, ROLANDO REDWOOD",False,-117.0747,32.7531
CRAWFORD HIGH SCHOOL-GYM,5600 SPARTAN DR SAN DIEGO CA 92115,True,"ROLANDO REDWOOD, ROLANDO REDWOOD, ROLANDO REDWOOD",False,-117.0747,32.7531
CREEKSIDE ELEM SCHOOL-MPR,12362 SPRINGHURST DR SAN DIEGO CA 92128,False,"POWAY, POMERADO",False,-117.07637,32.94426
CREEKSIDE ELEM SCHOOL-MPR,12362 SPRINGHURST DR SAN DIEGO CA 92128,True,"POWAY, POMERADO",False,-117.07637,32.94426
CREST ELEMENTARY SCHOOL-COYOTE HALL,2000 SUNCREST BLVD EL CAJON CA 92021,False,CREST,False,-116.86614,32.80519
CREST ELEMENTARY SCHOOL-COYOTE HALL,2000 SUNCREST BLVD EL CAJON CA 92021,True,CREST,False,-116.86614,32.80519
CSU SAN MARCOS-CLARKE FIELD HOUSE-GYM,333 S TWIN OAKS VALLEY RD L SAN MARCOS CA 92078,False,"HARMONY GROVE, SAN MARCOS, SAN MARCOS, SAN MARCOS, HARMONY GROVE",False,-117.15957,33.12949
CSU SAN MARCOS-CLARKE FIELD HOUSE-GYM,333 S TWIN OAKS VALLEY RD L SAN MARCOS CA 92078,True,"HARMONY GROVE, SAN MARCOS, SAN MARCOS, SAN MARCOS, HARMONY GROVE",False,-117.15957,33.12949
CUYAMACA COLLEGE-STUDENT CTR BLDG I,900 RANCHO SAN DIEGO PKWY SCHL EL CAJON CA 92019,False,"SPRING VALLEY, HELIX, HELIX, JAMACHA, VALLE DE ORO",False,-116.94044,32.74465
CUYAMACA COLLEGE-STUDENT CTR BLDG I,900 RANCHO SAN DIEGO PKWY SCHL EL CAJON CA 92019,True,"SPRING VALLEY, HELIX, HELIX, JAMACHA, VALLE DE ORO",False,-116.94044,32.74465
DANA MID SCHOOL-CAFETERIA,1775 CHATSWORTH BLVD SAN DIEGO CA 92107,False,OCEAN BEACH,False,-117.2327,32.73229
DANA MID SCHOOL-CAFETERIA,1775 CHATSWORTH BLVD SAN DIEGO CA 92107,True,OCEAN BEACH,False,-117.2327,32.73229
DEER CANYON ELEM SCHOOL-MPR,13455 RUSSET LEAF LN SCHL SAN DIEGO CA 92129,False,RHO PENASQUITOS,False,-117.143,32.96348
DEER CANYON ELEM SCHOOL-MPR,13455 RUSSET LEAF LN SCHL SAN DIEGO CA 92129,True,RHO PENASQUITOS,False,-117.143,32.96348
DEL LAGO ACADEMY-GYM,1740 SCENIC TRAILS WAY ESCONDIDO CA 92029,False,"ESCONDIDO, ELFIN FOREST, ESCONDIDO, DEL DIOS, ESCONDIDO",False,-117.10409,33.09957
DEL LAGO ACADEMY-GYM,1740 SCENIC TRAILS WAY ESCONDIDO CA 92029,True,"ESCONDIDO, ELFIN FOREST, ESCONDIDO, DEL DIOS, ESCONDIDO",False,-117.10409,33.09957
DEL MAR HILLS ACADEMY-PAC,14085 MANGO DR SCHL DEL MAR CA 92014,False,"DEL MAR HEIGHTS, DEL MAR",False,-117.24593,32.95351
DEL MAR HILLS ACADEMY-PAC,14085 MANGO DR SCHL DEL MAR CA 92014,True,"DEL MAR HEIGHTS, DEL MAR",False,-117.24593,32.95351
DEL RIO ELEMENTARY SCHOOL-MPR,5200 NORTH RIVER RD SCHL OCEANSIDE CA 92057,False,"OCEANSIDE, OCEANSIDE, OCEANSIDE",False,-117.29517,33.25667
DEL RIO ELEMENTARY SCHOOL-MPR,5200 NORTH RIVER RD SCHL OCEANSIDE CA 92057,True,"OCEANSIDE, OCEANSIDE, OCEANSIDE",False,-117.29517,33.25667
DEL SUR ELEMENTARY SCHOOL-MPR,15665 PASEO DEL SUR SAN DIEGO CA 92127,False,"DEL DIOS, DEL DIOS, RHO PENASQUITOS",False,-117.14054,33.01855
DEL SUR ELEMENTARY SCHOOL-MPR,15665 PASEO DEL SUR SAN DIEGO CA 92127,True,"DEL DIOS, DEL DIOS, RHO PENASQUITOS",False,-117.14054,33.01855
DESCANSO TOWN HALL,24536 VIEJAS GRADE RD DESCANSO CA 91916,False,DESCANSO,False,-116.61961,32.85367
DESCANSO TOWN HALL,24536 VIEJAS GRADE RD DESCANSO CA 91916,True,DESCANSO,False,-116.61961,32.85367
DINGEMAN ELEM SCH-AUDITORIUM,11840 SCRIPPS CREEK DR SCHL SAN DIEGO CA 92131,False,"POMERADO, POMERADO",False,-117.09061,32.93348
DINGEMAN ELEM SCH-AUDITORIUM,11840 SCRIPPS CREEK DR SCHL SAN DIEGO CA 92131,True,"POMERADO, POMERADO",False,-117.09061,32.93348
DISCOVERY ELEM SCHOOL-MPR,730 APPLEWILDE DR SAN MARCOS CA 92078,False,"SAN MARCOS, LAKE SAN MARCOS, LAKE SAN MARCOS, LAKE SAN MARCOS, LAKE SAN MARCOS",False,-117.19066,33.12863
DISCOVERY ELEM SCHOOL-MPR,730 APPLEWILDE DR SAN MARCOS CA 92078,True,"SAN MARCOS, LAKE SAN MARCOS, LAKE SAN MARCOS, LAKE SAN MARCOS, LAKE SAN MARCOS",False,-117.19066,33.12863
DOLORES MAGDALENO MEMORIAL REC CTR-GYM,2902 MARCY AVE SAN DIEGO CA 92113,False,HARBOR,False,-117.13167,32.69854
DOLORES MAGDALENO MEMORIAL REC CTR-GYM,2902 MARCY AVE SAN DIEGO CA 92113,True,HARBOR,False,-117.13167,32.69854
DOYLE RECREATION CENTER-GYM,8175 REGENTS RD SAN DIEGO CA 92122,False,UNIVERSITY N,False,-117.2209,32.86452
DOYLE RECREATION CENTER-GYM,8175 REGENTS RD SAN DIEGO CA 92122,True,UNIVERSITY N,False,-117.2209,32.86452
EAST VALLEY COMMUNITY CENTER - GYM,2245 E VALLEY PKWY ESCONDIDO CA 92027,False,"ESCONDIDO, ESCONDIDO, ESCONDIDO, ESCONDIDO",False,-117.04612,33.13856
EAST VALLEY COMMUNITY CENTER - GYM,2245 E VALLEY PKWY ESCONDIDO CA 92027,True,"ESCONDIDO, ESCONDIDO, ESCONDIDO, ESCONDIDO",False,-117.04612,33.13856
EASTLAKE HIGH SCHOOL-ROOM 1604,1120 EASTLAKE PKWY SCHL CHULA VISTA CA 91915,False,CHULA VISTA,False,-116.96763,32.64032
EASTLAKE HIGH SCHOOL-ROOM 1604,1120 EASTLAKE PKWY SCHL CHULA VISTA CA 91915,True,CHULA VISTA,False,-116.96763,32.64032
EASTLAKE MIDDLE SCHOOL-MPR,900 DUNCAN RANCH RD CHULA VISTA CA 91914,False,CHULA VISTA,False,-116.94808,32.65469
EASTLAKE MIDDLE SCHOOL-MPR,900 DUNCAN RANCH RD CHULA VISTA CA 91914,True,CHULA VISTA,False,-116.94808,32.65469
EL CAMINO CREEK SCHOOL-AUDITORIUM,7885 PASEO ALISO CARLSBAD CA 92009,False,"CARLSBAD, CARLSBAD, CARLSBAD",False,-117.2599,33.07587
EL CAMINO CREEK SCHOOL-AUDITORIUM,7885 PASEO ALISO CARLSBAD CA 92009,True,"CARLSBAD, CARLSBAD, CARLSBAD",False,-117.2599,33.07587
EL CAPITAN HIGH SCHOOL-GYM,10410 ASHWOOD ST LAKESIDE CA 92040,False,"LAKESIDE, LAKESIDE, LAKESIDE",False,-116.91816,32.86442
EL CAPITAN HIGH SCHOOL-GYM,10410 ASHWOOD ST LAKESIDE CA 92040,True,"LAKESIDE, LAKESIDE, LAKESIDE",False,-116.91816,32.86442
EL CORAZON SENIOR CENTER - CLASSROOMS,3302 SENIOR CENTER DR OCEANSIDE CA 92056,False,"OCEANSIDE, OCEANSIDE, OCEANSIDE",False,-117.31486,33.2061
EL CORAZON SENIOR CENTER - CLASSROOMS,3302 SENIOR CENTER DR OCEANSIDE CA 92056,True,"OCEANSIDE, OCEANSIDE, OCEANSIDE",False,-117.31486,33.2061
ELLEN BROWNING SCRIPPS ELEM-MPR,11778 CYPRESS CANYON RD SAN DIEGO CA 92131,False,"POMERADO, POMERADO, POMERADO",False,-117.08211,32.92986
ELLEN BROWNING SCRIPPS ELEM-MPR,11778 CYPRESS CANYON RD SAN DIEGO CA 92131,True,"POMERADO, POMERADO, POMERADO",False,-117.08211,32.92986
EMERALD MIDDLE SCHOOL-ROOMS 608/609,1221 EMERALD AVE SCHL EL CAJON CA 92020,False,"EL CAJON, EL CAJON, EL CAJON, EL CAJON, EL CAJON, EL CAJON, EL CAJON",False,-116.96783,32.77865
EMERALD MIDDLE SCHOOL-ROOMS 608/609,1221 EMERALD AVE SCHL EL CAJON CA 92020,True,"EL CAJON, EL CAJON, EL CAJON, EL CAJON, EL CAJON, EL CAJON, EL CAJON",False,-116.96783,32.77865
ENCANTO RECREATION CENTER-GYM,6508 WUNDERLIN AVE SAN DIEGO CA 92114,False,"ENCANTO W, ENCANTO W",False,-117.05778,32.71479
ENCANTO RECREATION CENTER-GYM,6508 WUNDERLIN AVE SAN DIEGO CA 92114,True,"ENCANTO W, ENCANTO W",False,-117.05778,32.71479
ENCINITAS COMMUNITY CENTER,1140 OAKCREST PARK DR ENCINITAS CA 92024,False,"ENCINITAS, ENCINITAS, ENCINITAS, ENCINITAS, ENCINITAS, ENCINITAS",False,-117.26738,33.04535
ENCINITAS COMMUNITY CENTER,1140 OAKCREST PARK DR ENCINITAS CA 92024,True,"ENCINITAS, ENCINITAS, ENCINITAS, ENCINITAS, ENCINITAS, ENCINITAS",False,-117.26738,33.04535
ESCONDIDO HIGH SCHOOL-MAIN GYM,1535 N BROADWAY ESCONDIDO CA 92026,False,"ESCONDIDO, ESCONDIDO, ESCONDIDO, ESCONDIDO, ESCONDIDO",False,-117.09364,33.15019
ESCONDIDO HIGH SCHOOL-MAIN GYM,1535 N BROADWAY ESCONDIDO CA 92026,True,"ESCONDIDO, ESCONDIDO, ESCONDIDO, ESCONDIDO, ESCONDIDO",False,-117.09364,33.15019
FALLBROOK COMMUNITY CTR-AUDITORIUM,341 HEALD LN FALLBROOK CA 92028,False,"FALLBROOK, FALLBROOK",False,-117.23646,33.37703
FALLBROOK COMMUNITY CTR-AUDITORIUM,341 HEALD LN FALLBROOK CA 92028,True,"FALLBROOK, FALLBROOK",False,-117.23646,33.37703
FALLBROOK HIGH SCHOOL-GYM,2400 S STAGE COACH LN SCHL FALLBROOK CA 92028,False,FALLBROOK,False,-117.24146,33.34849
FALLBROOK HIGH SCHOOL-GYM,2400 S STAGE COACH LN SCHL FALLBROOK CA 92028,True,FALLBROOK,False,-117.24146,33.34849
FARR ELEMENTARY SCHOOL-MPR,933 FARR AVE ESCONDIDO CA 92026,False,"ESCONDIDO, ESCONDIDO, ESCONDIDO",False,-117.07668,33.13844
FARR ELEMENTARY SCHOOL-MPR,933 FARR AVE ESCONDIDO CA 92026,True,"ESCONDIDO, ESCONDIDO, ESCONDIDO",False,-117.07668,33.13844
"FINNEY, MYRTLE S ELEM SCHOOL-AUDITORIUM",3950 BYRD ST SAN DIEGO CA 92154,False,OTAY,False,-117.04934,32.58505
"FINNEY, MYRTLE S ELEM SCHOOL-AUDITORIUM",3950 BYRD ST SAN DIEGO CA 92154,True,OTAY,False,-117.04934,32.58505
FLORENCE ELEM SCHOOL-AUDITORIUM,3914 1ST AVE SCHL SAN DIEGO CA 92103,False,HILLCREST,False,-117.16418,32.749
FLORENCE ELEM SCHOOL-AUDITORIUM,3914 1ST AVE SCHL SAN DIEGO CA 92103,True,HILLCREST,False,-117.16418,32.749
FOOTHILLS ADULT ED CTR-AUDITORIUM,1550 MELODY LN EL CAJON CA 92019,False,"VALLE DE ORO, EL CAJON, EL CAJON, EL CAJON, EL CAJON",False,-116.92424,32.79748
FOOTHILLS ADULT ED CTR-AUDITORIUM,1550 MELODY LN EL CAJON CA 92019,True,"VALLE DE ORO, EL CAJON, EL CAJON, EL CAJON, EL CAJON",False,-116.92424,32.79748
FOSTER ELEM SCHOOL-AUDITORIUM,6550 51ST ST SAN DIEGO CA 92120,False,"NAVAJO, TIERRASANTA, MISSION VALLEY",False,-117.08492,32.79226
FOSTER ELEM SCHOOL-AUDITORIUM,6550 51ST ST SAN DIEGO CA 92120,True,"NAVAJO, TIERRASANTA, MISSION VALLEY",False,-117.08492,32.79226
FRANKLIN ELEM SCHOOL-AUDITORIUM,4481 COPELAND AVE SAN DIEGO CA 92116,False,NORMAL HEIGHTS,False,-117.10329,32.75829
FRANKLIN ELEM SCHOOL-AUDITORIUM,4481 COPELAND AVE SAN DIEGO CA 92116,True,NORMAL HEIGHTS,False,-117.10329,32.75829
FREESE ELEM SCHOOL-AUDITORIUM,8140 GREENLAWN DR SAN DIEGO CA 92114,False,"ENCANTO E, ENCANTO E, ENCANTO E, PARADISE HILLS",False,-117.02769,32.70433
FREESE ELEM SCHOOL-AUDITORIUM,8140 GREENLAWN DR SAN DIEGO CA 92114,True,"ENCANTO E, ENCANTO E, ENCANTO E, PARADISE HILLS",False,-117.02769,32.70433
FULTON ELEMENTARY SCHOOL-AUDITORIUM,7055 SKYLINE DR SAN DIEGO CA 92114,False,ENCANTO E,False,-117.04593,32.70149
FULTON ELEMENTARY SCHOOL-AUDITORIUM,7055 SKYLINE DR SAN DIEGO CA 92114,True,ENCANTO E,False,-117.04593,32.70149
GARFIELD ELEM SCHOOL-MPR,4487 OREGON ST SAN DIEGO CA 92116,False,"HILLCREST, NORTH PARK",False,-117.13477,32.7583
GARFIELD ELEM SCHOOL-MPR,4487 OREGON ST SAN DIEGO CA 92116,True,"HILLCREST, NORTH PARK",False,-117.13477,32.7583
GLORIA MC CLELLAN SENIOR CTR-AZALEA ROOM,1400 VALE TERRACE DR VISTA CA 92084,False,"VISTA, VISTA, VISTA",False,-117.2186,33.20674
GLORIA MC CLELLAN SENIOR CTR-AZALEA ROOM,1400 VALE TERRACE DR VISTA CA 92084,True,"VISTA, VISTA, VISTA",False,-117.2186,33.20674
GOLDEN HILL RECREATION CTR-GYM,2600 GOLF COURSE DR SAN DIEGO CA 92102,False,"SOUTH PARK, SOUTH PARK",False,-117.13764,32.72499
GOLDEN HILL RECREATION CTR-GYM,2600 GOLF COURSE DR SAN DIEGO CA 92102,True,"SOUTH PARK, SOUTH PARK",False,-117.13764,32.72499
GRANT ELEM SCHOOL-AUDITORIUM,1425 WASHINGTON PL SAN DIEGO CA 92103,False,"MIDWAY OLD TOWN, MIDWAY OLD TOWN",False,-117.1752,32.7493
GRANT ELEM SCHOOL-AUDITORIUM,1425 WASHINGTON PL SAN DIEGO CA 92103,True,"MIDWAY OLD TOWN, MIDWAY OLD TOWN",False,-117.1752,32.7493
GROSSMONT COLLEGE-GRIFFIN GATE,8800 GROSSMONT COLLEGE DR CLG EL CAJON CA 92020,False,"EL CAJON, EL CAJON, EL CAJON, EL CAJON",False,-117.00657,32.81667
GROSSMONT COLLEGE-GRIFFIN GATE,8800 GROSSMONT COLLEGE DR CLG EL CAJON CA 92020,True,"EL CAJON, EL CAJON, EL CAJON, EL CAJON",False,-117.00657,32.81667
HAGE ELEM SCHOOL-AUDITORIUM,9750 GALVIN AVE SCHL SAN DIEGO CA 92126,False,MIRA MESA,False,-117.12099,32.92092
HAGE ELEM SCHOOL-AUDITORIUM,9750 GALVIN AVE SCHL SAN DIEGO CA 92126,True,MIRA MESA,False,-117.12099,32.92092
HANNALEI ELEMENTARY SCHOOL-MPR,120 HANNALEI DR VISTA CA 92083,False,"BUENA, FOOTHILL, FOOTHILL, BUENA, VISTA, BUENA, FOOTHILL",False,-117.21743,33.17844
HANNALEI ELEMENTARY SCHOOL-MPR,120 HANNALEI DR VISTA CA 92083,True,"VISTA, BUENA, FOOTHILL, BUENA, FOOTHILL, FOOTHILL, BUENA",False,-117.21743,33.17844
HANSON ELEMENTARY SCHOOL-MPR,2520 BOUNDARY AVE SCHL RAMONA CA 92065,False,RAMONA,False,-116.89019,33.01824
HANSON ELEMENTARY SCHOOL-MPR,2520 BOUNDARY AVE SCHL RAMONA CA 92065,True,RAMONA,False,-116.89019,33.01824
HARBORSIDE ELEM SCHOOL-AUDITORIUM,681 NAPLES ST SCHL CHULA VISTA CA 91911,False,"CHULA VISTA, CHULA VISTA",False,-117.08616,32.60861
HARBORSIDE ELEM SCHOOL-AUDITORIUM,681 NAPLES ST SCHL CHULA VISTA CA 91911,True,"CHULA VISTA, CHULA VISTA",False,-117.08616,32.60861
HEARST ELEM SCHOOL-AUDITORIUM,6230 DEL CERRO BLVD SAN DIEGO CA 92120,False,NAVAJO,False,-117.06426,32.7837
HEARST ELEM SCHOOL-AUDITORIUM,6230 DEL CERRO BLVD SAN DIEGO CA 92120,True,NAVAJO,False,-117.06426,32.7837
HERITAGE RECREATION CENTER-MPR,1381 E PALOMAR ST CHULA VISTA CA 91913,False,CHULA VISTA,False,-116.9978,32.62451
HERITAGE RECREATION CENTER-MPR,1381 E PALOMAR ST CHULA VISTA CA 91913,True,CHULA VISTA,False,-116.9978,32.62451
HIGHLANDS ELEM SCHOOL-MPR,3131 S BARCELONA ST SPRING VALLEY CA 91977,False,"SPRING VALLEY, SPRING VALLEY",False,-116.98078,32.73767
HIGHLANDS ELEM SCHOOL-MPR,3131 S BARCELONA ST SPRING VALLEY CA 91977,True,"SPRING VALLEY, SPRING VALLEY",False,-116.98078,32.73767
HILLTOP COMMUNITY PARK-MPR,9711 OVIEDO WAY SAN DIEGO CA 92129,False,RHO PENASQUITOS,False,-117.11901,32.9714
HILLTOP COMMUNITY PARK-MPR,9711 OVIEDO WAY SAN DIEGO CA 92129,True,RHO PENASQUITOS,False,-117.11901,32.9714
HILLTOP HIGH SCHOOL-CAFETERIA,555 CLAIRE AVE CHULA VISTA CA 91910,False,CHULA VISTA,False,-117.05853,32.63769
HILLTOP HIGH SCHOOL-CAFETERIA,555 CLAIRE AVE CHULA VISTA CA 91910,True,CHULA VISTA,False,-117.05853,32.63769
HOOVER HIGH SCHOOL-AUDITORIUM STAGE,4474 EL CAJON BLVD BUS. SAN DIEGO CA 92115,False,"NORMAL HEIGHTS, NORMAL HEIGHTS, NORTH PARK, NORMAL HEIGHTS",False,-117.09789,32.75567
HOOVER HIGH SCHOOL-AUDITORIUM STAGE,4474 EL CAJON BLVD BUS. SAN DIEGO CA 92115,True,"NORMAL HEIGHTS, NORMAL HEIGHTS, NORTH PARK, NORMAL HEIGHTS",False,-117.09789,32.75567
IRA HARBISON ELEM SCHOOL-AUDITORIUM,3235 E 8TH ST NATIONAL CITY CA 91950,False,"NATIONAL CITY, NATIONAL CITY",False,-117.07366,32.68605
IRA HARBISON ELEM SCHOOL-AUDITORIUM,3235 E 8TH ST NATIONAL CITY CA 91950,True,"NATIONAL CITY, NATIONAL CITY",False,-117.07366,32.68605
JAMES DUKES ELEM SCHOOL-MULTIPURPOSE CTR,24908 ABALAR WAY RAMONA CA 92065,False,"BARONA, BALLENA",False,-116.79103,33.00886
JAMES DUKES ELEM SCHOOL-MULTIPURPOSE CTR,24908 ABALAR WAY RAMONA CA 92065,True,"BARONA, BALLENA",False,-116.79103,33.00886
JAMUL INTERMEDIATE SCHOOL-LIBRARY,14545 LYONS VALLEY RD JAMUL CA 91935,False,"VALLE DE ORO, JAMUL, JAMACHA, JAMUL",False,-116.85616,32.729
JAMUL INTERMEDIATE SCHOOL-LIBRARY,14545 LYONS VALLEY RD JAMUL CA 91935,True,"VALLE DE ORO, JAMUL, JAMACHA, JAMUL",False,-116.85616,32.729
JERABEK ELEM SCHOOL-AUDITORIUM,10050 AVENIDA MAGNIFICA SAN DIEGO CA 92131,False,POMERADO,False,-117.084,32.9079
JERABEK ELEM SCHOOL-AUDITORIUM,10050 AVENIDA MAGNIFICA SAN DIEGO CA 92131,True,POMERADO,False,-117.084,32.9079
JOHN D SPRECKELS CENTER,1019 7TH ST CORONADO CA 92118,False,CORONADO,False,-117.17778,32.69058
JOHN D SPRECKELS CENTER,1019 7TH ST CORONADO CA 92118,True,CORONADO,False,-117.17778,32.69058
JONES ELEMENTARY SCHOOL-MPR,2751 GREYLING DR SAN DIEGO CA 92123,False,SERRA MESA,False,-117.14081,32.79555
JONES ELEMENTARY SCHOOL-MPR,2751 GREYLING DR SAN DIEGO CA 92123,True,SERRA MESA,False,-117.14081,32.79555
JULIAN TOWN HALL - DOWNSTAIRS,2129 MAIN ST JULIAN CA 92036,False,SAN FELIPE,False,-116.60244,33.07831
JULIAN TOWN HALL - DOWNSTAIRS,2129 MAIN ST JULIAN CA 92036,True,SAN FELIPE,False,-116.60244,33.07831
KEARNY MESA REC CENTER-GYM,3170 ARMSTRONG ST SAN DIEGO CA 92111,False,"CLAIREMONT E, LINDA VISTA, LINDA VISTA",False,-117.16544,32.80187
KEARNY MESA REC CENTER-GYM,3170 ARMSTRONG ST SAN DIEGO CA 92111,True,"CLAIREMONT E, LINDA VISTA, LINDA VISTA",False,-117.16544,32.80187
L R GREEN ELEMENTARY SCHOOL-MPR,3115 LAS PALMAS AVE SCHL ESCONDIDO CA 92025,False,"DEL DIOS, ESCONDIDO, RINCON D DIABLO, ESCONDIDO, DEL DIOS, ESCONDIDO",False,-117.0597,33.08482
L R GREEN ELEMENTARY SCHOOL-MPR,3115 LAS PALMAS AVE SCHL ESCONDIDO CA 92025,True,"DEL DIOS, ESCONDIDO, RINCON D DIABLO, ESCONDIDO, DEL DIOS, ESCONDIDO",False,-117.0597,33.08482
LA COSTA MEADOWS SCHOOL-CAFETERIA,6889 EL FUERTE ST SCHL CARLSBAD CA 92009,False,"CARLSBAD, CARLSBAD, CARLSBAD",False,-117.24123,33.10373
LA COSTA MEADOWS SCHOOL-CAFETERIA,6889 EL FUERTE ST SCHL CARLSBAD CA 92009,True,"CARLSBAD, CARLSBAD, CARLSBAD",False,-117.24123,33.10373
LA JOLLA ELEM SCHOOL-AUDITORIUM,1111 MARINE ST SCHL LA JOLLA CA 92037,False,LA JOLLA,False,-117.2717,32.83924
LA JOLLA ELEM SCHOOL-AUDITORIUM,1111 MARINE ST SCHL LA JOLLA CA 92037,True,LA JOLLA,False,-117.2717,32.83924
LA MESA ADULT ENRICHMENT CTR-MAIN HALL,8450 LA MESA BLVD LA MESA CA 91942,False,LA MESA,False,-117.01601,32.76774
LA MESA ADULT ENRICHMENT CTR-MAIN HALL,8450 LA MESA BLVD LA MESA CA 91942,True,LA MESA,False,-117.01601,32.76774
LA MESA ARTS ACADEMY-MPR,4200 PARKS AVE LA MESA CA 91941,False,"LA MESA, LA MESA",False,-117.03026,32.75487
LA MESA ARTS ACADEMY-MPR,4200 PARKS AVE LA MESA CA 91941,True,"LA MESA, LA MESA",False,-117.03026,32.75487
LA MIRADA ACADEMY-GYM,3697 LA MIRADA DR SCHL SAN MARCOS CA 92078,False,"SAN MARCOS, SAN MARCOS, SAN MARCOS, SAN MARCOS, SAN MARCOS",False,-117.20313,33.14305
LA MIRADA ACADEMY-GYM,3697 LA MIRADA DR SCHL SAN MARCOS CA 92078,True,"SAN MARCOS, SAN MARCOS, SAN MARCOS, SAN MARCOS, SAN MARCOS",False,-117.20313,33.14305
LAKESIDE COMMUNITY CENTER-MEYER HALL,9841 VINE ST LAKESIDE CA 92040,False,"LAKESIDE, LAKESIDE, LAKESIDE",False,-116.92025,32.85926
LAKESIDE COMMUNITY CENTER-MEYER HALL,9841 VINE ST LAKESIDE CA 92040,True,"LAKESIDE, LAKESIDE, LAKESIDE",False,-116.92025,32.85926
LAUREL ELEMENTARY SCHOOL-ROOMS E15/E16,1410 LAUREL ST OCEANSIDE CA 92058,False,OCEANSIDE,False,-117.37317,33.20738
LAUREL ELEMENTARY SCHOOL-ROOMS E15/E16,1410 LAUREL ST OCEANSIDE CA 92058,True,OCEANSIDE,False,-117.37317,33.20738
LEMON BLOSSOM HALL,8235 MT VERNON ST LEMON GROVE CA 91945,False,LEMON GROVE,False,-117.02244,32.7312
LEMON BLOSSOM HALL,8235 MT VERNON ST LEMON GROVE CA 91945,True,LEMON GROVE,False,-117.02244,32.7312
LEMON GROVE REC CENTER - GYMNASIUM,3131 SCHOOL LN LEMON GROVE CA 91945,False,LEMON GROVE,False,-117.02965,32.73998
LEMON GROVE REC CENTER - GYMNASIUM,3131 SCHOOL LN LEMON GROVE CA 91945,True,LEMON GROVE,False,-117.02965,32.73998
LIBBY ELEMENTARY SCHOOL-ROOMS 5/6,423 W REDONDO DR OCEANSIDE CA 92057,False,OCEANSIDE,False,-117.30534,33.25176
LIBBY ELEMENTARY SCHOOL-ROOMS 5/6,423 W REDONDO DR OCEANSIDE CA 92057,True,OCEANSIDE,False,-117.30534,33.25176
LINCOLN ELEM SCHOOL-MPR,1029 N BROADWAY SCHL ESCONDIDO CA 92026,False,"ESCONDIDO, ESCONDIDO",False,-117.08791,33.13454
LINCOLN ELEM SCHOOL-MPR,1029 N BROADWAY SCHL ESCONDIDO CA 92026,True,"ESCONDIDO, ESCONDIDO",False,-117.08791,33.13454
LINCOLN MIDDLE SCHOOL-MPR,2000 CALIFORNIA ST OCEANSIDE CA 92054,False,OCEANSIDE,False,-117.3521,33.18896
LINCOLN MIDDLE SCHOOL-MPR,2000 CALIFORNIA ST OCEANSIDE CA 92054,True,OCEANSIDE,False,-117.3521,33.18896
LINDA VISTA RECREATION CTR-AUDITORIUM,7064 LEVANT ST SAN DIEGO CA 92111,False,LINDA VISTA,False,-117.17006,32.79168
LINDA VISTA RECREATION CTR-AUDITORIUM,7064 LEVANT ST SAN DIEGO CA 92111,True,LINDA VISTA,False,-117.17006,32.79168
LINDBERGH SCHWEITZER SCHOOL-WEST AUDIT,4133 MT ALBERTINE AVE SCHL SAN DIEGO CA 92111,False,CLAIREMONT E,False,-117.1712,32.81943
LINDBERGH SCHWEITZER SCHOOL-WEST AUDIT,4133 MT ALBERTINE AVE SCHL SAN DIEGO CA 92111,True,CLAIREMONT E,False,-117.1712,32.81943
LOMA PORTAL ELEM SCH-AUDITORIUM,3341 BROWNING ST SAN DIEGO CA 92106,False,MIDWAY OLD TOWN,False,-117.22186,32.73989
LOMA PORTAL ELEM SCH-AUDITORIUM,3341 BROWNING ST SAN DIEGO CA 92106,True,MIDWAY OLD TOWN,False,-117.22186,32.73989
LUTHER BURBANK SCHOOL-AUDITORIUM,2146 JULIAN AVE SAN DIEGO CA 92113,False,SOUTH PARK,False,-117.13819,32.70037
LUTHER BURBANK SCHOOL-AUDITORIUM,2146 JULIAN AVE SAN DIEGO CA 92113,True,SOUTH PARK,False,-117.13819,32.70037
MADISON MIDDLE SCHOOL-MPR,4930 LAKE BLVD SCHL OCEANSIDE CA 92056,False,"OCEANSIDE, BUENA, OCEANSIDE",False,-117.25857,33.17466
MADISON MIDDLE SCHOOL-MPR,4930 LAKE BLVD SCHL OCEANSIDE CA 92056,True,"OCEANSIDE, BUENA, OCEANSIDE",False,-117.25857,33.17466
MAGNOLIA ELEM SCHOOL-AUDITORIUM,650 GREENFIELD DR EL CAJON CA 92021,False,"BOSTONIA, BOSTONIA, EL CAJON, BOSTONIA",False,-116.95399,32.81468
MAGNOLIA ELEM SCHOOL-AUDITORIUM,650 GREENFIELD DR EL CAJON CA 92021,True,"BOSTONIA, BOSTONIA, EL CAJON, BOSTONIA",False,-116.95399,32.81468
MARTIN L KING JR MID SCHOOL-MPR,1290 IVEY RANCH RD SCHL OCEANSIDE CA 92057,False,"OCEANSIDE, OCEANSIDE",False,-117.30966,33.21512
MARTIN L KING JR MID SCHOOL-MPR,1290 IVEY RANCH RD SCHL OCEANSIDE CA 92057,True,"OCEANSIDE, OCEANSIDE",False,-117.30966,33.21512
MARTIN LUTHER KING JR BLDG - MAIN HALL,140 E 12TH ST NATIONAL CITY CA 91950,False,"NATIONAL CITY, NATIONAL CITY",False,-117.10377,32.67232
MARTIN LUTHER KING JR BLDG - MAIN HALL,140 E 12TH ST NATIONAL CITY CA 91950,True,"NATIONAL CITY, NATIONAL CITY",False,-117.10377,32.67232
MARTIN LUTHER KING JR REC CTR-GYM,6401 SKYLINE DR SAN DIEGO CA 92114,False,ENCANTO W,False,-117.06058,32.70104
MARTIN LUTHER KING JR REC CTR-GYM,6401 SKYLINE DR SAN DIEGO CA 92114,True,ENCANTO W,False,-117.06058,32.70104
MARYLAND ELEMENTARY SCHOOL-AUDITORIUM,700 NORTH AVE VISTA CA 92083,False,"VISTA, VISTA, VISTA",False,-117.26063,33.21482
MARYLAND ELEMENTARY SCHOOL-AUDITORIUM,700 NORTH AVE VISTA CA 92083,True,"VISTA, VISTA, VISTA",False,-117.26063,33.21482
MC KINLEY ELEM SCHOOL-AUDITORIUM,3045 FELTON ST SAN DIEGO CA 92104,False,NORTH PARK,False,-117.12096,32.73684
MC KINLEY ELEM SCHOOL-AUDITORIUM,3045 FELTON ST SAN DIEGO CA 92104,True,NORTH PARK,False,-117.12096,32.73684
"MC MILLIN, CORKY SCHOOL-AUDITORIUM",1201 SANTA CORA AVE CHULA VISTA CA 91913,False,CHULA VISTA,False,-116.98361,32.63362
"MC MILLIN, CORKY SCHOOL-AUDITORIUM",1201 SANTA CORA AVE CHULA VISTA CA 91913,True,CHULA VISTA,False,-116.98361,32.63362
MID CITY COMMUNITY-GYMNASIUM,4302 LANDIS ST SAN DIEGO CA 92105,False,"NORMAL HEIGHTS, NORMAL HEIGHTS, CITY HEIGHTS",False,-117.10163,32.74673
MID CITY COMMUNITY-GYMNASIUM,4302 LANDIS ST SAN DIEGO CA 92105,True,"NORMAL HEIGHTS, NORMAL HEIGHTS, CITY HEIGHTS",False,-117.10163,32.74673
MIDLAND ELEMENTARY SCHOOL-MPR,13910 MIDLAND RD SCHL POWAY CA 92064,False,"POWAY, POWAY",False,-117.03713,32.96655
MIDLAND ELEMENTARY SCHOOL-MPR,13910 MIDLAND RD SCHL POWAY CA 92064,True,"POWAY, POWAY",False,-117.03713,32.96655
MIRA COSTA COMM COLL-DINING HL BLDG 3400,1 BARNARD DR CLG OCEANSIDE CA 92056,False,"CARLSBAD, CARLSBAD, OCEANSIDE",False,-117.30218,33.19007
MIRA COSTA COMM COLL-DINING HL BLDG 3400,1 BARNARD DR CLG OCEANSIDE CA 92056,True,"CARLSBAD, CARLSBAD, OCEANSIDE",False,-117.30218,33.19007
MIRA MESA REC CTR-GYM,8575 NEW SALEM ST SAN DIEGO CA 92126,False,MIRA MESA,False,-117.14031,32.91518
MIRA MESA REC CTR-GYM,8575 NEW SALEM ST SAN DIEGO CA 92126,True,MIRA MESA,False,-117.14031,32.91518
MISSION BAY HIGH SCHOOL-ACTIVITY RM,2475 GRAND AVE SAN DIEGO CA 92109,False,PACIFIC BEACH,False,-117.22423,32.80067
MISSION BAY HIGH SCHOOL-ACTIVITY RM,2475 GRAND AVE SAN DIEGO CA 92109,True,PACIFIC BEACH,False,-117.22423,32.80067
MONTEREY RIDGE ELEM SCHOOL-MPR,17117 4S RANCH PKWY SAN DIEGO CA 92127,False,"DEL DIOS, DEL DIOS, RHO PENASQUITOS, DEL DIOS",False,-117.10992,33.02751
MONTEREY RIDGE ELEM SCHOOL-MPR,17117 4S RANCH PKWY SAN DIEGO CA 92127,True,"DEL DIOS, DEL DIOS, RHO PENASQUITOS, DEL DIOS",False,-117.10992,33.02751
MONTGOMERY HIGH SCHOOL-OLD GYM,3250 PALM AVE SAN DIEGO CA 92154,False,"NESTOR, NESTOR",False,-117.06266,32.58394
MONTGOMERY HIGH SCHOOL-OLD GYM,3250 PALM AVE SAN DIEGO CA 92154,True,"NESTOR, NESTOR",False,-117.06266,32.58394
MONTGOMERY WALLER REC CTR - GYM,3020 CORONADO AVE SAN DIEGO CA 92154,False,NESTOR,False,-117.06884,32.57906
MONTGOMERY WALLER REC CTR - GYM,3020 CORONADO AVE SAN DIEGO CA 92154,True,NESTOR,False,-117.06884,32.57906
MOUNTAIN EMPIRE HIGH SCHOOL-GYM,3305 BUCKMAN SPRINGS RD SCHL PINE VALLEY CA 91962,False,PINE VALLEY,False,-116.49295,32.73435
MOUNTAIN EMPIRE HIGH SCHOOL-GYM,3305 BUCKMAN SPRINGS RD SCHL PINE VALLEY CA 91962,True,PINE VALLEY,False,-116.49295,32.73435
MOUNTAIN VIEW COMMUNITY CTR-GYM,641 S BOUNDARY ST SAN DIEGO CA 92113,False,"CHOLLAS PARK, CHOLLAS PARK, CHOLLAS PARK",False,-117.10593,32.69939
MOUNTAIN VIEW COMMUNITY CTR-GYM,641 S BOUNDARY ST SAN DIEGO CA 92113,True,"CHOLLAS PARK, CHOLLAS PARK, CHOLLAS PARK",False,-117.10593,32.69939
MT MIGUEL HIGH SCHOOL-MULTICULTURAL CTR,8585 BLOSSOM LN SCHL SPRING VALLEY CA 91977,False,"SPRING VALLEY, SPRING VALLEY, SPRING VALLEY",False,-117.01688,32.72274
MT MIGUEL HIGH SCHOOL-MULTICULTURAL CTR,8585 BLOSSOM LN SCHL SPRING VALLEY CA 91977,True,"SPRING VALLEY, SPRING VALLEY, SPRING VALLEY",False,-117.01688,32.72274
"MUELLER CHARTER, R L, SCH-PERF ARTS CTR",715 I ST CHULA VISTA CA 91910,False,"CHULA VISTA, CHULA VISTA",False,-117.09326,32.62692
"MUELLER CHARTER, R L, SCH-PERF ARTS CTR",715 I ST CHULA VISTA CA 91910,True,"CHULA VISTA, CHULA VISTA",False,-117.09326,32.62692
MUIRLANDS MIDDLE SCHOOL-AUDITORIUM,1056 NAUTILUS ST SCHL LA JOLLA CA 92037,False,LA JOLLA,False,-117.26859,32.83214
MUIRLANDS MIDDLE SCHOOL-AUDITORIUM,1056 NAUTILUS ST SCHL LA JOLLA CA 92037,True,LA JOLLA,False,-117.26859,32.83214
NARANCA ELEM SCHOOL-MPR,1030 NARANCA AVE EL CAJON CA 92021,False,"EL CAJON, EL CAJON, EL CAJON, EL CAJON, EL CAJON",False,-116.94757,32.80426
NARANCA ELEM SCHOOL-MPR,1030 NARANCA AVE EL CAJON CA 92021,True,"EL CAJON, EL CAJON, EL CAJON, EL CAJON, EL CAJON",False,-116.94757,32.80426
NOBEL RECREATION CENTER - GYM,8810 JUDICIAL DR SAN DIEGO CA 92122,False,UNIVERSITY N,False,-117.1994,32.86695
NOBEL RECREATION CENTER - GYM,8810 JUDICIAL DR SAN DIEGO CA 92122,True,UNIVERSITY N,False,-117.1994,32.86695
NORMAL HEIGHTS ELEM SCHOOL-MPR,3750 WARD RD SAN DIEGO CA 92116,False,NORMAL HEIGHTS,False,-117.11285,32.76104
NORMAL HEIGHTS ELEM SCHOOL-MPR,3750 WARD RD SAN DIEGO CA 92116,True,NORMAL HEIGHTS,False,-117.11285,32.76104
NORMAN PARK SENIOR CENTER,270 F ST CHULA VISTA CA 91910,False,"CHULA VISTA, CHULA VISTA, CHULA VISTA",False,-117.07835,32.64141
NORMAN PARK SENIOR CENTER,270 F ST CHULA VISTA CA 91910,True,"CHULA VISTA, CHULA VISTA, CHULA VISTA",False,-117.07835,32.64141
NORTH CLAIREMONT REC CTR - GYM,4421 BANNOCK AVE SAN DIEGO CA 92117,False,CLAIREMONT N,False,-117.19738,32.83237
NORTH CLAIREMONT REC CTR - GYM,4421 BANNOCK AVE SAN DIEGO CA 92117,True,CLAIREMONT N,False,-117.19738,32.83237
NORTH PARK RECREATION CENTER - GYM,4044 IDAHO ST SAN DIEGO CA 92104,False,NORTH PARK,False,-117.13415,32.75095
NORTH PARK RECREATION CENTER - GYM,4044 IDAHO ST SAN DIEGO CA 92104,True,NORTH PARK,False,-117.13415,32.75095
OAK HILL ELEM SCHOOL-MPR,1820 OAK HILL DR ESCONDIDO CA 92027,False,"RINCON D DIABLO, ESCONDIDO, ESCONDIDO, ESCONDIDO, ESCONDIDO, ESCONDIDO",False,-117.04923,33.13085
OAK HILL ELEM SCHOOL-MPR,1820 OAK HILL DR ESCONDIDO CA 92027,True,"RINCON D DIABLO, ESCONDIDO, ESCONDIDO, ESCONDIDO, ESCONDIDO, ESCONDIDO",False,-117.04923,33.13085
OCEAN AIR RECREATION CENTER - GYM,4770 FAIRPORT WAY SAN DIEGO CA 92130,False,RHO PENASQUITOS,False,-117.21699,32.92798
OCEAN AIR RECREATION CENTER - GYM,4770 FAIRPORT WAY SAN DIEGO CA 92130,True,RHO PENASQUITOS,False,-117.21699,32.92798
OCEAN BEACH REC CTR - GYM,4726 SANTA MONICA AVE SAN DIEGO CA 92107,False,OCEAN BEACH,False,-117.24546,32.74512
OCEAN BEACH REC CTR - GYM,4726 SANTA MONICA AVE SAN DIEGO CA 92107,True,OCEAN BEACH,False,-117.24546,32.74512
OCEAN KNOLL ELEMENTARY SCHOOL-MPR,910 MELBA RD SCHL ENCINITAS CA 92024,False,"ENCINITAS, ENCINITAS",False,-117.27165,33.04055
OCEAN KNOLL ELEMENTARY SCHOOL-MPR,910 MELBA RD SCHL ENCINITAS CA 92024,True,"ENCINITAS, ENCINITAS",False,-117.27165,33.04055
OCEANSIDE COUNTRY CLUB SENIOR CENTER-MPR,455 COUNTRY CLUB LN OCEANSIDE CA 92054,False,OCEANSIDE,False,-117.36491,33.19676
OCEANSIDE COUNTRY CLUB SENIOR CENTER-MPR,455 COUNTRY CLUB LN OCEANSIDE CA 92054,True,OCEANSIDE,False,-117.36491,33.19676
OCEANSIDE HIGH SCH - PERF ARTS CTR LOBBY,1 PIRATES CV OCEANSIDE CA 92054,False,"OCEANSIDE, OCEANSIDE",False,-117.37416,33.19702
OCEANSIDE HIGH SCH - PERF ARTS CTR LOBBY,1 PIRATES CV OCEANSIDE CA 92054,True,"OCEANSIDE, OCEANSIDE",False,-117.37416,33.19702
OLIVEWOOD ELEM SCHOOL-MPR,2505 F AVE NATIONAL CITY CA 91950,False,"NATIONAL CITY, LINCOLN ACRES",False,-117.09285,32.66237
OLIVEWOOD ELEM SCHOOL-MPR,2505 F AVE NATIONAL CITY CA 91950,True,"NATIONAL CITY, LINCOLN ACRES",False,-117.09285,32.66237
ORANGE GLEN HIGH SCHOOL-GYM,2200 GLENRIDGE RD ESCONDIDO CA 92027,False,"RINCON D DIABLO, ESCONDIDO, ESCONDIDO",False,-117.04061,33.12889
ORANGE GLEN HIGH SCHOOL-GYM,2200 GLENRIDGE RD ESCONDIDO CA 92027,True,"RINCON D DIABLO, ESCONDIDO, ESCONDIDO",False,-117.04061,33.12889
OTAY RANCH HIGH SCHL-GYM,1250 OLYMPIC PKWY CHULA VISTA CA 91913,False,CHULA VISTA,False,-116.99145,32.62041
OTAY RANCH HIGH SCHL-GYM,1250 OLYMPIC PKWY CHULA VISTA CA 91913,True,CHULA VISTA,False,-116.99145,32.62041
OTAY RECREATION CENTER - GYM,3554 MAIN ST CHULA VISTA CA 91911,False,"CHULA VISTA, CHULA VISTA, CHULA VISTA",False,-117.05628,32.59509
OTAY RECREATION CENTER - GYM,3554 MAIN ST CHULA VISTA CA 91911,True,"CHULA VISTA, CHULA VISTA, CHULA VISTA",False,-117.05628,32.59509
PACIFIC BEACH RECREATION CENTER - GYM,1405 DIAMOND ST SAN DIEGO CA 92109,False,LA JOLLA,False,-117.24488,32.80151
PACIFIC BEACH RECREATION CENTER - GYM,1405 DIAMOND ST SAN DIEGO CA 92109,True,LA JOLLA,False,-117.24488,32.80151
PACIFIC HIGHLANDS RANCH REC CTR-GYM,5977 VILLAGE CENTER LOOP RD SAN DIEGO CA 92130,False,"RHO PENASQUITOS, RHO PENASQUITOS",False,-117.18708,32.96093
PACIFIC HIGHLANDS RANCH REC CTR-GYM,5977 VILLAGE CENTER LOOP RD SAN DIEGO CA 92130,True,"RHO PENASQUITOS, RHO PENASQUITOS",False,-117.18708,32.96093
PACIFIC RIM ELEM SCHOOL-AUDITORIUM,1100 CAMINO DE LAS ONDAS CARLSBAD CA 92009,False,"CARLSBAD, CARLSBAD, CARLSBAD, CARLSBAD",False,-117.30502,33.11142
PACIFIC RIM ELEM SCHOOL-AUDITORIUM,1100 CAMINO DE LAS ONDAS CARLSBAD CA 92009,True,"CARLSBAD, CARLSBAD, CARLSBAD, CARLSBAD",False,-117.30502,33.11142
PARADISE HILLS REC CENTER - GYM,6610 POTOMAC ST SAN DIEGO CA 92139,False,"PARADISE HILLS, PARADISE HILLS",False,-117.05085,32.68528
PARADISE HILLS REC CENTER - GYM,6610 POTOMAC ST SAN DIEGO CA 92139,True,"PARADISE HILLS, PARADISE HILLS",False,-117.05085,32.68528
PARK DALE LANE ELEM SCHOOL - MPR,2050 PARK DALE LN SCHL ENCINITAS CA 92024,False,"ENCINITAS, ENCINITAS, ENCINITAS, ENCINITAS, ENCINITAS, ENCINITAS",False,-117.24247,33.04694
PARK DALE LANE ELEM SCHOOL - MPR,2050 PARK DALE LN SCHL ENCINITAS CA 92024,True,"ENCINITAS, ENCINITAS, ENCINITAS, ENCINITAS, ENCINITAS, ENCINITAS",False,-117.24247,33.04694
PARKWAY MIDDLE SCHOOL-MPR,9009 PARK PLAZA DR SCHL LA MESA CA 91942,False,"LA MESA, LA MESA, EL CAJON",False,-117.0041,32.79006
PARKWAY MIDDLE SCHOOL-MPR,9009 PARK PLAZA DR SCHL LA MESA CA 91942,True,"LA MESA, LA MESA, EL CAJON",False,-117.0041,32.79006
PATRICK HENRY HIGH SCHOOL-CAFETERIA,6702 WANDERMERE DR SAN DIEGO CA 92120,False,"SAN CARLOS, SAN CARLOS, SAN CARLOS",False,-117.05178,32.79781
PATRICK HENRY HIGH SCHOOL-CAFETERIA,6702 WANDERMERE DR SAN DIEGO CA 92120,True,"SAN CARLOS, SAN CARLOS, SAN CARLOS",False,-117.05178,32.79781
PAUL ECKE CENTRAL SCHOOL-MPR,185 UNION ST SCHL ENCINITAS CA 92024,False,"ENCINITAS, ENCINITAS",False,-117.29733,33.0579
PAUL ECKE CENTRAL SCHOOL-MPR,185 UNION ST SCHL ENCINITAS CA 92024,True,"ENCINITAS, ENCINITAS",False,-117.29733,33.0579
PINE AVE COMMUNITY CENTER-GYM,3209 HARDING ST CARLSBAD CA 92008,False,"CARLSBAD, CARLSBAD, CARLSBAD, CARLSBAD, CARLSBAD",False,-117.34262,33.15921
PINE AVE COMMUNITY CENTER-GYM,3209 HARDING ST CARLSBAD CA 92008,True,"CARLSBAD, CARLSBAD, CARLSBAD, CARLSBAD, CARLSBAD",False,-117.34262,33.15921
POMERADO ELEM SCH-MPR,12321 9TH ST SCHL POWAY CA 92064,False,"POWAY, POWAY, POWAY, POWAY",False,-117.06359,32.95775
POMERADO ELEM SCH-MPR,12321 9TH ST SCHL POWAY CA 92064,True,"POWAY, POWAY, POWAY, POWAY",False,-117.06359,32.95775
POWAY HIGH SCHOOL-K1,15500 ESPOLA RD SCHL POWAY CA 92064,False,"POWAY, POWAY",False,-117.02451,32.99869
POWAY HIGH SCHOOL-K1,15500 ESPOLA RD SCHL POWAY CA 92064,True,"POWAY, POWAY",False,-117.02451,32.99869
PRIDE ACADEMY AT PROSPECT AVE-MEDIA CTR,9303 PROSPECT AVE SANTEE CA 92071,False,SANTEE,False,-116.99587,32.83349
PRIDE ACADEMY AT PROSPECT AVE-MEDIA CTR,9303 PROSPECT AVE SANTEE CA 92071,True,SANTEE,False,-116.99587,32.83349
RAMONA COMMUNITY CAMPUS-MPR,1010 RAMONA ST RAMONA CA 92065,False,RAMONA,False,-116.87753,33.02625
RAMONA COMMUNITY CAMPUS-MPR,1010 RAMONA ST RAMONA CA 92065,True,RAMONA,False,-116.87753,33.02625
RAMONA ELEM SCHOOL-MPR,415 8TH ST RAMONA CA 92065,False,RAMONA,False,-116.8652,33.04231
RAMONA ELEM SCHOOL-MPR,415 8TH ST RAMONA CA 92065,True,RAMONA,False,-116.8652,33.04231
RANCHO BERNARDO REC CENTER - GYM,18448 W BERNARDO DR POLL SAN DIEGO CA 92127,False,"RANCHO BERNARDO, RANCHO BERNARDO, RANCHO BERNARDO, RANCHO BERNARDO",False,-117.07688,33.0483
RANCHO BERNARDO REC CENTER - GYM,18448 W BERNARDO DR POLL SAN DIEGO CA 92127,True,"RANCHO BERNARDO, RANCHO BERNARDO, RANCHO BERNARDO, RANCHO BERNARDO",False,-117.07688,33.0483
RANCHO BUENA VISTA HIGH SCHOOL-GYM,1601 LONGHORN DR SCHL VISTA CA 92081,False,"VISTA, VISTA, VISTA, VISTA, VISTA",False,-117.24755,33.16334
RANCHO BUENA VISTA HIGH SCHOOL-GYM,1601 LONGHORN DR SCHL VISTA CA 92081,True,"VISTA, VISTA, VISTA, VISTA, VISTA",False,-117.24755,33.16334
RANCHO DEL REY MID SCHOOL-AUDITORIUM,1174 E J ST CHULA VISTA CA 91910,False,"CHULA VISTA, CHULA VISTA, CHULA VISTA, CHULA VISTA, CHULA VISTA",False,-117.00899,32.62991
RANCHO DEL REY MID SCHOOL-AUDITORIUM,1174 E J ST CHULA VISTA CA 91910,True,"CHULA VISTA, CHULA VISTA, CHULA VISTA, CHULA VISTA, CHULA VISTA",False,-117.00899,32.62991
RANCHO SAN DIEGO ELEM SCHOOL-MPR,12151 CALLE ALBARA SCHL EL CAJON CA 92019,False,"VALLE DE ORO, VALLE DE ORO, VALLE DE ORO, VALLE DE ORO",False,-116.93336,32.75359
RANCHO SAN DIEGO ELEM SCHOOL-MPR,12151 CALLE ALBARA SCHL EL CAJON CA 92019,True,"VALLE DE ORO, VALLE DE ORO, VALLE DE ORO, VALLE DE ORO",False,-116.93336,32.75359
REIDY CREEK ELEM SCHOOL-MPR,2869 N BROADWAY ESCONDIDO CA 92026,False,"ESCONDIDO, HIDDEN MEADOWS, JESMOND DENE, HIDDEN MEADOWS, ESCONDIDO",False,-117.09228,33.17185
REIDY CREEK ELEM SCHOOL-MPR,2869 N BROADWAY ESCONDIDO CA 92026,True,"ESCONDIDO, HIDDEN MEADOWS, JESMOND DENE, HIDDEN MEADOWS, ESCONDIDO",False,-117.09228,33.17185
REYNOLDS ELEMENTARY SCHOOL-ROOMS G1/G4,4575 DOUGLAS DR SCHL OCEANSIDE CA 92057,False,OCEANSIDE,False,-117.31268,33.25648
REYNOLDS ELEMENTARY SCHOOL-ROOMS G1/G4,4575 DOUGLAS DR SCHL OCEANSIDE CA 92057,True,OCEANSIDE,False,-117.31268,33.25648
RINCON TRIBAL HALL,1 WEST TRIBAL RD VALLEY CENTER CA 92082,False,"PALA, RAINBOW, PAUMA VALLEY, RHO MONSERATE, VALLEY CENTER",False,-116.95758,33.27387
RINCON TRIBAL HALL,1 WEST TRIBAL RD VALLEY CENTER CA 92082,True,"PALA, RAINBOW, PAUMA VALLEY, RHO MONSERATE, VALLEY CENTER",False,-116.95758,33.27387
RIOS ELEM SCHOOL-MPR,14314 RIOS CANYON RD EL CAJON CA 92021,False,"LAKEVIEW FLINN, LAKEVIEW FLINN",False,-116.87321,32.8406
RIOS ELEM SCHOOL-MPR,14314 RIOS CANYON RD EL CAJON CA 92021,True,"LAKEVIEW FLINN, LAKEVIEW FLINN",False,-116.87321,32.8406
RIVERVIEW ELEM SCHOOL-MPR,9308 WINTER GARDENS BLVD SCHL LAKESIDE CA 92040,False,BOSTONIA,False,-116.9317,32.84728
RIVERVIEW ELEM SCHOOL-MPR,9308 WINTER GARDENS BLVD SCHL LAKESIDE CA 92040,True,BOSTONIA,False,-116.9317,32.84728
ROBERT EGGER REC CTR - GYM,1885 CORONADO AVE SAN DIEGO CA 92154,False,NESTOR,False,-117.09327,32.57496
ROBERT EGGER REC CTR - GYM,1885 CORONADO AVE SAN DIEGO CA 92154,True,NESTOR,False,-117.09327,32.57496
ROCK SPRINGS ELEM SCHOOL-AUDITORIUM,1155 DEODAR RD SCHL ESCONDIDO CA 92026,False,"ESCONDIDO, ROCK SPRINGS, ESCONDIDO",False,-117.10667,33.13777
ROCK SPRINGS ELEM SCHOOL-AUDITORIUM,1155 DEODAR RD SCHL ESCONDIDO CA 92026,True,"ESCONDIDO, ROCK SPRINGS, ESCONDIDO",False,-117.10667,33.13777
ROLANDO ELEM SCHOOL-MPR,6925 TOWER ST LA MESA CA 91942,False,LA MESA,False,-117.04833,32.76272
ROLANDO ELEM SCHOOL-MPR,6925 TOWER ST LA MESA CA 91942,True,LA MESA,False,-117.04833,32.76272
ROLANDO PARK ELEM SCHOOL-AUDITORIUM,6620 MARLOWE DR SCHL SAN DIEGO CA 92115,False,"ROLANDO REDWOOD, ROLANDO REDWOOD, ROLANDO REDWOOD",False,-117.05496,32.74656
ROLANDO PARK ELEM SCHOOL-AUDITORIUM,6620 MARLOWE DR SCHL SAN DIEGO CA 92115,True,"ROLANDO REDWOOD, ROLANDO REDWOOD, ROLANDO REDWOOD",False,-117.05496,32.74656
ROLLING HILLS ELEM SCHOOL-MPR,15255 PENASQUITOS DR SAN DIEGO CA 92129,False,RANCHO BERNARDO,False,-117.09212,32.98962
ROLLING HILLS ELEM SCHOOL-MPR,15255 PENASQUITOS DR SAN DIEGO CA 92129,True,RANCHO BERNARDO,False,-117.09212,32.98962
ROOSEVELT MIDDLE SCHOOL-MPR,850 SAGEWOOD DR SCHL OCEANSIDE CA 92057,False,"OCEANSIDE, OCEANSIDE, OCEANSIDE, OCEANSIDE",False,-117.28145,33.236
ROOSEVELT MIDDLE SCHOOL-MPR,850 SAGEWOOD DR SCHL OCEANSIDE CA 92057,True,"OCEANSIDE, OCEANSIDE, OCEANSIDE, OCEANSIDE",False,-117.28145,33.236
SAGE CANYON SCHOOL-MUR,5290 HARVEST RUN DR SAN DIEGO CA 92130,False,RHO PENASQUITOS,False,-117.20381,32.92606
SAGE CANYON SCHOOL-MUR,5290 HARVEST RUN DR SAN DIEGO CA 92130,True,RHO PENASQUITOS,False,-117.20381,32.92606
SALT CREEK COMMUNITY PARK-GYM,2710 OTAY LAKES RD CHULA VISTA CA 91915,False,CHULA VISTA,False,-116.94486,32.64373
SALT CREEK COMMUNITY PARK-GYM,2710 OTAY LAKES RD CHULA VISTA CA 91915,True,CHULA VISTA,False,-116.94486,32.64373
SAN CARLOS REC CENTER - GYM,6445 LAKE BADIN AVE SAN DIEGO CA 92119,False,"SAN CARLOS, SAN CARLOS",False,-117.02175,32.79821
SAN CARLOS REC CENTER - GYM,6445 LAKE BADIN AVE SAN DIEGO CA 92119,True,"SAN CARLOS, SAN CARLOS",False,-117.02175,32.79821
SAN DIEGO CITY COLLEGE-HARRY WEST GYM,1313 PARK BLVD SAN DIEGO CA 92101,False,CENTRE CITY,False,-117.15254,32.71861
SAN DIEGO CITY COLLEGE-HARRY WEST GYM,1313 PARK BLVD SAN DIEGO CA 92101,True,CENTRE CITY,False,-117.15254,32.71861
SAN DIEGO CONVENTION CENTER - HALL B,111 W HARBOR DR SAN DIEGO CA 92101,False,"CENTRE CITY, CENTRE CITY",False,-117.16287,32.70682
SAN DIEGO CONVENTION CENTER - HALL B,111 W HARBOR DR SAN DIEGO CA 92101,True,"CENTRE CITY, CENTRE CITY",False,-117.16287,32.70682
SAN DIEGO LGBT COMMUNITY CENTER,3909 CENTRE ST SAN DIEGO CA 92103,False,HILLCREST,False,-117.14766,32.74894
SAN DIEGO LGBT COMMUNITY CENTER,3909 CENTRE ST SAN DIEGO CA 92103,True,HILLCREST,False,-117.14766,32.74894
SAN DIEGO MIRAMAR COLLEGE-HOURGLASS GYM,10440 BLACK MOUNTAIN RD SAN DIEGO CA 92126,False,MIRA MESA,False,-117.12226,32.90652
SAN DIEGO MIRAMAR COLLEGE-HOURGLASS GYM,10440 BLACK MOUNTAIN RD SAN DIEGO CA 92126,True,MIRA MESA,False,-117.12226,32.90652
SAN ELIJO ELEMENTARY SCHOOL-MPR,1615 SCHOOLHOUSE WAY SAN MARCOS CA 92078,False,"SAN MARCOS, ELFIN FOREST, SAN MARCOS, SAN MARCOS, ELFIN FOREST, SAN MARCOS",False,-117.19448,33.10037
SAN ELIJO ELEMENTARY SCHOOL-MPR,1615 SCHOOLHOUSE WAY SAN MARCOS CA 92078,True,"SAN MARCOS, ELFIN FOREST, SAN MARCOS, SAN MARCOS, ELFIN FOREST, SAN MARCOS",False,-117.19448,33.10037
SAN MARCOS COMMUNITY CENTER-MAIN HALL,3 CIVIC CENTER DR SAN MARCOS CA 92069,False,"SAN MARCOS, SAN MARCOS, SAN MARCOS, SAN MARCOS, SAN MARCOS",False,-117.15979,33.14085
SAN MARCOS COMMUNITY CENTER-MAIN HALL,3 CIVIC CENTER DR SAN MARCOS CA 92069,True,"SAN MARCOS, SAN MARCOS, SAN MARCOS, SAN MARCOS, SAN MARCOS",False,-117.15979,33.14085
SAN MARCOS SENIOR CENTER-HORIZON 1 AND 2,111 RICHMAR AVE SAN MARCOS CA 92069,False,"SAN MARCOS, SAN MARCOS",False,-117.16356,33.14346
SAN MARCOS SENIOR CENTER-HORIZON 1 AND 2,111 RICHMAR AVE SAN MARCOS CA 92069,True,"SAN MARCOS, SAN MARCOS",False,-117.16356,33.14346
SAN YSIDRO HIGH SCHOOL-GYM,5353 AIRWAY RD SAN DIEGO CA 92154,False,"SAN YSIDRO, SAN YSIDRO",False,-117.01587,32.56416
SAN YSIDRO HIGH SCHOOL-GYM,5353 AIRWAY RD SAN DIEGO CA 92154,True,"SAN YSIDRO, SAN YSIDRO",False,-117.01587,32.56416
SANDBURG ELEMENTARY SCHOOL-MPR,11230 AVENIDA DEL GATO SCHL SAN DIEGO CA 92126,False,"UNIVERSITY N, MIRA MESA",False,-117.1492,32.92596
SANDBURG ELEMENTARY SCHOOL-MPR,11230 AVENIDA DEL GATO SCHL SAN DIEGO CA 92126,True,"UNIVERSITY N, MIRA MESA",False,-117.1492,32.92596
SANTA CLARA PT REC CTR-MPR,1008 SANTA CLARA PL SAN DIEGO CA 92109,False,PACIFIC BEACH,False,-117.24903,32.78351
SANTA CLARA PT REC CTR-MPR,1008 SANTA CLARA PL SAN DIEGO CA 92109,True,PACIFIC BEACH,False,-117.24903,32.78351
SANTEE CITY HALL - BUILDING 8P,10601 N MAGNOLIA AVE SANTEE CA 92071,False,"SANTEE, SANTEE",False,-116.96993,32.87069
SANTEE CITY HALL - BUILDING 8P,10601 N MAGNOLIA AVE SANTEE CA 92071,True,"SANTEE, SANTEE",False,-116.96993,32.87069
SBUSD ED CENTER-BURRESS AUDITORIUM,601 ELM AVE IMPERIAL BEACH CA 91932,False,"IMPERIAL BEACH, IMPERIAL BEACH, CORONADO",False,-117.12018,32.58002
SBUSD ED CENTER-BURRESS AUDITORIUM,601 ELM AVE IMPERIAL BEACH CA 91932,True,"IMPERIAL BEACH, IMPERIAL BEACH, CORONADO",False,-117.12018,32.58002
SDSU VIEJAS ARENA,5500 CANYON CREST DR SAN DIEGO CA 92182,False,"MONTEZUMA, MONTEZUMA",False,-117.07558,32.77758
SDSU VIEJAS ARENA,5500 CANYON CREST DR SAN DIEGO CA 92182,True,"MONTEZUMA, MONTEZUMA",False,-117.07558,32.77758
SEQUOIA ELEM SCHOOL-AUDITORIUM,4690 LIMERICK AVE SAN DIEGO CA 92117,False,CLAIREMONT N,False,-117.18015,32.82845
SEQUOIA ELEM SCHOOL-AUDITORIUM,4690 LIMERICK AVE SAN DIEGO CA 92117,True,CLAIREMONT N,False,-117.18015,32.82845
SERRA HIGH SCHOOL-BLDG 200 HALLWAY,5156 SANTO RD SCHL SAN DIEGO CA 92124,False,"TIERRASANTA, TIERRASANTA, MIRAMAR",False,-117.10494,32.82576
SERRA HIGH SCHOOL-BLDG 200 HALLWAY,5156 SANTO RD SCHL SAN DIEGO CA 92124,True,"TIERRASANTA, TIERRASANTA, MIRAMAR",False,-117.10494,32.82576
SERRA MESA REC CENTER-GYM,9020 VILLAGE GLEN DR SAN DIEGO CA 92123,False,SERRA MESA,False,-117.13305,32.80548
SERRA MESA REC CENTER-GYM,9020 VILLAGE GLEN DR SAN DIEGO CA 92123,True,SERRA MESA,False,-117.13305,32.80548
SHADOW HILLS ELEM SCHOOL-GYM,8770 HARBISON CANYON RD SCHL ALPINE CA 91901,False,ALPINE,False,-116.81706,32.83256
SHADOW HILLS ELEM SCHOOL-GYM,8770 HARBISON CANYON RD SCHL ALPINE CA 91901,True,ALPINE,False,-116.81706,32.83256
SKYLINE ELEMENTARY SCHOOL-THEATER,606 LOMAS SANTA FE DR SCHL SOLANA BEACH CA 92075,False,"SOLANA BEACH, SOLANA BEACH, SOLANA BEACH, SOLANA BEACH, SOLANA BEACH, SOLANA BEACH, SOLANA BEACH, SOLANA BEACH",False,-117.26185,32.99667
SKYLINE ELEMENTARY SCHOOL-THEATER,606 LOMAS SANTA FE DR SCHL SOLANA BEACH CA 92075,True,"SOLANA BEACH, SOLANA BEACH, SOLANA BEACH, SOLANA BEACH, SOLANA BEACH, SOLANA BEACH, SOLANA BEACH, SOLANA BEACH",False,-117.26185,32.99667
SOUTHCREST REC CTR - GYM,4149 NEWTON AVE SAN DIEGO CA 92113,False,"CHOLLAS PARK, SE SAN DIEGO E",False,-117.10593,32.6931
SOUTHCREST REC CTR - GYM,4149 NEWTON AVE SAN DIEGO CA 92113,True,"CHOLLAS PARK, SE SAN DIEGO E",False,-117.10593,32.6931
SOUTHWEST HIGH SCHOOL-GYM,1685 HOLLISTER ST SAN DIEGO CA 92154,False,"NESTOR, NESTOR",False,-117.0829,32.56802
SOUTHWEST HIGH SCHOOL-GYM,1685 HOLLISTER ST SAN DIEGO CA 92154,True,"NESTOR, NESTOR",False,-117.0829,32.56802
SOUTHWESTERN COMM COLLEGE-STUDENT UNION,900 OTAY LAKES RD CLG CHULA VISTA CA 91910,False,"CHULA VISTA, CHULA VISTA",False,-116.99806,32.64071
SOUTHWESTERN COMM COLLEGE-STUDENT UNION,900 OTAY LAKES RD CLG CHULA VISTA CA 91910,True,"CHULA VISTA, CHULA VISTA",False,-116.99806,32.64071
SPORTS PARK GYM,425 IMPERIAL BEACH BLVD IMPERIAL BEACH CA 91932,False,"IMPERIAL BEACH, IMPERIAL BEACH, IMPERIAL BEACH, IMPERIAL BEACH",False,-117.1234,32.57625
SPORTS PARK GYM,425 IMPERIAL BEACH BLVD IMPERIAL BEACH CA 91932,True,"IMPERIAL BEACH, IMPERIAL BEACH, IMPERIAL BEACH, IMPERIAL BEACH",False,-117.1234,32.57625
SPRING VALLEY ACADEMY-MPR,3900 CONRAD DR SPRING VALLEY CA 91977,False,"HELIX, HELIX, HELIX",False,-116.98885,32.75004
SPRING VALLEY ACADEMY-MPR,3900 CONRAD DR SPRING VALLEY CA 91977,True,"HELIX, HELIX, HELIX",False,-116.98885,32.75004
SPRING VALLEY COMMUNITY CTR-KETELL HALL,8735 JAMACHA BLVD SPRING VALLEY CA 91977,False,"SPRING VALLEY, SPRING VALLEY, SPRING VALLEY, SPRING VALLEY",False,-117.00773,32.70658
SPRING VALLEY COMMUNITY CTR-KETELL HALL,8735 JAMACHA BLVD SPRING VALLEY CA 91977,True,"SPRING VALLEY, SPRING VALLEY, SPRING VALLEY, SPRING VALLEY",False,-117.00773,32.70658
STAGECOACH COMMUNTY CENTER-GYM,3420 CAMINO DE LOS COCHES CARLSBAD CA 92009,False,"CARLSBAD, CARLSBAD, CARLSBAD",False,-117.23445,33.07543
STAGECOACH COMMUNTY CENTER-GYM,3420 CAMINO DE LOS COCHES CARLSBAD CA 92009,True,"CARLSBAD, CARLSBAD, CARLSBAD",False,-117.23445,33.07543
STANDLEY PARK AND REC CTR - GYM,3585 GOVERNOR DR POLL SAN DIEGO CA 92122,False,UNIVERSITY S,False,-117.21028,32.85117
STANDLEY PARK AND REC CTR - GYM,3585 GOVERNOR DR POLL SAN DIEGO CA 92122,True,UNIVERSITY S,False,-117.21028,32.85117
SUNDANCE ELEM SCHOOL-MPR,8944 TWIN TRAILS DR SAN DIEGO CA 92129,False,RHO PENASQUITOS,False,-117.13379,32.9614
SUNDANCE ELEM SCHOOL-MPR,8944 TWIN TRAILS DR SAN DIEGO CA 92129,True,RHO PENASQUITOS,False,-117.13379,32.9614
SYCUAN TRIBAL HALL - BUILDING 3,3 KWAAYPAAY CT EL CAJON CA 92019,False,"HARBISON CANYON, ALPINE, DEHESA, JAPATUL, DEHESA",False,-116.82838,32.79001
SYCUAN TRIBAL HALL - BUILDING 3,3 KWAAYPAAY CT EL CAJON CA 92019,True,"HARBISON CANYON, ALPINE, DEHESA, JAPATUL, DEHESA",False,-116.82838,32.79001
San Diego County Registrar of Voters,5600 OVERLAND AVE SUITE 100 SAN DIEGO CA 92116,False,Locality wide location,False,-117.12989,32.83657
TEMPLE HEIGHTS ELEM SCHOOL-MPR,1550 TEMPLE HEIGHTS DR OCEANSIDE CA 92056,False,OCEANSIDE,False,-117.27014,33.21871
TEMPLE HEIGHTS ELEM SCHOOL-MPR,1550 TEMPLE HEIGHTS DR OCEANSIDE CA 92056,True,OCEANSIDE,False,-117.27014,33.21871
TIERRASANTA REC CENTER - GYM,11220 CLAIREMONT MESA BLVD SAN DIEGO CA 92124,False,TIERRASANTA,False,-117.08798,32.83041
TIERRASANTA REC CENTER - GYM,11220 CLAIREMONT MESA BLVD SAN DIEGO CA 92124,True,TIERRASANTA,False,-117.08798,32.83041
TOLER ELEM SCHOOL-AUDITORIUM,3350 BAKER ST SAN DIEGO CA 92117,False,CLAIREMONT N,False,-117.21015,32.80141
TOLER ELEM SCHOOL-AUDITORIUM,3350 BAKER ST SAN DIEGO CA 92117,True,CLAIREMONT N,False,-117.21015,32.80141
TORREY PINES ELEM SCHOOL-AUDITORIUM,8350 CLIFFRIDGE AVE SCHL LA JOLLA CA 92037,False,UNIVERSITY N,False,-117.24398,32.85882
TORREY PINES ELEM SCHOOL-AUDITORIUM,8350 CLIFFRIDGE AVE SCHL LA JOLLA CA 92037,True,UNIVERSITY N,False,-117.24398,32.85882
TURTLEBACK ELEMENTARY SCHOOL-MPR,15855 TURTLEBACK RD SCHL SAN DIEGO CA 92127,False,"RANCHO BERNARDO, RANCHO BERNARDO",False,-117.08713,33.00441
TURTLEBACK ELEMENTARY SCHOOL-MPR,15855 TURTLEBACK RD SCHL SAN DIEGO CA 92127,True,"RANCHO BERNARDO, RANCHO BERNARDO",False,-117.08713,33.00441
UCSD-RIMAC 1ST FLOOR TRITON CONF RM,9730 HOPKINS DR LA JOLLA CA 92093,False,"UNIVERSITY N, UNIVERSITY N, UNIVERSITY N",False,-117.23918,32.88528
UCSD-RIMAC 1ST FLOOR TRITON CONF RM,9730 HOPKINS DR LA JOLLA CA 92093,True,"UNIVERSITY N, UNIVERSITY N, UNIVERSITY N",False,-117.23918,32.88528
VALLECITOS ELEM SCHOOL-CLASSROOM,5211 5TH ST FALLBROOK CA 92028,False,"RHO MONSERATE, RHO MONSERATE, RAINBOW, RAINBOW",False,-117.14925,33.4135
VALLECITOS ELEM SCHOOL-CLASSROOM,5211 5TH ST FALLBROOK CA 92028,True,"RHO MONSERATE, RHO MONSERATE, RAINBOW, RAINBOW",False,-117.14925,33.4135
VALLEY CENTER HIGH SCHOOL-GYM,31322 COLE GRADE RD VALLEY CENTER CA 92082,False,"VALLEY CENTER, VALLEY CENTER, VALLEY CENTER",False,-117.02401,33.27999
VALLEY CENTER HIGH SCHOOL-GYM,31322 COLE GRADE RD VALLEY CENTER CA 92082,True,"VALLEY CENTER, VALLEY CENTER, VALLEY CENTER",False,-117.02401,33.27999
VALLEY ELEMENTARY SCHOOL-MPR,13000 BOWRON RD SCHL POWAY CA 92064,False,POWAY,False,-117.04596,32.95365
VALLEY ELEMENTARY SCHOOL-MPR,13000 BOWRON RD SCHL POWAY CA 92064,True,POWAY,False,-117.04596,32.95365
VALLEY VISTA ELEM SCHOOL-AUDITORIUM,3724 VALLEY VISTA WAY BONITA CA 91902,False,"SPRING VALLEY, NATIONAL CITY, CHULA VISTA",False,-117.04779,32.66087
VALLEY VISTA ELEM SCHOOL-AUDITORIUM,3724 VALLEY VISTA WAY BONITA CA 91902,True,"SPRING VALLEY, NATIONAL CITY, CHULA VISTA",False,-117.04779,32.66087
VETERANS PARK COMMUNITY CTR-GYM,785 E PALOMAR ST CHULA VISTA CA 91911,False,"CHULA VISTA, CHULA VISTA, CHULA VISTA, CHULA VISTA, CHULA VISTA",False,-117.02336,32.61483
VETERANS PARK COMMUNITY CTR-GYM,785 E PALOMAR ST CHULA VISTA CA 91911,True,"CHULA VISTA, CHULA VISTA, CHULA VISTA, CHULA VISTA, CHULA VISTA",False,-117.02336,32.61483
VISTA GRANDE SCHL-MPR,1908 VISTA GRANDE RD SCHL EL CAJON CA 92019,False,"EL CAJON, VALLE DE ORO, VALLE DE ORO, VALLE DE ORO",False,-116.91599,32.76491
VISTA GRANDE SCHL-MPR,1908 VISTA GRANDE RD SCHL EL CAJON CA 92019,True,"EL CAJON, VALLE DE ORO, VALLE DE ORO, VALLE DE ORO",False,-116.91599,32.76491
VISTA HIGH SCHOOL-GYM,1 PANTHER WAY VISTA CA 92084,False,"VALLEY CENTER, VISTA ACRES, VISTA, VISTA, VISTA",False,-117.24113,33.2237
VISTA HIGH SCHOOL-GYM,1 PANTHER WAY VISTA CA 92084,True,"VALLEY CENTER, VISTA ACRES, VISTA, VISTA, VISTA",False,-117.24113,33.2237
VISTA INNOVATION CENTER-MPR,836 OLIVE AVE VISTA CA 92083,False,"VISTA, VISTA, VISTA",False,-117.25992,33.20425
VISTA INNOVATION CENTER-MPR,836 OLIVE AVE VISTA CA 92083,True,"VISTA, VISTA, VISTA",False,-117.25992,33.20425
W D HALL ELEM SCHOOL-AUDITORIUM,1376 PEPPER DR EL CAJON CA 92021,False,"BOSTONIA, BOSTONIA, BOSTONIA, EL CAJON, BOSTONIA",False,-116.93028,32.82142
W D HALL ELEM SCHOOL-AUDITORIUM,1376 PEPPER DR EL CAJON CA 92021,True,"BOSTONIA, BOSTONIA, BOSTONIA, EL CAJON, BOSTONIA",False,-116.93028,32.82142
WALNUT GROVE PARK RED BARN,1950 SYCAMORE DR SAN MARCOS CA 92069,False,"SAN MARCOS, TWIN OAKS",False,-117.15293,33.18172
WALNUT GROVE PARK RED BARN,1950 SYCAMORE DR SAN MARCOS CA 92069,True,"SAN MARCOS, TWIN OAKS",False,-117.15293,33.18172
WARNER UNION ELEM SCHL-GYM,30951 HY 79 SCHL WARNER SPRINGS CA 92086,False,OAK GROVE,False,-116.64246,33.27377
WARNER UNION ELEM SCHL-GYM,30951 HY 79 SCHL WARNER SPRINGS CA 92086,True,OAK GROVE,False,-116.64246,33.27377
WASHINGTON ELEM SCHOOL-AUDITORIUM,1789 STATE ST SCHL SAN DIEGO CA 92101,False,"MIDDLETOWN, MIDDLETOWN",False,-117.16647,32.72389
WASHINGTON ELEM SCHOOL-AUDITORIUM,1789 STATE ST SCHL SAN DIEGO CA 92101,True,"MIDDLETOWN, MIDDLETOWN",False,-117.16647,32.72389
WEBSTER SCHOOL-AUDITORIUM,4801 ELM ST SAN DIEGO CA 92102,False,"CITY HEIGHTS, CHOLLAS PARK, CITY HEIGHTS, ROLANDO REDWOOD",False,-117.09289,32.72401
WEBSTER SCHOOL-AUDITORIUM,4801 ELM ST SAN DIEGO CA 92102,True,"CITY HEIGHTS, CHOLLAS PARK, CITY HEIGHTS, ROLANDO REDWOOD",False,-117.09289,32.72401
WELLS PARK,1153 E MADISON AVE EL CAJON CA 92021,False,"EL CAJON, EL CAJON, EL CAJON, EL CAJON, EL CAJON, EL CAJON",False,-116.94231,32.80003
WELLS PARK,1153 E MADISON AVE EL CAJON CA 92021,True,"EL CAJON, EL CAJON, EL CAJON, EL CAJON, EL CAJON, EL CAJON",False,-116.94231,32.80003
WESTWOOD ELEM SCHOOL-MPR,17449 MATINAL RD SCHL SAN DIEGO CA 92127,False,"RANCHO BERNARDO, RANCHO BERNARDO, RANCHO BERNARDO, RANCHO BERNARDO",False,-117.08685,33.03025
WESTWOOD ELEM SCHOOL-MPR,17449 MATINAL RD SCHL SAN DIEGO CA 92127,True,"RANCHO BERNARDO, RANCHO BERNARDO, RANCHO BERNARDO, RANCHO BERNARDO",False,-117.08685,33.03025
WILLIAM H FRAZIER ELEM SCHOOL-MPR,1835 GUM TREE LN FALLBROOK CA 92028,False,"FALLBROOK, FALLBROOK",False,-117.22441,33.38635
WILLIAM H FRAZIER ELEM SCHOOL-MPR,1835 GUM TREE LN FALLBROOK CA 92028,True,"FALLBROOK, FALLBROOK",False,-117.22441,33.38635
WILLOW GROVE ELEM SCHOOL-MPR,14727 VIA AZUL SAN DIEGO CA 92127,False,"DEL DIOS, RHO PENASQUITOS",False,-117.16129,32.99263
WILLOW GROVE ELEM SCHOOL-MPR,14727 VIA AZUL SAN DIEGO CA 92127,True,"DEL DIOS, RHO PENASQUITOS",False,-117.16129,32.99263
