name,address,Is Early Voting,Precincts (Or Locality-wide),Is Drop Off,lon,lat
16TH ST 7TH DAY ADVENTIST CHURCH,1601 W 16TH ST SAN BERNARDINO CA 92411,False,"C31S20A47E4B5RLUSB60987, C31S20A47E4B5SBUSB61015, C31S20A47E4B5SBUSB61016, C31S20A47E4B5SBUSB61021, C31S23A40E4B5SBUSB61252",False,-117.32313,34.12827
16TH ST 7TH DAY ADVENTIST CHURCH,1601 W 16TH ST SAN BERNARDINO CA 92411,True,"C31S20A47E4B5RLUSB60987, C31S20A47E4B5SBUSB61015, C31S20A47E4B5SBUSB61016, C31S20A47E4B5SBUSB61021, C31S23A40E4B5SBUSB61252",False,-117.32313,34.12827
ABRAHAM LINCOLN ELEMENTARY,444 E OLIVE ST COLTON CA 92324,False,"C31S20A47E4B5CJUCO20929, C31S20A47E4B5CJUCO30930, C31S20A47E4B5CJUCO30931, C31S20A47E4B5SBUCO20998, C31S20A47E4B5SBUCO30999, C31S20A47E4B5SBUCO31000",False,-117.31808,34.07686
ABRAHAM LINCOLN ELEMENTARY,444 E OLIVE ST COLTON CA 92324,True,"C31S20A47E4B5CJUCO20929, C31S20A47E4B5CJUCO30930, C31S20A47E4B5CJUCO30931, C31S20A47E4B5SBUCO20998, C31S20A47E4B5SBUCO30999, C31S20A47E4B5SBUCO31000",False,-117.31808,34.07686
ADELANTO SENIOR CENTER,11565 CORTEZ AVE ADELANTO CA 92301,False,"C08S21A33E1B1VUHADE0380, C08S21A33E1B1VUHADE0381, C08S21A33E1B1VUHADE0388, C08S21A33E1B1VUHADE0389, C08S21A33E1B1VUHADE0390, C08S21A33E1B1VUHADE1924, C08S21A33E1B1VUHADE1926, C08S21A33E1B1VUHADE1927, C08S21A33E1B1VUHADE2199, C08S21A33E1B1VUHADE2306, C08S21A33E1B1VUHADE2307, C08S21A33E1B1VUHADE2308",False,-117.4123,34.57334
ADELANTO SENIOR CENTER,11565 CORTEZ AVE ADELANTO CA 92301,True,"C08S21A33E1B1VUHADE0380, C08S21A33E1B1VUHADE0381, C08S21A33E1B1VUHADE0388, C08S21A33E1B1VUHADE0389, C08S21A33E1B1VUHADE0390, C08S21A33E1B1VUHADE1924, C08S21A33E1B1VUHADE1926, C08S21A33E1B1VUHADE1927, C08S21A33E1B1VUHADE2199, C08S21A33E1B1VUHADE2306, C08S21A33E1B1VUHADE2307, C08S21A33E1B1VUHADE2308",False,-117.4123,34.57334
ADELANTO STADIUM,12000 STADIUM RD ADELANTO CA 92301,False,"C08S21A33E1B1VUHADE0382, C08S21A33E1B1VUHADE0383, C08S21A33E1B1VUHADE0391, C08S21A33E1B1VUHADE0392, C08S21A33E1B1VUHADE0393, C08S21A33E1B1VUHADE1928, C08S21A33E1B1VUHADE1929, C08S21A33E1B1VUHADE2309, C08S21A33E1B1VUHADE2310",False,-117.40176,34.55439
ADELANTO STADIUM,12000 STADIUM RD ADELANTO CA 92301,True,"C08S21A33E1B1VUHADE0382, C08S21A33E1B1VUHADE0383, C08S21A33E1B1VUHADE0391, C08S21A33E1B1VUHADE0392, C08S21A33E1B1VUHADE0393, C08S21A33E1B1VUHADE1928, C08S21A33E1B1VUHADE1929, C08S21A33E1B1VUHADE2309, C08S21A33E1B1VUHADE2310",False,-117.40176,34.55439
ALICIA CORTEZ ELEMENTARY,12750 CARISSA AVE CHINO CA 91710,False,"C35S20A52E1B4CVUCN21492, C35S20A52E1B4CVUCN21495, C35S20A52E1B4CVUCN21496, C35S20A52E1B4CVUCN21497, C35S20A52E1B4CVUCN21498",False,-117.67013,34.02271
ALICIA CORTEZ ELEMENTARY,12750 CARISSA AVE CHINO CA 91710,True,"C35S20A52E1B4CVUCN21492, C35S20A52E1B4CVUCN21495, C35S20A52E1B4CVUCN21496, C35S20A52E1B4CVUCN21497, C35S20A52E1B4CVUCN21498",False,-117.67013,34.02271
ALMOND ELEMENTARY SCHOOL,8172 ALMOND AVE FONTANA CA 92335,False,"C35S20A47E4B2CUHFO11301, C35S20A47E4B2CUHFO11302, C35S20A47E4B2FNUFO11317, C35S20A52E4B2FNUUNI1527",False,-117.49441,34.10504
ALMOND ELEMENTARY SCHOOL,8172 ALMOND AVE FONTANA CA 92335,True,"C35S20A47E4B2CUHFO11301, C35S20A47E4B2CUHFO11302, C35S20A47E4B2FNUFO11317, C35S20A52E4B2FNUUNI1527",False,-117.49441,34.10504
ALTA LOMA ELEMENTARY SCHOOL,7085 AMETHYST AVE RANCHO CUCAMONGA CA 91701,False,"C31S23A40E1B2CUHRC21064, C31S23A40E1B2CUHRC21066, C31S23A40E1B2CUHRC21826, C31S23A40E1B2CUHRC22143, C31S23A40E1B2CUHRC12146, C31S23A40E1B2CUHRC22215, C31S23A40E1B2CUHRC22277",False,-117.59787,34.12561
ALTA LOMA ELEMENTARY SCHOOL,7085 AMETHYST AVE RANCHO CUCAMONGA CA 91701,True,"C31S23A40E1B2CUHRC21064, C31S23A40E1B2CUHRC21066, C31S23A40E1B2CUHRC21826, C31S23A40E1B2CUHRC22143, C31S23A40E1B2CUHRC12146, C31S23A40E1B2CUHRC22215, C31S23A40E1B2CUHRC22277",False,-117.59787,34.12561
ALTA LOMA HIGH SCHOOL,8880 BASELINE RD RANCHO CUCAMONGA CA 91701,False,"C31S23A40E1B2CUHRC11030, C31S23A40E1B2CUHRC11059, C31S23A40E1B2CUHRC11060, C31S23A40E1B2UPURC11086, C31S23A40E1B2CUHRC11852, C31S23A40E1B2CUHRC12141, C31S23A40E1B2CUHRC12203",False,-117.6124,34.1222
ALTA LOMA HIGH SCHOOL,8880 BASELINE RD RANCHO CUCAMONGA CA 91701,True,"C31S23A40E1B2CUHRC11030, C31S23A40E1B2CUHRC11059, C31S23A40E1B2CUHRC11060, C31S23A40E1B2UPURC11086, C31S23A40E1B2CUHRC11852, C31S23A40E1B2CUHRC12141, C31S23A40E1B2CUHRC12203",False,-117.6124,34.1222
ALTA LOMA JR HIGH SCHOOL,9000 LEMON AVE RANCHO CUCAMONGA CA 91701,False,"C31S23A40E1B2CUHRC11028, C31S23A41E1B2CUHRC11262, C31S23A41E1B2CUHRC11263, C31S23A41E1B2CUHRC11265, C31S23A41E1B2CUHRC11972, C31S23A41E1B2CUHRC12178, C31S23A41E1B2CUHRC12179, C31S23A40E1B2CUHRC12268, C31S23A41E1B2CUHRC12269, C31S23A41E1B2CUHRC12270",False,-117.60902,34.14148
ALTA LOMA JR HIGH SCHOOL,9000 LEMON AVE RANCHO CUCAMONGA CA 91701,True,"C31S23A40E1B2CUHRC11028, C31S23A41E1B2CUHRC11262, C31S23A41E1B2CUHRC11263, C31S23A41E1B2CUHRC11265, C31S23A41E1B2CUHRC11972, C31S23A41E1B2CUHRC12178, C31S23A41E1B2CUHRC12179, C31S23A40E1B2CUHRC12268, C31S23A41E1B2CUHRC12269, C31S23A41E1B2CUHRC12270",False,-117.60902,34.14148
AMERICAN LEGION POST #650,1532 CHURCH ST REDLANDS CA 92374,False,"C31S23A40E4B3RDURE31107, C31S23A40E4B3RDURE41108, C31S23A40E4B3RDURE41111, C31S23A40E4B3RDURE31112, C31S23A40E4B3RDURE31115, C31S23A40E4B3RDURE31132, C31S23A40E4B3RDURE21625, C31S23A40E4B3RDURE41814, C31S23A40E4B3RDURE22002, C31S23A40E4B3RDURE42003",False,-117.17339,34.07496
AMERICAN LEGION POST #650,1532 CHURCH ST REDLANDS CA 92374,True,"C31S23A40E4B3RDURE31107, C31S23A40E4B3RDURE41108, C31S23A40E4B3RDURE41111, C31S23A40E4B3RDURE31112, C31S23A40E4B3RDURE31115, C31S23A40E4B3RDURE31132, C31S23A40E4B3RDURE21625, C31S23A40E4B3RDURE41814, C31S23A40E4B3RDURE22002, C31S23A40E4B3RDURE42003",False,-117.17339,34.07496
APPLE VALLEY CHAMBER OF COMMERCE,16010 APPLE VALLEY RD APPLE VALLEY CA 92307,False,"C08S21A33E1B1AVUAP10299, C08S21A33E1B1AVUAP10300, C08S21A33E1B1AVUAP10301, C08S21A33E1B1AVUAP10302, C08S21A33E1B1AVUAP12047, C08S21A33E1B1AVUAP22257",False,-117.27462,34.54144
APPLE VALLEY CHAMBER OF COMMERCE,16010 APPLE VALLEY RD APPLE VALLEY CA 92307,True,"C08S21A33E1B1AVUAP10299, C08S21A33E1B1AVUAP10300, C08S21A33E1B1AVUAP10301, C08S21A33E1B1AVUAP10302, C08S21A33E1B1AVUAP12047, C08S21A33E1B1AVUAP22257",False,-117.27462,34.54144
ATTC (APPLIED TECHNOLOGY TRAINING CENTER),114 S DEL ROSA DR SAN BERNARDINO CA 92408,False,"C31S20A47E4B3CJUSB30914, C31S20A47E4B5CJUSB30946, C31S20A47E4B5CJUSB30947, C31S20A47E4B5SBUSB31012, C31S20A47E4B5SBUSB31014, C31S23A40E4B3CJUSB31094, C31S23A40E4B5CJUSB31207, C31S23A40E4B5CJUSB31208, C31S23A40E4B5RDUSB31213, C31S23A40E4B5RDUSB31214, C31S23A40E4B5SBUSB11218, C31S23A40E4B5SBUSB11220, C31S23A40E4B5SBUSB11224, C31S23A40E4B5SBUSB11225, C31S23A40E4B5SBUSB11226, C31S20A47E4B5CJUSB31655, C31S20A47E4B5CJUSB31656, C31S23A40E4B5RDUSB31659, C31S23A40E4B5RDUSB31660, C31S23A40E4B5RDUSB31661, C31S23A40E4B5SBUSB31718, C08S23A40E4B3SBUSB11855",False,-117.25167,34.10032
ATTC (APPLIED TECHNOLOGY TRAINING CENTER),114 S DEL ROSA DR SAN BERNARDINO CA 92408,True,"C31S20A47E4B3CJUSB30914, C31S20A47E4B5CJUSB30946, C31S20A47E4B5CJUSB30947, C31S20A47E4B5SBUSB31012, C31S20A47E4B5SBUSB31014, C31S23A40E4B3CJUSB31094, C31S23A40E4B5CJUSB31207, C31S23A40E4B5CJUSB31208, C31S23A40E4B5RDUSB31213, C31S23A40E4B5RDUSB31214, C31S23A40E4B5SBUSB11218, C31S23A40E4B5SBUSB11220, C31S23A40E4B5SBUSB11224, C31S23A40E4B5SBUSB11225, C31S23A40E4B5SBUSB11226, C31S20A47E4B5CJUSB31655, C31S20A47E4B5CJUSB31656, C31S23A40E4B5RDUSB31659, C31S23A40E4B5RDUSB31660, C31S23A40E4B5RDUSB31661, C31S23A40E4B5SBUSB31718, C08S23A40E4B3SBUSB11855",False,-117.25167,34.10032
BAITUL HAMEED MOSQUE,11941 RAMONA AVE CHINO CA 91710,False,"C35S20A52E1B4CVUCN11485, C35S20A52E1B4CVUCN11467, C35S20A52E1B4CVUCN11468, C35S20A52E1B4CVUCN11469, C35S20A52E1B4CVUCN11470, C35S20A52E1B4CVUCN11486, C35S20A52E1B4CVUCN11484, C35S20A52E1B4CVUUNI1510, C35S20A52E1B4CVUUNI1511, C35S20A52E1B4CVUUNI1512, C35S20A52E1B4CVUUNI1513, C35S20A52E1B4CVUUNI1514, C35S20A52E1B4CVUUNI1516, C35S20A52E1B4CVUUNI1714",False,-117.70595,34.03676
BAITUL HAMEED MOSQUE,11941 RAMONA AVE CHINO CA 91710,True,"C35S20A52E1B4CVUCN11485, C35S20A52E1B4CVUCN11467, C35S20A52E1B4CVUCN11468, C35S20A52E1B4CVUCN11469, C35S20A52E1B4CVUCN11470, C35S20A52E1B4CVUCN11486, C35S20A52E1B4CVUCN11484, C35S20A52E1B4CVUUNI1510, C35S20A52E1B4CVUUNI1511, C35S20A52E1B4CVUUNI1512, C35S20A52E1B4CVUUNI1513, C35S20A52E1B4CVUUNI1514, C35S20A52E1B4CVUUNI1516, C35S20A52E1B4CVUUNI1714",False,-117.70595,34.03676
BALDY MESA COMMUNITY CHURCH,9932 5TH ST VICTORVILLE CA 92392,False,"C08S21A33E1B1SJUUNI0372, C08S23A33E1B1SJUUNI0478, C08S23A33E1B1SJUUNI0479, C08S21A33E1B1SJUUNI1602, C08S21A33E1B1SJUUNI1603, C08S21A33E1B1SJUUNI1906, C08S21A33E1B1SJUUNI1907, C08S23A33E1B1SJUUNI1908, C08S23A33E1B1SJUUNI1909, C08S21A33E1B1SJUUNI2190",False,-117.44642,34.46323
BALDY MESA COMMUNITY CHURCH,9932 5TH ST VICTORVILLE CA 92392,True,"C08S21A33E1B1SJUUNI0372, C08S23A33E1B1SJUUNI0478, C08S23A33E1B1SJUUNI0479, C08S21A33E1B1SJUUNI1602, C08S21A33E1B1SJUUNI1603, C08S21A33E1B1SJUUNI1906, C08S21A33E1B1SJUUNI1907, C08S23A33E1B1SJUUNI1908, C08S23A33E1B1SJUUNI1909, C08S21A33E1B1SJUUNI2190",False,-117.44642,34.46323
BEECH AVENUE ELEMENTARY SCHOOL,9206 BEECH AVE FONTANA CA 92335,False,"C35S20A52E4B2FNUUNI1529, C35S20A52E4B2FNUUNI1530, C35S20A52E4B2FNUUNI1531, C35S20A52E4B2FNUUNI1532",False,-117.47193,34.08635
BEECH AVENUE ELEMENTARY SCHOOL,9206 BEECH AVE FONTANA CA 92335,True,"C35S20A52E4B2FNUUNI1529, C35S20A52E4B2FNUUNI1530, C35S20A52E4B2FNUUNI1531, C35S20A52E4B2FNUUNI1532",False,-117.47193,34.08635
BERLYN ELEMENTARY,1320 N BERLYN AVE ONTARIO CA 91764,False,"C35S20A52E1B4CUHONT1407, C35S20A52E1B4CUHONT1411, C35S20A52E1B4CUHONT1412, C35S20A52E1B4CUHONT1415, C35S20A52E1B4CUHONT1417, C35S20A52E1B4CUHONT1570, C35S20A52E1B4CUHONT1964",False,-117.63787,34.08335
BERLYN ELEMENTARY,1320 N BERLYN AVE ONTARIO CA 91764,True,"C35S20A52E1B4CUHONT1407, C35S20A52E1B4CUHONT1411, C35S20A52E1B4CUHONT1412, C35S20A52E1B4CUHONT1415, C35S20A52E1B4CUHONT1417, C35S20A52E1B4CUHONT1570, C35S20A52E1B4CUHONT1964",False,-117.63787,34.08335
BIG BEAR AREA REGIONAL WASTEWATER AGENCY,121 PALOMINO DR BIG BEAR CITY CA 92314,False,"C08S23A33E1B3BVUUNI0587, C08S23A33E1B3BVUUNI0589, C08S23A33E1B3BVUUNI0590, C08S23A33E1B3BVUUNI0594, C08S23A33E1B3BVUUNI1566",False,-116.81552,34.26794
BIG BEAR AREA REGIONAL WASTEWATER AGENCY,121 PALOMINO DR BIG BEAR CITY CA 92314,True,"C08S23A33E1B3BVUUNI0587, C08S23A33E1B3BVUUNI0589, C08S23A33E1B3BVUUNI0590, C08S23A33E1B3BVUUNI0594, C08S23A33E1B3BVUUNI1566",False,-116.81552,34.26794
BIG BEAR LAKE CIVIC CENTER,39707 BIG BEAR BLVD BIG BEAR LAKE CA 92315,False,"C08S23A33E1B3BVUBB40572, C08S23A33E1B3BVUBB40573, C08S23A33E1B3BVUBB10574, C08S23A33E1B3BVUBB50575, C08S23A33E1B3BVUBB31872, C08S23A33E1B3BVUBB21873, C08S23A33E1B3BVUBB21874, C08S23A33E1B3BVUBB31875, C08S23A33E1B3BVUBB41876, C08S23A33E1B3BVUBB11877, C08S23A33E1B3BVUBB11878",False,-116.93529,34.23797
BIG BEAR LAKE CIVIC CENTER,39707 BIG BEAR BLVD BIG BEAR LAKE CA 92315,True,"C08S23A33E1B3BVUBB40572, C08S23A33E1B3BVUBB40573, C08S23A33E1B3BVUBB10574, C08S23A33E1B3BVUBB50575, C08S23A33E1B3BVUBB31872, C08S23A33E1B3BVUBB21873, C08S23A33E1B3BVUBB21874, C08S23A33E1B3BVUBB31875, C08S23A33E1B3BVUBB41876, C08S23A33E1B3BVUBB11877, C08S23A33E1B3BVUBB11878",False,-116.93529,34.23797
BING WONG ELEMENTARY SCHOOL,1250 E 9TH ST SAN BERNARDINO CA 92410,False,"C31S23A40E4B3SBUSB11160, C31S23A40E4B3SBUSB11161, C31S23A40E4B3SBUSB11162, C31S23A40E4B3SBUSB11163, C31S23A40E4B3SBUSB21164, C31S23A40E4B3SBUSB21165, C31S23A40E4B3SBUSB21166, C31S23A40E4B3SBUSB21167, C31S23A40E4B3SBUSB21168, C31S23A40E4B3SBUUNI1203, C31S23A40E4B5SBUSB11227, C31S23A40E4B5SBUSB11232, C31S23A40E4B5SBUSB11233, C31S23A40E4B5SBUUNI1259, C31S23A40E4B3SBUSB11635, C31S23A40E4B3SBUSB11636, C31S23A40E4B3SBUSB21657",False,-117.25707,34.11696
BING WONG ELEMENTARY SCHOOL,1250 E 9TH ST SAN BERNARDINO CA 92410,True,"C31S23A40E4B3SBUSB11160, C31S23A40E4B3SBUSB11161, C31S23A40E4B3SBUSB11162, C31S23A40E4B3SBUSB11163, C31S23A40E4B3SBUSB21164, C31S23A40E4B3SBUSB21165, C31S23A40E4B3SBUSB21166, C31S23A40E4B3SBUSB21167, C31S23A40E4B3SBUSB21168, C31S23A40E4B3SBUUNI1203, C31S23A40E4B5SBUSB11227, C31S23A40E4B5SBUSB11232, C31S23A40E4B5SBUSB11233, C31S23A40E4B5SBUUNI1259, C31S23A40E4B3SBUSB11635, C31S23A40E4B3SBUSB11636, C31S23A40E4B3SBUSB21657",False,-117.25707,34.11696
BIRCH HIGH SCHOOL,7930 LOCUST AVE FONTANA CA 92336,False,"C35S20A47E4B5FNUFO31360, C35S20A47E4B5FNUFO31361, C35S20A47E4B5FNUFO31362, C35S20A47E4B5RLUFO31376",False,-117.41035,34.10972
BIRCH HIGH SCHOOL,7930 LOCUST AVE FONTANA CA 92336,True,"C35S20A47E4B5FNUFO31360, C35S20A47E4B5FNUFO31361, C35S20A47E4B5FNUFO31362, C35S20A47E4B5RLUFO31376",False,-117.41035,34.10972
BLOOMINGTON UNITED CHURCH OF CHRIST,18490 SANTA ANA AVE BLOOMINGTON CA 92316,False,"C35S20A47E4B5CJUUNI1353, C35S20A47E4B5CJUUNI1355, C35S20A47E4B5CJUUNI2231",False,-117.40088,34.05632
BLOOMINGTON UNITED CHURCH OF CHRIST,18490 SANTA ANA AVE BLOOMINGTON CA 92316,True,"C35S20A47E4B5CJUUNI1353, C35S20A47E4B5CJUUNI1355, C35S20A47E4B5CJUUNI2231",False,-117.40088,34.05632
BONNIE BAKER SENIOR CENTER,149350 UKIAH TRL BIG RIVER CA 92242,False,C08S16A33E1B1NDUUNI0063,False,-114.39326,34.12883
BONNIE BAKER SENIOR CENTER,149350 UKIAH TRL BIG RIVER CA 92242,True,C08S16A33E1B1NDUUNI0063,False,-114.39326,34.12883
BRYN MAWR ELEMENTARY SCHOOL,11680 WHITTIER AVE LOMA LINDA CA 92354,False,"C31S20A47E4B3CJUUNI0916, C31S23A40E4B3CJULOM1092, C31S23A40E4B3RDULOM1100, C31S23A40E4B3RDULOM1101, C31S23A40E4B3RDULOM1102, C31S23A40E4B3RDUUNI1153, C31S23A40E4B3RDUUNI1630, C31S23A40E4B3RDULOM1631, C31S23A40E4B3RDULOM1999",False,-117.22955,34.04229
BRYN MAWR ELEMENTARY SCHOOL,11680 WHITTIER AVE LOMA LINDA CA 92354,True,"C31S20A47E4B3CJUUNI0916, C31S23A40E4B3CJULOM1092, C31S23A40E4B3RDULOM1100, C31S23A40E4B3RDULOM1101, C31S23A40E4B3RDULOM1102, C31S23A40E4B3RDUUNI1153, C31S23A40E4B3RDUUNI1630, C31S23A40E4B3RDULOM1631, C31S23A40E4B3RDULOM1999",False,-117.22955,34.04229
BURNING BUSH CHURCH,14849 7TH ST VICTORVILLE CA 92395,True,"C08S21A33E1B1VUHVIC0429, C08S21A33E1B1VUHVIC0433, C08S21A33E1B1VUHVIC0440, C08S21A33E1B1VUHVIC0441, C08S21A33E1B1VUHVIC0444, C08S21A33E1B1VUHVIC0445, C08S21A33E1B1VUHVIC1934, C08S21A33E1B1VUHVIC1937, C08S21A33E1B1VUHVIC2048",False,-117.30723,34.52056
BURNING BUSH CHURCH,14849 7TH ST VICTORVILLE CA 92395,False,"C08S21A33E1B1VUHVIC0433, C08S21A33E1B1VUHVIC0440, C08S21A33E1B1VUHVIC0441, C08S21A33E1B1VUHVIC0429, C08S21A33E1B1VUHVIC0444, C08S21A33E1B1VUHVIC0445, C08S21A33E1B1VUHVIC1934, C08S21A33E1B1VUHVIC1937, C08S21A33E1B1VUHVIC2048",False,-117.30723,34.52056
BUTTERFIELD RANCH ELEMENTARY SCHOOL,6350 MYSTIC CANYON DR CHINO HILLS CA 91709,False,"C39S29A55E3B4CVUCH51548, C39S29A55E3B4CVUCH51549",False,-117.66688,33.92603
BUTTERFIELD RANCH ELEMENTARY SCHOOL,6350 MYSTIC CANYON DR CHINO HILLS CA 91709,True,"C39S29A55E3B4CVUCH51548, C39S29A55E3B4CVUCH51549",False,-117.66688,33.92603
CALIFORNIA STATE UNIVERSITY (S B),5500 UNIVERSITY PKWY SAN BERNARDINO CA 92407,False,"C08S23A33E1B5SBUSB40637, C08S23A33E1B3SBUSB40615, C08S23A33E1B3SBUSB40616, C08S23A33E1B3SBUSB40617, C08S23A33E1B3SBUSB40618, C08S23A40E1B3SBUSB40710, C31S23A40E1B5SBUSB51090, C31S23A40E4B3SBUSB41187, C31S23A40E4B5SBUSB41241, C31S23A40E4B5SBUSB51242, C31S23A40E4B5SBUSB51243, C31S23A40E4B5SBUSB51244, C31S23A40E4B5SBUSB41239, C31S23A40E4B5SBUSB41723, C31S23A40E4B5SBUSB41724",False,-117.32153,34.18131
CALIFORNIA STATE UNIVERSITY (S B),5500 UNIVERSITY PKWY SAN BERNARDINO CA 92407,True,"C08S23A33E1B5SBUSB40637, C08S23A33E1B3SBUSB40615, C08S23A33E1B3SBUSB40616, C08S23A33E1B3SBUSB40617, C08S23A33E1B3SBUSB40618, C08S23A40E1B3SBUSB40710, C31S23A40E1B5SBUSB51090, C31S23A40E4B3SBUSB41187, C31S23A40E4B5SBUSB41241, C31S23A40E4B5SBUSB51242, C31S23A40E4B5SBUSB51243, C31S23A40E4B5SBUSB51244, C31S23A40E4B5SBUSB41239, C31S23A40E4B5SBUSB41723, C31S23A40E4B5SBUSB41724",False,-117.32153,34.18131
CALVARY CHAPEL (ONTARIO),1957 S VINEYARD AVE ONTARIO CA 91761,False,"C35S20A52E1B4CUHONT1433, C35S20A52E1B4CUHONT1434, C35S20A52E1B4CUHONT1446, C35S20A52E1B4CUHONT1451",False,-117.61035,34.03811
CALVARY CHAPEL (ONTARIO),1957 S VINEYARD AVE ONTARIO CA 91761,True,"C35S20A52E1B4CUHONT1433, C35S20A52E1B4CUHONT1434, C35S20A52E1B4CUHONT1446, C35S20A52E1B4CUHONT1451",False,-117.61035,34.03811
CALVARY CHAPEL OF PHELAN,4501 NIELSON RD PHELAN CA 92371,False,"C08S21A33E1B1VUHUNI0408, C08S23A36E1B1SJUUNI0648, C08S23A36E1B1SJUUNI0649, C08S23A36E1B1SJUUNI0650, C08S23A36E1B1SJUUNI0652, C08S23A36E1B1SJUUNI1910, C08S23A36E1B1SJUUNI1911, C08S23A36E1B1SJUUNI1912, C08S23A36E1B1SJUUNI1913",False,-117.55855,34.41867
CALVARY CHAPEL OF PHELAN,4501 NIELSON RD PHELAN CA 92371,True,"C08S21A33E1B1VUHUNI0408, C08S23A36E1B1SJUUNI0648, C08S23A36E1B1SJUUNI0649, C08S23A36E1B1SJUUNI0650, C08S23A36E1B1SJUUNI0652, C08S23A36E1B1SJUUNI1910, C08S23A36E1B1SJUUNI1911, C08S23A36E1B1SJUUNI1912, C08S23A36E1B1SJUUNI1913",False,-117.55855,34.41867
CHAFFEY ADULT SCHOOL,1802 E 7TH ST ONTARIO CA 91764,False,"C35S20A52E1B4CUHONT1418, C35S20A52E1B4CUHONT1419, C35S20A52E1B4CUHONT1420, C35S20A52E1B4CUHONT1425, C35S20A52E1B4CUHONT1452, C35S20A52E1B4CUHONT1965",False,-117.61317,34.08797
CHAFFEY ADULT SCHOOL,1802 E 7TH ST ONTARIO CA 91764,True,"C35S20A52E1B4CUHONT1418, C35S20A52E1B4CUHONT1419, C35S20A52E1B4CUHONT1420, C35S20A52E1B4CUHONT1425, C35S20A52E1B4CUHONT1452, C35S20A52E1B4CUHONT1965",False,-117.61317,34.08797
CHAFFEY COLLEGE (RANCHO CUCAMONGA),5885 HAVEN AVE RANCHO CUCAMONGA CA 91737,False,"C31S23A40E1B2CUHRC41034, C31S23A40E1B2CUHRC41036",False,-117.57109,34.14704
CHAFFEY COLLEGE (RANCHO CUCAMONGA),5885 HAVEN AVE RANCHO CUCAMONGA CA 91737,True,"C31S23A40E1B2CUHRC41034, C31S23A40E1B2CUHRC41036",False,-117.57109,34.14704
CHAPARRAL ELEMENTARY (CHINO HILLS),4849 BIRD FARM RD CHINO HILLS CA 91709,False,"C39S29A55E3B4CVUCH41542, C39S29A55E3B4CVUCH41545",False,-117.69927,33.97464
CHAPARRAL ELEMENTARY (CHINO HILLS),4849 BIRD FARM RD CHINO HILLS CA 91709,True,"C39S29A55E3B4CVUCH41542, C39S29A55E3B4CVUCH41545",False,-117.69927,33.97464
CHAUTAUQUA HIGH SCHOOL,525 MAPLE LN SUGARLOAF CA 92386,False,"C08S23A33E1B3BVUUNI0585, C08S23A33E1B3BVUUNI0586, C08S23A33E1B3BVUUNI0588, C08S23A33E1B3BVUUNI1595, C08S23A33E1B3BVUUNI1596, C08S23A33E1B3BVUUNI1597",False,-116.8262,34.25149
CHAUTAUQUA HIGH SCHOOL,525 MAPLE LN SUGARLOAF CA 92386,True,"C08S23A33E1B3BVUUNI0585, C08S23A33E1B3BVUUNI0586, C08S23A33E1B3BVUUNI0588, C08S23A33E1B3BVUUNI1595, C08S23A33E1B3BVUUNI1596, C08S23A33E1B3BVUUNI1597",False,-116.8262,34.25149
CHILD SUPPORT SERVICES (VICTORVILLE),15400 CIVIC DR VICTORVILLE CA 92392,False,"C08S21A33E1B1VUHUNI0409, C08S21A33E1B1VUHVIC0438, C08S21A33E1B1VUHVIC0439, C08S21A33E1B1VUHVIC0442, C08S21A33E1B1VUHVIC0443, C08S21A33E1B1VUHVIC0448, C08S21A33E1B1VUHVIC0451, C08S21A33E1B1VUHVIC1605, C08S21A33E1B1VUHUNI1819, C08S21A33E1B1VUHVIC1823, C08S21A33E1B1VUHVIC1933, C08S21A33E1B1VUHVIC2197",False,-117.32813,34.51038
CHILD SUPPORT SERVICES (VICTORVILLE),15400 CIVIC DR VICTORVILLE CA 92392,True,"C08S21A33E1B1VUHUNI0409, C08S21A33E1B1VUHVIC0438, C08S21A33E1B1VUHVIC0439, C08S21A33E1B1VUHVIC0442, C08S21A33E1B1VUHVIC0443, C08S21A33E1B1VUHVIC0448, C08S21A33E1B1VUHVIC0451, C08S21A33E1B1VUHVIC1605, C08S21A33E1B1VUHUNI1819, C08S21A33E1B1VUHVIC1823, C08S21A33E1B1VUHVIC1933, C08S21A33E1B1VUHVIC2197",False,-117.32813,34.51038
CHINO HILLS HIGH SCHOOL,16150 POMONA RINCON RD CHINO HILLS CA 91709,False,"C39S29A55E3B4CVUCH41543, C39S29A55E3B4CVUCH51544",False,-117.68666,33.95985
CHINO HILLS HIGH SCHOOL,16150 POMONA RINCON RD CHINO HILLS CA 91709,True,"C39S29A55E3B4CVUCH41543, C39S29A55E3B4CVUCH51544",False,-117.68666,33.95985
CHURCH FOR WHOSOEVER,18628 SENECA RD APPLE VALLEY CA 92307,False,"C08S21A33E1B1AVUAP20307, C08S21A33E1B1AVUAP10308, C08S21A33E1B1AVUAP20310, C08S21A33E1B1AVUAP21991, C08S21A33E1B1AVUAP11992",False,-117.25742,34.51555
CHURCH FOR WHOSOEVER,18628 SENECA RD APPLE VALLEY CA 92307,True,"C08S21A33E1B1AVUAP20307, C08S21A33E1B1AVUAP10308, C08S21A33E1B1AVUAP20310, C08S21A33E1B1AVUAP21991, C08S21A33E1B1AVUAP11992",False,-117.25742,34.51555
CHURCH OF THE CHIMES,16116 SAN BERNARDINO AVE FONTANA CA 92335,False,"C35S20A47E4B2FNUFO21318, C35S20A47E4B2FNUFO21320, C35S20A47E4B2FNUFO21321, C35S20A47E4B2FNUFO41322, C35S20A47E4B2FNUFO41323",False,-117.45339,34.07796
CHURCH OF THE CHIMES,16116 SAN BERNARDINO AVE FONTANA CA 92335,True,"C35S20A47E4B2FNUFO21318, C35S20A47E4B2FNUFO21320, C35S20A47E4B2FNUFO21321, C35S20A47E4B2FNUFO41322, C35S20A47E4B2FNUFO41323",False,-117.45339,34.07796
CITY OF CHINO COMMUNITY CENTER,5443 B ST CHINO CA 91710,False,"C35S20A52E1B4CVUCN31478, C35S20A52E1B4CVUCN31493, C35S20A52E1B4CVUCN31494, C35S20A52E1B4CVUCN21500, C35S20A52E1B4CVUCN11774, C35S20A52E1B4CVUCN11789",False,-117.68625,34.01697
CITY OF CHINO COMMUNITY CENTER,5443 B ST CHINO CA 91710,True,"C35S20A52E1B4CVUCN31478, C35S20A52E1B4CVUCN31493, C35S20A52E1B4CVUCN31494, C35S20A52E1B4CVUCN21500, C35S20A52E1B4CVUCN11774, C35S20A52E1B4CVUCN11789",False,-117.68625,34.01697
CITY OF HIGHLAND CITY HALL (CHAMBER),27215 BASELINE ST HIGHLAND CA 92346,False,"C08S23A40E4B3SBUHI30757, C08S23A40E4B3SBUHI30758, C08S23A40E4B3SBUHI20746, C08S23A40E4B3SBUHI20747, C08S23A40E4B3SBUHI30748, C08S23A40E4B3SBUHI30754, C31S23A40E4B3SBUHI21155, C08S23A40E4B3SBUHI21639, C08S23A40E4B3SBUHI31765",False,-117.21072,34.12059
CITY OF HIGHLAND CITY HALL (CHAMBER),27215 BASELINE ST HIGHLAND CA 92346,True,"C08S23A40E4B3SBUHI30757, C08S23A40E4B3SBUHI30758, C08S23A40E4B3SBUHI20746, C08S23A40E4B3SBUHI20747, C08S23A40E4B3SBUHI30748, C08S23A40E4B3SBUHI30754, C31S23A40E4B3SBUHI21155, C08S23A40E4B3SBUHI21639, C08S23A40E4B3SBUHI31765",False,-117.21072,34.12059
COBALT MIDDLE SCHOOL,13801 COBALT RD VICTORVILLE CA 92392,True,"C08S21A33E1B1VUHUNI0410, C08S21A33E1B1VUHVIC0434, C08S21A33E1B1VUHVIC0446, C08S21A33E1B1VUHVIC0447, C08S21A33E1B1VUHVIC0460, C08S21A33E1B1VUHVIC1604, C08S21A33E1B1VUHVIC1822, C08S21A33E1B1VUHVIC1931, C08S21A33E1B1VUHVIC2201, C08S21A33E1B1VUHVIC2312",False,-117.3725,34.50096
COBALT MIDDLE SCHOOL,13801 COBALT RD VICTORVILLE CA 92392,False,"C08S21A33E1B1VUHVIC0434, C08S21A33E1B1VUHUNI0410, C08S21A33E1B1VUHVIC0446, C08S21A33E1B1VUHVIC0447, C08S21A33E1B1VUHVIC0460, C08S21A33E1B1VUHVIC1604, C08S21A33E1B1VUHVIC1822, C08S21A33E1B1VUHVIC1931, C08S21A33E1B1VUHVIC2201, C08S21A33E1B1VUHVIC2312",False,-117.3725,34.50096
COLONY HIGH SCHOOL,3850 E RIVERSIDE DR ONTARIO CA 91761,False,"C35S20A52E1B4CUHONT1438, C35S20A52E1B4CUHONT1439, C35S20A52E1B4CUHONT1732",False,-117.56923,34.01723
COLONY HIGH SCHOOL,3850 E RIVERSIDE DR ONTARIO CA 91761,True,"C35S20A52E1B4CUHONT1438, C35S20A52E1B4CUHONT1439, C35S20A52E1B4CUHONT1732",False,-117.56923,34.01723
COMMUNITY BIBLE CHURCH,324 W 40TH ST SAN BERNARDINO CA 92407,False,C31S23A40E4B5SBUSB41240,False,-117.29093,34.16507
COMMUNITY BIBLE CHURCH,324 W 40TH ST SAN BERNARDINO CA 92407,True,C31S23A40E4B5SBUSB41240,False,-117.29093,34.16507
COMMUNITY CENTER (CEDARPINES),21821 PLUNGE RD CEDARPINES PARK CA 92322,False,"C08S23A33E1B2RWUUNI0535, C08S23A33E1B2RWUUNI0536, C08S23A33E1B2RWUUNI0537, C08S23A33E1B2RWUUNI0538, C08S23A40E1B2RWUUNI0693",False,-117.32702,34.24872
COMMUNITY CENTER (CEDARPINES),21821 PLUNGE RD CEDARPINES PARK CA 92322,True,"C08S23A33E1B2RWUUNI0535, C08S23A33E1B2RWUUNI0536, C08S23A33E1B2RWUUNI0537, C08S23A33E1B2RWUUNI0538, C08S23A40E1B2RWUUNI0693",False,-117.32702,34.24872
COOLEY RANCH ELEMENTARY SCHOOL,1000 S COOLEY DR COLTON CA 92324,False,"C31S20A47E4B3CJUCO50893, C31S20A47E4B3CJUCO60905, C31S20A47E4B3CJUCO61644",False,-117.29253,34.05193
COOLEY RANCH ELEMENTARY SCHOOL,1000 S COOLEY DR COLTON CA 92324,True,"C31S20A47E4B3CJUCO50893, C31S20A47E4B3CJUCO60905, C31S20A47E4B3CJUCO61644",False,-117.29253,34.05193
CORA M HARPER FITNESS CENTER,841 BARSTOW RD BARSTOW CA 92311,False,"C08S16A33E1B3BRUBA10136, C08S16A33E1B3BRUBA20138, C08S16A33E1B3BRUBA20139, C08S16A33E1B3BRUBA30140, C08S16A33E1B3BRUBA41867, C08S16A33E1B3BRUBA31869, C08S16A33E1B3BRUBA21870, C08S16A33E1B3BRUBA31857, C08S16A33E1B3BRUBA11858, C08S16A33E1B3BRUBA21871, C08S16A33E1B3BRUBA11859, C08S16A33E1B3BRUBA11860, C08S16A33E1B3BRUBA41864, C08S16A33E1B3BRUBA21865, C08S16A33E1B3BRUBA41866, C08S16A33E1B3BRUBA22087, C08S16A33E1B3BRUBA22079, C08S16A33E1B3BRUBA12080, C08S16A33E1B3BRUBA22081, C08S16A33E1B1BRUUNI2088, C08S16A33E1B3BRUBA32082, C08S16A33E1B3BRUBA32083, C08S16A33E1B3BRUBA22084, C08S16A33E1B3BRUBA22173, C08S16A33E1B3BRUBA22174",False,-117.02231,34.88915
CORA M HARPER FITNESS CENTER,841 BARSTOW RD BARSTOW CA 92311,True,"C08S16A33E1B3BRUBA10136, C08S16A33E1B3BRUBA20138, C08S16A33E1B3BRUBA20139, C08S16A33E1B3BRUBA30140, C08S16A33E1B3BRUBA41867, C08S16A33E1B3BRUBA31869, C08S16A33E1B3BRUBA21870, C08S16A33E1B3BRUBA31857, C08S16A33E1B3BRUBA11858, C08S16A33E1B3BRUBA21871, C08S16A33E1B3BRUBA11859, C08S16A33E1B3BRUBA11860, C08S16A33E1B3BRUBA41864, C08S16A33E1B3BRUBA21865, C08S16A33E1B3BRUBA41866, C08S16A33E1B3BRUBA22087, C08S16A33E1B3BRUBA22079, C08S16A33E1B3BRUBA12080, C08S16A33E1B3BRUBA22081, C08S16A33E1B1BRUUNI2088, C08S16A33E1B3BRUBA32082, C08S16A33E1B3BRUBA32083, C08S16A33E1B3BRUBA22084, C08S16A33E1B3BRUBA22173, C08S16A33E1B3BRUBA22174",False,-117.02231,34.88915
COUNTRY MEADOWS MHP,1855 E RIVERSIDE DR ONTARIO CA 91761,False,"C35S20A52E1B4CUHONT1436, C35S20A52E1B4CVUONT1507, C35S20A52E1B4CVUONT1508",False,-117.61312,34.02196
COUNTRY MEADOWS MHP,1855 E RIVERSIDE DR ONTARIO CA 91761,True,"C35S20A52E1B4CUHONT1436, C35S20A52E1B4CVUONT1507, C35S20A52E1B4CVUONT1508",False,-117.61312,34.02196
COVINGTON PARK COMMUNITY BUILDING,11165 VALE DR MORONGO VALLEY CA 92256,False,C08S16A42E4B3MRUUNI0259,False,-116.57301,34.04981
COVINGTON PARK COMMUNITY BUILDING,11165 VALE DR MORONGO VALLEY CA 92256,True,C08S16A42E4B3MRUUNI0259,False,-116.57301,34.04981
CRAFTON HILLS COLLEGE,11711 SAND CANYON RD YUCAIPA CA 92399,True,"C08S23A42E4B3YCUYU10800, C08S23A42E4B3YCUYU10810, C08S23A42E4B3YCUYU20811, C08S23A42E4B3YCUYU20812, C08S23A42E4B3YCUYU20817, C08S23A42E4B3YCUYU20821, C08S23A42E4B3YCUYU10825, C08S23A42E4B3YCUYU21779, C08S23A42E4B3YCUYU12095, C08S23A42E4B3YCUYU22096, C08S23A42E4B3YCUYU22097, C08S23A42E4B3YCUYU32099, C08S23A42E4B3YCUYU12104, C08S23A42E4B3YCUYU42105, C08S23A42E4B3YCUYU12165",False,-117.10502,34.03942
CRAFTON HILLS COLLEGE,11711 SAND CANYON RD YUCAIPA CA 92399,False,"C08S23A42E4B3YCUYU10800, C08S23A42E4B3YCUYU10810, C08S23A42E4B3YCUYU20811, C08S23A42E4B3YCUYU20812, C08S23A42E4B3YCUYU20817, C08S23A42E4B3YCUYU20821, C08S23A42E4B3YCUYU10825, C08S23A42E4B3YCUYU21779, C08S23A42E4B3YCUYU22096, C08S23A42E4B3YCUYU12095, C08S23A42E4B3YCUYU22097, C08S23A42E4B3YCUYU32099, C08S23A42E4B3YCUYU12104, C08S23A42E4B3YCUYU42105, C08S23A42E4B3YCUYU12165",False,-117.10502,34.03942
CRAM ELEMENTARY SCHOOL,29700 WATER ST HIGHLAND CA 92346,False,"C08S23A40E4B3RDUHI40721, C08S23A40E4B3RDUHI40722, C08S23A40E4B3RDUHI50723, C08S23A40E4B3RDUHI50725, C08S23A40E4B3RDUHI40727, C08S23A40E4B3RDUHI50730, C08S23A40E4B3RDUHI50731, C08S23A40E4B3RDUHI50732, C08S23A40E4B3RDUHI51695, C08S23A40E4B3RDUHI42187, C08S23A40E4B3RDUHI42188",False,-117.15552,34.11768
CRAM ELEMENTARY SCHOOL,29700 WATER ST HIGHLAND CA 92346,True,"C08S23A40E4B3RDUHI40721, C08S23A40E4B3RDUHI40722, C08S23A40E4B3RDUHI50723, C08S23A40E4B3RDUHI50725, C08S23A40E4B3RDUHI40727, C08S23A40E4B3RDUHI50730, C08S23A40E4B3RDUHI50731, C08S23A40E4B3RDUHI50732, C08S23A40E4B3RDUHI51695, C08S23A40E4B3RDUHI42187, C08S23A40E4B3RDUHI42188",False,-117.15552,34.11768
CRESTMORE ELEMENTARY SCHOOL,18870 JURUPA AVE BLOOMINGTON CA 92316,False,"C35S20A47E4B5CJUUNI1354, C35S20A47E4B5CJUUNI1357",False,-117.39315,34.04953
CRESTMORE ELEMENTARY SCHOOL,18870 JURUPA AVE BLOOMINGTON CA 92316,True,"C35S20A47E4B5CJUUNI1354, C35S20A47E4B5CJUUNI1357",False,-117.39315,34.04953
CUCAMONGA VALLEY WD (FRONTIER PROJECT BUILDING),10435 ASHFORD ST RANCHO CUCAMONGA CA 91730,False,"C31S23A40E1B2CUHRC21067, C31S23A40E1B2CUHRC31068, C31S23A40E1B2CUHRC31070, C31S23A40E1B2CUHRC22144, C31S23A40E1B2CUHRC22145",False,-117.57882,34.1113
CUCAMONGA VALLEY WD (FRONTIER PROJECT BUILDING),10435 ASHFORD ST RANCHO CUCAMONGA CA 91730,True,"C31S23A40E1B2CUHRC21067, C31S23A40E1B2CUHRC31068, C31S23A40E1B2CUHRC31070, C31S23A40E1B2CUHRC22144, C31S23A40E1B2CUHRC22145",False,-117.57882,34.1113
DAVIDSON ELEMENTARY SCHOOL,2844 DAVIDSON AVE SAN BERNARDINO CA 92405,False,"C31S23A40E4B5SBUSB21234, C31S23A40E4B5SBUSB21251",False,-117.31101,34.1434
DAVIDSON ELEMENTARY SCHOOL,2844 DAVIDSON AVE SAN BERNARDINO CA 92405,True,"C31S23A40E4B5SBUSB21234, C31S23A40E4B5SBUSB21251",False,-117.31101,34.1434
DE ANZA COMMUNITY AND TEEN CENTER,1405 S FERN AVE ONTARIO CA 91762,False,"C35S20A52E1B4CUHONT1427, C35S20A52E1B4CUHONT1428, C35S20A52E1B4CUHONT1430, C35S20A52E1B4CUHONT1431, C35S20A52E1B4CUHONT1432, C35S20A52E1B4CUHONT1956, C35S20A52E1B4CUHONT1957, C35S20A52E1B4CUHONT1958",False,-117.65435,34.04819
DE ANZA COMMUNITY AND TEEN CENTER,1405 S FERN AVE ONTARIO CA 91762,True,"C35S20A52E1B4CUHONT1427, C35S20A52E1B4CUHONT1428, C35S20A52E1B4CUHONT1430, C35S20A52E1B4CUHONT1431, C35S20A52E1B4CUHONT1432, C35S20A52E1B4CUHONT1956, C35S20A52E1B4CUHONT1957, C35S20A52E1B4CUHONT1958",False,-117.65435,34.04819
DEER CANYON SCHOOL,10225 HAMILTON ST RANCHO CUCAMONGA CA 91701,False,"C31S23A40E1B2CUHRC11032, C31S23A40E1B2CUHRC11033, C31S23A40E1B2CUHRC41037, C31S23A40E1B2CUHRC11038, C31S23A40E1B2CUHRC11039, C31S23A40E1B2CUHRC41737, C31S23A40E1B2CUHRC21825, C31S23A40E1B2CUHRC11970, C31S23A40E1B2CUHRC12275, C31S23A40E1B2CUHRC12276",False,-117.58228,34.1306
DEER CANYON SCHOOL,10225 HAMILTON ST RANCHO CUCAMONGA CA 91701,True,"C31S23A40E1B2CUHRC11032, C31S23A40E1B2CUHRC11033, C31S23A40E1B2CUHRC41037, C31S23A40E1B2CUHRC11038, C31S23A40E1B2CUHRC11039, C31S23A40E1B2CUHRC41737, C31S23A40E1B2CUHRC21825, C31S23A40E1B2CUHRC11970, C31S23A40E1B2CUHRC12275, C31S23A40E1B2CUHRC12276",False,-117.58228,34.1306
DEL ROSA ELEMENTARY SCHOOL,3395 MOUNTAIN AVE SAN BERNARDINO CA 92404,False,"C31S23A40E4B3SBUSB41176, C31S23A40E4B3SBUSB41170, C31S23A40E4B3SBUSB41171, C31S23A40E4B3SBUSB41177, C31S23A40E4B3SBUSB41172, C31S23A40E4B3SBUSB41178, C31S23A40E4B3SBUSB41184, C31S23A40E4B3SBUSB41185, C31S23A40E4B3SBUSB41186, C31S23A40E4B3SBUUNI1201, C31S23A40E4B3SBUUNI1678, C31S23A40E4B3SBUSB41674, C31S23A40E4B3SBUSB41675",False,-117.25599,34.15152
DEL ROSA ELEMENTARY SCHOOL,3395 MOUNTAIN AVE SAN BERNARDINO CA 92404,True,"C31S23A40E4B3SBUSB41176, C31S23A40E4B3SBUSB41170, C31S23A40E4B3SBUSB41171, C31S23A40E4B3SBUSB41177, C31S23A40E4B3SBUSB41172, C31S23A40E4B3SBUSB41178, C31S23A40E4B3SBUSB41184, C31S23A40E4B3SBUSB41185, C31S23A40E4B3SBUSB41186, C31S23A40E4B3SBUUNI1201, C31S23A40E4B3SBUUNI1678, C31S23A40E4B3SBUSB41674, C31S23A40E4B3SBUSB41675",False,-117.25599,34.15152
DESERT CONGREGATIONAL CHURCH,5688 SUNRISE RD TWENTYNINE PALMS CA 92277,False,"C08S16A42E4B3MRUTP10210, C08S16A42E4B3MRUTP20211, C08S16A42E4B3MRUTP10214, C08S16A42E4B3MRUUNI0223, C08S16A42E4B3MRUUNI0224, C08S16A42E4B3MRUUNI0225, C08S16A42E4B3MRUUNI0239, C08S16A42E4B3MRUTP21880, C08S16A42E4B3MRUTP51881, C08S16A42E4B3MRUTP31882, C08S16A42E4B3MRUTP51883, C08S16A42E4B3MRUTP41879, C08S16A42E4B3MRUTP41891, C08S16A42E4B3MRUTP31892, C08S16A42E4B3MRUTP11893, C08S16A42E4B3MRUTP21894, C08S16A42E4B3MRUTP22113, C08S16A42E4B3MRUTP32114, C08S16A42E4B3MRUTP22115",False,-116.10813,34.15087
DESERT CONGREGATIONAL CHURCH,5688 SUNRISE RD TWENTYNINE PALMS CA 92277,True,"C08S16A42E4B3MRUTP10210, C08S16A42E4B3MRUTP20211, C08S16A42E4B3MRUTP10214, C08S16A42E4B3MRUUNI0223, C08S16A42E4B3MRUUNI0224, C08S16A42E4B3MRUUNI0225, C08S16A42E4B3MRUUNI0239, C08S16A42E4B3MRUTP21880, C08S16A42E4B3MRUTP51881, C08S16A42E4B3MRUTP31882, C08S16A42E4B3MRUTP51883, C08S16A42E4B3MRUTP41879, C08S16A42E4B3MRUTP41891, C08S16A42E4B3MRUTP31892, C08S16A42E4B3MRUTP11893, C08S16A42E4B3MRUTP21894, C08S16A42E4B3MRUTP22113, C08S16A42E4B3MRUTP32114, C08S16A42E4B3MRUTP22115",False,-116.10813,34.15087
DESERT HILLS PRESBYTERIAN CHURCH,56750 MOUNTAIN VIEW TRL YUCCA VALLEY CA 92284,False,"C08S16A42E4B3MRUYV10265, C08S16A42E4B3MRUYV30266, C08S16A42E4B3MRUYV50274, C08S16A42E4B3MRUYV40275, C08S16A42E4B3MRUYV30271, C08S16A42E4B3MRUYV51901, C08S16A42E4B3MRUYV21895, C08S16A42E4B3MRUYV31899, C08S16A42E4B3MRUYV11896, C08S16A42E4B3MRUYV11897, C08S16A42E4B3MRUVY11898, C08S16A42E4B3MRUYV51900, C08S16A42E4B3MRUYV41902, C08S16A42E4B3MRUYV12125, C08S16A42E4B3MRUYV22126, C08S16A42E4B3MRUYV42127, C08S16A42E4B3MRUYV52128, C08S16A42E4B3MRUYV42129, C08S16A42E4B3MRUYV32137, C08S16A42E4B3MRUYV32138",False,-116.42598,34.10882
DESERT HILLS PRESBYTERIAN CHURCH,56750 MOUNTAIN VIEW TRL YUCCA VALLEY CA 92284,True,"C08S16A42E4B3MRUYV10265, C08S16A42E4B3MRUYV30266, C08S16A42E4B3MRUYV50274, C08S16A42E4B3MRUYV40275, C08S16A42E4B3MRUYV30271, C08S16A42E4B3MRUYV51901, C08S16A42E4B3MRUYV21895, C08S16A42E4B3MRUYV31899, C08S16A42E4B3MRUYV11896, C08S16A42E4B3MRUYV11897, C08S16A42E4B3MRUVY11898, C08S16A42E4B3MRUYV51900, C08S16A42E4B3MRUYV41902, C08S16A42E4B3MRUYV12125, C08S16A42E4B3MRUYV22126, C08S16A42E4B3MRUYV42127, C08S16A42E4B3MRUYV52128, C08S16A42E4B3MRUYV42129, C08S16A42E4B3MRUYV32137, C08S16A42E4B3MRUYV32138",False,-116.42598,34.10882
DON LUGO HIGH SCHOOL,13400 PIPELINE AVE CHINO CA 91710,False,"C35S20A52E1B4CVUCN41476, C35S20A52E1B4CVUCN11465, C35S20A52E1B4CVUCN41477, C35S20A52E1B4CVUCN41473, C35S20A52E1B4CVUCN41474, C35S20A52E1B4CVUCN41475, C35S20A52E1B4CVUUNI1517, C35S20A52E1B4CVUUNI1518, C35S20A52E1B4CVUCN41520, C39S20A52E1B4CVUCN41534, C39S29A55E3B4CVUCN41561, C35S20A52E1B4CVUCN41773, C35S20A52E1B4CVUCN41795",False,-117.71715,34.00963
DON LUGO HIGH SCHOOL,13400 PIPELINE AVE CHINO CA 91710,True,"C35S20A52E1B4CVUCN41476, C35S20A52E1B4CVUCN11465, C35S20A52E1B4CVUCN41477, C35S20A52E1B4CVUCN41473, C35S20A52E1B4CVUCN41474, C35S20A52E1B4CVUCN41475, C35S20A52E1B4CVUUNI1517, C35S20A52E1B4CVUUNI1518, C35S20A52E1B4CVUCN41520, C39S20A52E1B4CVUCN41534, C39S29A55E3B4CVUCN41561, C35S20A52E1B4CVUCN41773, C35S20A52E1B4CVUCN41795",False,-117.71715,34.00963
DOROTHY GRANT ELEMENTARY SCHOOL,7069 ISABEL LN FONTANA CA 92336,False,"C35S20A47E4B2CUHFO11304, C35S20A47E4B2CUHFO11305, C35S20A47E4B2CUHFO11306, C35S20A47E4B2FNUFO11308, C35S20A47E4B2FNUFO21830",False,-117.46264,34.12559
DOROTHY GRANT ELEMENTARY SCHOOL,7069 ISABEL LN FONTANA CA 92336,True,"C35S20A47E4B2CUHFO11304, C35S20A47E4B2CUHFO11305, C35S20A47E4B2CUHFO11306, C35S20A47E4B2FNUFO11308, C35S20A47E4B2FNUFO21830",False,-117.46264,34.12559
DR. ERNEST GARCIA ELEMENTARY,1390 W RANDALL AVE COLTON CA 92324,False,"C31S20A47E4B5CJUCO10920, C31S20A47E4B5CJUCO10921, C31S20A47E4B5CJUCO10922, C31S20A47E4B5CJUUNI0948, C31S20A47E4B5RLUCO10955, C31S20A47E4B5RLUCO10956, C31S20A47E4B5RLUCO10957",False,-117.34774,34.08447
DR. ERNEST GARCIA ELEMENTARY,1390 W RANDALL AVE COLTON CA 92324,True,"C31S20A47E4B5CJUCO10920, C31S20A47E4B5CJUCO10921, C31S20A47E4B5CJUCO10922, C31S20A47E4B5CJUUNI0948, C31S20A47E4B5RLUCO10955, C31S20A47E4B5RLUCO10956, C31S20A47E4B5RLUCO10957",False,-117.34774,34.08447
EAGLE CANYON ELEMENTARY SCHOOL,13435 EAGLE CANYON DR CHINO HILLS CA 91709,False,"C39S29A55E3B4CVUCH11535, C39S29A55E3B4CVUCH11536, C39S29A55E3B4CVUCH21537, C39S29A55E3B4CVUCH21844",False,-117.74657,34.01045
EAGLE CANYON ELEMENTARY SCHOOL,13435 EAGLE CANYON DR CHINO HILLS CA 91709,True,"C39S29A55E3B4CVUCH11535, C39S29A55E3B4CVUCH11536, C39S29A55E3B4CVUCH21537, C39S29A55E3B4CVUCH21844",False,-117.74657,34.01045
EDWIN RHODES ELEMENTARY SCHOOL,6655 SCHAEFER AVE CHINO CA 91710,False,"C35S20A52E1B4CVUCN21499, C35S20A52E1B4CVUCN31501",False,-117.66019,34.00456
EDWIN RHODES ELEMENTARY SCHOOL,6655 SCHAEFER AVE CHINO CA 91710,True,"C35S20A52E1B4CVUCN21499, C35S20A52E1B4CVUCN31501",False,-117.66019,34.00456
EL MIRAGE COUNTY PARK BUILDING,1488 MILTON ST ADELANTO CA 92301,False,"C08S21A33E1B1VUHUNI0399, C08S21A33E1B1VUHUNI0400, C08S21A33E1B1VUHUNI0401, C08S21A33E1B1VUHUNI1780, C08S21A33E1B1VUHUNI1781, C08S21A33E1B1VUHUNI1782",False,-117.50379,34.60508
EL MIRAGE COUNTY PARK BUILDING,1488 MILTON ST ADELANTO CA 92301,True,"C08S21A33E1B1VUHUNI0399, C08S21A33E1B1VUHUNI0400, C08S21A33E1B1VUHUNI0401, C08S21A33E1B1VUHUNI1780, C08S21A33E1B1VUHUNI1781, C08S21A33E1B1VUHUNI1782",False,-117.50379,34.60508
ENCANTO CENTER (FORMERLY BOYS AND GIRLS CLUB),1180 W 9TH ST SAN BERNARDINO CA 92411,False,"C31S20A47E4B5RLUSB60989, C31S20A47E4B5SBUSB11003, C31S20A47E4B5SBUSB11004, C31S20A47E4B5SBUSB11005, C31S20A47E4B5SBUSB61017, C31S20A47E4B5SBUSB61619",False,-117.31069,34.11609
ENCANTO CENTER (FORMERLY BOYS AND GIRLS CLUB),1180 W 9TH ST SAN BERNARDINO CA 92411,True,"C31S20A47E4B5RLUSB60989, C31S20A47E4B5SBUSB11003, C31S20A47E4B5SBUSB11004, C31S20A47E4B5SBUSB11005, C31S20A47E4B5SBUSB61017, C31S20A47E4B5SBUSB61619",False,-117.31069,34.11609
EPICENTER RECREATION CENTER,17508 HERCULES ST HESPERIA CA 92345,False,"C08S21A33E1B1HPUHE20338, C08S21A33E1B1HPUHE40350, C08S21A33E1B1HPUHE40351, C08S21A33E1B1HPUHE40354, C08S21A33E1B1HPUHE42031, C08S21A33E1B1HPUHE52032, C08S21A33E1B1HPUHE52058",False,-117.28153,34.431
EPICENTER RECREATION CENTER,17508 HERCULES ST HESPERIA CA 92345,True,"C08S21A33E1B1HPUHE20338, C08S21A33E1B1HPUHE40350, C08S21A33E1B1HPUHE40351, C08S21A33E1B1HPUHE40354, C08S21A33E1B1HPUHE42031, C08S21A33E1B1HPUHE52032, C08S21A33E1B1HPUHE52058",False,-117.28153,34.431
EQUESTRIAN CENTER,12660 INDIAN RIVER DR APPLE VALLEY CA 92308,False,"C08S21A33E1B1AVUAP20312, C08S21A33E1B1AVUAP20313, C08S21A33E1B1AVUAP40314, C08S21A33E1B1AVUAP41989, C08S21A33E1B1AVUAP22290",False,-117.25167,34.48187
EQUESTRIAN CENTER,12660 INDIAN RIVER DR APPLE VALLEY CA 92308,True,"C08S21A33E1B1AVUAP20312, C08S21A33E1B1AVUAP20313, C08S21A33E1B1AVUAP40314, C08S21A33E1B1AVUAP41989, C08S21A33E1B1AVUAP22290",False,-117.25167,34.48187
ETIWANDA HIGH SCHOOL,13500 VICTORIA ST RANCHO CUCAMONGA CA 91739,False,"C31S23A40E1B2CUHRC41050, C31S23A40E1B2CUHRC41055, C31S23A40E1B2CUHRC41056, C31S23A40E1B2CUHRC41057, C31S23A40E1B2CUHRC41058, C31S23A40E1B2CUHRC42158, C31S23A40E1B2CUHRC42159",False,-117.51131,34.12978
ETIWANDA HIGH SCHOOL,13500 VICTORIA ST RANCHO CUCAMONGA CA 91739,True,"C31S23A40E1B2CUHRC41050, C31S23A40E1B2CUHRC41055, C31S23A40E1B2CUHRC41056, C31S23A40E1B2CUHRC41057, C31S23A40E1B2CUHRC41058, C31S23A40E1B2CUHRC42158, C31S23A40E1B2CUHRC42159",False,-117.51131,34.12978
EVENT CENTER AT SAN MANUEL,27923 HIGHLAND AVE HIGHLAND CA 92346,True,"C08S23A40E4B3RDUHI40719, C08S23A40E4B3RDUHI50720, C08S23A40E4B3RDUHI50724, C08S23A40E4B3RDUHI50726, C08S23A40E4B3SBUHI40749, C08S23A40E4B3SBUHI40756, C08S23A40E4B3RDUHI41622, C08S23A40E4B3RDUHI41764",False,-117.19517,34.13451
EVENT CENTER AT SAN MANUEL,27923 HIGHLAND AVE HIGHLAND CA 92346,False,"C08S23A40E4B3SBUHI40756, C08S23A40E4B3RDUHI40719, C08S23A40E4B3RDUHI50720, C08S23A40E4B3RDUHI50724, C08S23A40E4B3RDUHI50726, C08S23A40E4B3SBUHI40749, C08S23A40E4B3RDUHI41622, C08S23A40E4B3RDUHI41764",False,-117.19517,34.13451
FAMILY RESOURCE CENTER,9791 ARROW RTE RANCHO CUCAMONGA CA 91730,False,"C31S23A40E1B2CUHRC21065, C31S23A40E1B2CUHRC21073, C31S23A40E1B2CUHRC21076, C31S23A40E1B2CUHRC21077, C31S23A40E1B2CUHRC21574, C31S23A40E1B2CUHRC22150, C31S23A40E1B2CUHRC22151, C31S23A40E1B2CUHRC22217",False,-117.59145,34.09865
FAMILY RESOURCE CENTER,9791 ARROW RTE RANCHO CUCAMONGA CA 91730,True,"C31S23A40E1B2CUHRC21065, C31S23A40E1B2CUHRC21073, C31S23A40E1B2CUHRC21076, C31S23A40E1B2CUHRC21077, C31S23A40E1B2CUHRC21574, C31S23A40E1B2CUHRC22150, C31S23A40E1B2CUHRC22151, C31S23A40E1B2CUHRC22217",False,-117.59145,34.09865
FIRE STATION #164 (UPLAND),1825 N CAMPUS AVE UPLAND CA 91784,False,"C27S25A41E1B2CUHUP20836, C27S25A41E1B2CUHUP20837, C27S25A41E1B2UPUUP20846, C27S25A41E1B2UPUUP20847, C27S25A41E1B2UPUUP20849, C27S25A41E1B2UPUUP20854, C31S25A41E1B2CUHUP21275, C31S25A41E1B2UPUUP21280, C31S25A41E1B2UPUUP41281, C31S25A41E1B4UPUUP41286, C31S25A41E1B2UPUUP41837, C31S25A41E1B2UPUUP21838",False,-117.64272,34.12983
FIRE STATION #164 (UPLAND),1825 N CAMPUS AVE UPLAND CA 91784,True,"C27S25A41E1B2CUHUP20836, C27S25A41E1B2CUHUP20837, C27S25A41E1B2UPUUP20846, C27S25A41E1B2UPUUP20847, C27S25A41E1B2UPUUP20849, C27S25A41E1B2UPUUP20854, C31S25A41E1B2CUHUP21275, C31S25A41E1B2UPUUP21280, C31S25A41E1B2UPUUP41281, C31S25A41E1B4UPUUP41286, C31S25A41E1B2UPUUP41837, C31S25A41E1B2UPUUP21838",False,-117.64272,34.12983
FIRE STATION #2 (DEVORE),1511 DEVORE RD SAN BERNARDINO CA 92407,False,"C08S20A47E1B2SBUUNI0292, C08S20A47E1B2SBUUNI0293, C08S23A40E1B2SBUUNI0701, C08S23A40E1B2SBUUNI0705, C08S23A40E1B5SBUUNI0715, C08S23A40E1B5SBUUNI0716",False,-117.40347,34.2277
FIRE STATION #2 (DEVORE),1511 DEVORE RD SAN BERNARDINO CA 92407,True,"C08S20A47E1B2SBUUNI0292, C08S20A47E1B2SBUUNI0293, C08S23A40E1B2SBUUNI0701, C08S23A40E1B2SBUUNI0705, C08S23A40E1B5SBUUNI0715, C08S23A40E1B5SBUUNI0716",False,-117.40347,34.2277
FIRE STATION #2 (UPLAND),2046 N SAN ANTONIO AVE UPLAND CA 91784,False,"C27S25A41E1B2UPUUNI0839, C27S25A41E1B2UPUUNI0840, C27S25A41E1B2UPUUP10841, C27S25A41E1B2UPUUP10842, C27S25A41E1B2UPUUP20844, C27S25A41E1B2UPUUP20848, C27S25A41E1B2UPUUP11834",False,-117.66058,34.13766
FIRE STATION #2 (UPLAND),2046 N SAN ANTONIO AVE UPLAND CA 91784,True,"C27S25A41E1B2UPUUNI0839, C27S25A41E1B2UPUUNI0840, C27S25A41E1B2UPUUP10841, C27S25A41E1B2UPUUP10842, C27S25A41E1B2UPUUP20844, C27S25A41E1B2UPUUP20848, C27S25A41E1B2UPUUP11834",False,-117.66058,34.13766
FIRE STATION #25 (CRESTLINE),23407 CREST FOREST DR CRESTLINE CA 92325,False,"C08S23A33E1B2RWUUNI0543, C08S23A33E1B2RWUUNI0544, C08S23A33E1B2RWUUNI0545, C08S23A33E1B2RWUUNI0550, C08S23A33E1B2RWUUNI1584, C08S23A33E1B2RWUUNI1585, C08S23A33E1B2RWUUNI1593, C08S23A33E1B2RWUUNI1594",False,-117.29273,34.23854
FIRE STATION #25 (CRESTLINE),23407 CREST FOREST DR CRESTLINE CA 92325,True,"C08S23A33E1B2RWUUNI0543, C08S23A33E1B2RWUUNI0544, C08S23A33E1B2RWUUNI0545, C08S23A33E1B2RWUUNI0550, C08S23A33E1B2RWUUNI1584, C08S23A33E1B2RWUUNI1585, C08S23A33E1B2RWUUNI1593, C08S23A33E1B2RWUUNI1594",False,-117.29273,34.23854
FIRE STATION #305,8331 CALIENTE RD HESPERIA CA 92344,False,"C08S21A33E1B1HPUUNI0365, C08S21A33E1B1HPUHE10334, C08S21A33E1B1SJUUNI0374, C08S21A33E1B1HPUHE10340, C08S21A33E1B1HPUUNI0366, C08S21A33E1B1HPUUNI0361, C08S21A33E1B1HPUUNI0362, C08S21A33E1B1SJUUNI0375, C08S21A33E1B1SJUHE10370, C08S21A33E1B1SJUUNI0376, C08S21A33E1B1SJUHE10371, C08S21A33E1B1SJUUNI0373, C08S23A33E1B1HPUUNI0467, C08S23A33E1B1SJUUNI0480, C08S21A33E1B1SJUUNI1905, C08S23A33E1B1SJUUNI1914",False,-117.40305,34.40158
FIRE STATION #305,8331 CALIENTE RD HESPERIA CA 92344,True,"C08S21A33E1B1HPUUNI0365, C08S21A33E1B1HPUHE10334, C08S21A33E1B1SJUUNI0374, C08S21A33E1B1HPUHE10340, C08S21A33E1B1HPUUNI0366, C08S21A33E1B1HPUUNI0361, C08S21A33E1B1HPUUNI0362, C08S21A33E1B1SJUUNI0375, C08S21A33E1B1SJUHE10370, C08S21A33E1B1SJUUNI0376, C08S21A33E1B1SJUHE10371, C08S21A33E1B1SJUUNI0373, C08S23A33E1B1HPUUNI0467, C08S23A33E1B1SJUUNI0480, C08S21A33E1B1SJUUNI1905, C08S23A33E1B1SJUUNI1914",False,-117.40305,34.40158
FIRE STATION #36 (JOSHUA TREE),6715 PARK BLVD JOSHUA TREE CA 92252,False,"C08S16A42E4B3MRUUNI0227, C08S16A42E4B3MRUUNI0229, C08S16A42E4B3MRUUNI0230, C08S16A42E4B3MRUUNI2117, C08S16A42E4B3MRUUNI2118, C08S16A42E4B3MRUUNI2119, C08S16A42E4B3MRUUNI2184, C08S16A42E4B3MRUUNI2238, C08S16A42E4B3MRUUNI2239",False,-116.31487,34.1309
FIRE STATION #36 (JOSHUA TREE),6715 PARK BLVD JOSHUA TREE CA 92252,True,"C08S16A42E4B3MRUUNI0227, C08S16A42E4B3MRUUNI0229, C08S16A42E4B3MRUUNI0230, C08S16A42E4B3MRUUNI2117, C08S16A42E4B3MRUUNI2118, C08S16A42E4B3MRUUNI2119, C08S16A42E4B3MRUUNI2184, C08S16A42E4B3MRUUNI2238, C08S16A42E4B3MRUUNI2239",False,-116.31487,34.1309
FIRE STATION #7 (LV),10575 DIDO AVE LUCERNE VALLEY CA 92356,False,C08S16A33E1B3LVUUNI0158,False,-116.84764,34.44528
FIRE STATION #7 (LV),10575 DIDO AVE LUCERNE VALLEY CA 92356,True,C08S16A33E1B3LVUUNI0158,False,-116.84764,34.44528
FIRE STATION #77 (BLOOMINGTON),17459 SLOVER AVE BLOOMINGTON CA 92316,False,"C35S20A47E4B2CJUFO41295, C35S20A47E4B2FNUFO41324, C35S20A47E4B5CJUFO41334, C35S20A47E4B5CJUFO41335, C35S20A47E4B5CJUFO41336, C35S20A47E4B5CJUFO41337, C35S20A47E4B5FNUFO41371, C35S20A52E4B2FNUFO41533",False,-117.36811,34.06231
FIRE STATION #77 (BLOOMINGTON),17459 SLOVER AVE BLOOMINGTON CA 92316,True,"C35S20A47E4B2CJUFO41295, C35S20A47E4B2FNUFO41324, C35S20A47E4B5CJUFO41334, C35S20A47E4B5CJUFO41335, C35S20A47E4B5CJUFO41336, C35S20A47E4B5CJUFO41337, C35S20A47E4B5FNUFO41371, C35S20A52E4B2FNUFO41533",False,-117.36811,34.06231
FIRE STATION #91 (LAKE ARROWHEAD),301 S STATE HIGHWAY 173 LAKE ARROWHEAD CA 92352,False,"C08S23A33E1B2RWUUNI0533, C08S23A33E1B2RWUUNI0534, C08S23A33E1B2RWUUNI0531, C08S23A33E1B2RWUUNI0532, C08S23A33E1B2RWUUNI1947, C08S23A33E1B2RWUUNI1948, C08S23A33E1B2RWUUNI1949, C08S23A33E1B2RWUUNI1950, C08S23A33E1B2RWUUNI1951, C08S23A33E1B2RWUUNI1952, C08S23A33E1B2RWUUNI1953, C08S23A33E1B2RWUUNI1946, C08S23A33E1B2RWUUNI2202, C08S23A33E1B2RWUUNI2300, C08S23A33E1B2RWUUNI2301, C08S23A33E1B2RWUUNI2323",False,-117.18954,34.2476
FIRE STATION #91 (LAKE ARROWHEAD),301 S STATE HIGHWAY 173 LAKE ARROWHEAD CA 92352,True,"C08S23A33E1B2RWUUNI0533, C08S23A33E1B2RWUUNI0534, C08S23A33E1B2RWUUNI0531, C08S23A33E1B2RWUUNI0532, C08S23A33E1B2RWUUNI1947, C08S23A33E1B2RWUUNI1948, C08S23A33E1B2RWUUNI1949, C08S23A33E1B2RWUUNI1950, C08S23A33E1B2RWUUNI1951, C08S23A33E1B2RWUUNI1952, C08S23A33E1B2RWUUNI1953, C08S23A33E1B2RWUUNI1946, C08S23A33E1B2RWUUNI2202, C08S23A33E1B2RWUUNI2300, C08S23A33E1B2RWUUNI2301, C08S23A33E1B2RWUUNI2323",False,-117.18954,34.2476
FIRE STATION #95 (GREEN VALLEY LAKE),33596 GREEN VALLEY LAKE RD GREEN VALLEY LAKE CA 92341,False,"C08S23A33E1B2RWUUNI0485, C08S23A33E1B2RWUUNI0490, C08S23A33E1B2RWUUNI1692, C08S23A33E1B2RWUUNI1693, C08S23A33E1B2RWUUNI1694",False,-117.07097,34.24084
FIRE STATION #95 (GREEN VALLEY LAKE),33596 GREEN VALLEY LAKE RD GREEN VALLEY LAKE CA 92341,True,"C08S23A33E1B2RWUUNI0485, C08S23A33E1B2RWUUNI0490, C08S23A33E1B2RWUUNI1692, C08S23A33E1B2RWUUNI1693, C08S23A33E1B2RWUUNI1694",False,-117.07097,34.24084
FIRE STATION #96 (FAWNSKIN),39188 RIM OF THE WORLD DR FAWNSKIN CA 92333,False,"C08S16A33E1B3BVUUNI0152, C08S16A33E1B3BVUUNI0153, C08S16A33E1B3BVUUNI0154, C08S23A33E1B3BVUUNI0582",False,-116.94709,34.26986
FIRE STATION #96 (FAWNSKIN),39188 RIM OF THE WORLD DR FAWNSKIN CA 92333,True,"C08S16A33E1B3BVUUNI0152, C08S16A33E1B3BVUUNI0153, C08S16A33E1B3BVUUNI0154, C08S23A33E1B3BVUUNI0582",False,-116.94709,34.26986
FIRE STATION #98 (ANGELUS OAKS),5766 FRONTAGE RD ANGELUS OAKS CA 92305,False,"C08S23A33E1B3BVUUNI0577, C08S23A33E1B3RDUUNI0607",False,-116.98099,34.14789
FIRE STATION #98 (ANGELUS OAKS),5766 FRONTAGE RD ANGELUS OAKS CA 92305,True,"C08S23A33E1B3BVUUNI0577, C08S23A33E1B3RDUUNI0607",False,-116.98099,34.14789
FIRST BAPTIST CHURCH (29 PALMS),6414 SPLIT ROCK AVE TWENTYNINE PALMS CA 92277,False,"C08S16A42E1B3MRUUNI0200, C08S16A42E1B3MRUUNI0203, C08S16A42E4B3MRUTP50212, C08S16A42E4B3MRUTP10213, C08S16A42E4B3MRUTP41889, C08S16A42E4B3MRUTP41890, C08S16A42E4B3MRUTP41884, C08S16A42E4B3MRUTP41885, C08S16A42E4B3MRUTP41886, C08S16A42E4B3MRUTP31887, C08S16A42E4B3MRUTP31888, C08S16A42E1B3MRUUNI2108, C08S16A42E4B3MRUTP52109, C08S16A42E4B3MRUTP52110, C08S16A42E4B3MRUTP42111, C08S16A42E4B3MRUTP42112, C08S16A42E4B3MRUTP52181, C08S16A42E4B3MRUTP52183",False,-116.06064,34.13694
FIRST BAPTIST CHURCH (29 PALMS),6414 SPLIT ROCK AVE TWENTYNINE PALMS CA 92277,True,"C08S16A42E1B3MRUUNI0200, C08S16A42E1B3MRUUNI0203, C08S16A42E4B3MRUTP50212, C08S16A42E4B3MRUTP10213, C08S16A42E4B3MRUTP41889, C08S16A42E4B3MRUTP41890, C08S16A42E4B3MRUTP41884, C08S16A42E4B3MRUTP41885, C08S16A42E4B3MRUTP41886, C08S16A42E4B3MRUTP31887, C08S16A42E4B3MRUTP31888, C08S16A42E1B3MRUUNI2108, C08S16A42E4B3MRUTP52109, C08S16A42E4B3MRUTP52110, C08S16A42E4B3MRUTP42111, C08S16A42E4B3MRUTP42112, C08S16A42E4B3MRUTP52181, C08S16A42E4B3MRUTP52183",False,-116.06064,34.13694
FIRST CHRISTIAN CHURCH (ONTARIO),110 N VINE AVE ONTARIO CA 91762,False,"C35S20A52E1B4CUHONT1402, C35S20A52E1B4CUHONT1403, C35S20A52E1B4CUHONT1571, C35S20A52E1B4CUHONT1959",False,-117.65563,34.06388
FIRST CHRISTIAN CHURCH (ONTARIO),110 N VINE AVE ONTARIO CA 91762,True,"C35S20A52E1B4CUHONT1402, C35S20A52E1B4CUHONT1403, C35S20A52E1B4CUHONT1571, C35S20A52E1B4CUHONT1959",False,-117.65563,34.06388
FIRST CONGREGATIONAL UNITED CHURCH,3041 N SIERRA WAY SAN BERNARDINO CA 92405,False,"C31S23A40E4B3SBUSB71188, C31S23A40E4B3SBUSB71189, C31S23A40E4B3SBUSB71193, C31S23A40E4B3SBUSB71194, C31S23A40E4B3SBUUNI1200, C31S23A40E4B5SBUSB71254, C31S23A40E4B5SBUSB71255, C31S23A40E4B3SBUUNI1637",False,-117.2845,34.14719
FIRST CONGREGATIONAL UNITED CHURCH,3041 N SIERRA WAY SAN BERNARDINO CA 92405,True,"C31S23A40E4B3SBUSB71188, C31S23A40E4B3SBUSB71189, C31S23A40E4B3SBUSB71193, C31S23A40E4B3SBUSB71194, C31S23A40E4B3SBUUNI1200, C31S23A40E4B5SBUSB71254, C31S23A40E4B5SBUSB71255, C31S23A40E4B3SBUUNI1637",False,-117.2845,34.14719
FIRST UNITED METHODIST CHURCH,918 N EUCLID AVE ONTARIO CA 91762,False,"C35S20A52E1B4CUHONT1405, C35S20A52E1B4CUHONT1406, C35S20A52E1B4CUHONT1410, C35S20A52E1B4CUHONT1572, C35S20A52E1B4CUHONT1842, C35S20A52E1B4CUHONT1960, C35S20A52E1B4CUHONT1961, C35S20A52E1B4CUHONT1963, C35S20A52E1B4CUHONT2180",False,-117.65041,34.07502
FIRST UNITED METHODIST CHURCH,918 N EUCLID AVE ONTARIO CA 91762,True,"C35S20A52E1B4CUHONT1405, C35S20A52E1B4CUHONT1406, C35S20A52E1B4CUHONT1410, C35S20A52E1B4CUHONT1572, C35S20A52E1B4CUHONT1842, C35S20A52E1B4CUHONT1960, C35S20A52E1B4CUHONT1961, C35S20A52E1B4CUHONT1963, C35S20A52E1B4CUHONT2180",False,-117.65041,34.07502
FIRST UNITED METHODIST CHURCH (BARSTOW),404 E MOUNTAIN VIEW ST BARSTOW CA 92311,False,"C08S16A33E1B1BRUUNI0039, C08S16A33E1B1BRUUNI0040, C08S16A33E1B3BRUBA40132, C08S16A33E1B3BRUBA40133, C08S16A33E1B3BRUBA40134, C08S16A33E1B3BRUBA20137, C08S16A33E1B3BRUUNI0148, C08S16A33E1B3BRUUNI0149, C08S16A33E1B3BRUBA11861, C08S16A33E1B3BRUBA41862, C08S16A33E1B3BRUBA42073, C08S16A33E1B3BRUBA42074, C08S16A33E1B3BRUUNI2075, C08S16A33E1B3BRUBA42076, C08S16A33E1B3BRUBA12077, C08S16A33E1B3BRUBA42093, C08S16A33E1B3BRUBA42094, C08S16A33E1B3BRUBA42279, C08S16A33E1B3BRUUNI2280, C08S16A33E1B3BRUBA42285",False,-117.02342,34.89279
FIRST UNITED METHODIST CHURCH (BARSTOW),404 E MOUNTAIN VIEW ST BARSTOW CA 92311,True,"C08S16A33E1B1BRUUNI0039, C08S16A33E1B1BRUUNI0040, C08S16A33E1B3BRUBA40132, C08S16A33E1B3BRUBA40133, C08S16A33E1B3BRUBA40134, C08S16A33E1B3BRUBA20137, C08S16A33E1B3BRUUNI0148, C08S16A33E1B3BRUUNI0149, C08S16A33E1B3BRUBA11861, C08S16A33E1B3BRUBA41862, C08S16A33E1B3BRUBA42073, C08S16A33E1B3BRUBA42074, C08S16A33E1B3BRUUNI2075, C08S16A33E1B3BRUBA42076, C08S16A33E1B3BRUBA12077, C08S16A33E1B3BRUBA42093, C08S16A33E1B3BRUBA42094, C08S16A33E1B3BRUBA42279, C08S16A33E1B3BRUUNI2280, C08S16A33E1B3BRUBA42285",False,-117.02342,34.89279
FLAMINGO HEIGHTS ASSOCIATION,55977 PERRIS ST YUCCA VALLEY CA 92284,False,"C08S16A33E4B3MRUUNI0192, C08S16A42E4B3MRUUNI0264, C08S16A42E4B3MRUUNI0251, C08S16A42E4B3MRUUNI0252, C08S16A42E4B3MRUUNI0253, C08S16A42E4B3MRUUNI0245, C08S16A42E4B3MRUUNI0248, C08S16A42E4B3MRUUNI0249, C08S16A42E4B3MRUUNI0250, C08S16A42E4B3MRUUNI0262, C08S16A42E4B3MRUYV20268, C08S16A42E4B3MRUUNI0263, C08S16A42E4B3MRUUNI1733, C08S16A42E4B3MRUUNI1734, C08S16A42E4B3MRUUNI2136",False,-116.44237,34.23838
FLAMINGO HEIGHTS ASSOCIATION,55977 PERRIS ST YUCCA VALLEY CA 92284,True,"C08S16A33E4B3MRUUNI0192, C08S16A42E4B3MRUUNI0264, C08S16A42E4B3MRUUNI0251, C08S16A42E4B3MRUUNI0252, C08S16A42E4B3MRUUNI0253, C08S16A42E4B3MRUUNI0245, C08S16A42E4B3MRUUNI0248, C08S16A42E4B3MRUUNI0249, C08S16A42E4B3MRUUNI0250, C08S16A42E4B3MRUUNI0262, C08S16A42E4B3MRUYV20268, C08S16A42E4B3MRUUNI0263, C08S16A42E4B3MRUUNI1733, C08S16A42E4B3MRUUNI1734, C08S16A42E4B3MRUUNI2136",False,-116.44237,34.23838
FLOYD M STORK SCHOOL,5646 JASPER ST RANCHO CUCAMONGA CA 91701,False,"C31S23A41E1B2CUHRC11260, C31S23A41E1B2CUHRC11261, C31S23A41E1B2UPURC11272",False,-117.62194,34.15232
FLOYD M STORK SCHOOL,5646 JASPER ST RANCHO CUCAMONGA CA 91701,True,"C31S23A41E1B2CUHRC11260, C31S23A41E1B2CUHRC11261, C31S23A41E1B2UPURC11272",False,-117.62194,34.15232
FRANK DOMINGUEZ ELEMENTARY,135 S ALLEN ST SAN BERNARDINO CA 92408,False,"C31S20A47E4B5SBUSB11002, C31S20A47E4B5SBUSB31009",False,-117.28127,34.1
FRANK DOMINGUEZ ELEMENTARY,135 S ALLEN ST SAN BERNARDINO CA 92408,True,"C31S20A47E4B5SBUSB11002, C31S20A47E4B5SBUSB31009",False,-117.28127,34.1
FRISBIE MIDDLE SCHOOL,1442 N EUCALYPTUS AVE RIALTO CA 92376,False,"C31S20A47E4B5RLURIA0967, C31S20A47E4B5RLURIA0968, C31S20A47E4B5RLURIA0969, C31S20A47E4B5RLURIA0972, C31S20A47E4B5RLURIA0974",False,-117.35857,34.12651
FRISBIE MIDDLE SCHOOL,1442 N EUCALYPTUS AVE RIALTO CA 92376,True,"C31S20A47E4B5RLURIA0967, C31S20A47E4B5RLURIA0968, C31S20A47E4B5RLURIA0969, C31S20A47E4B5RLURIA0972, C31S20A47E4B5RLURIA0974",False,-117.35857,34.12651
GLENMEADE ELEMENTARY SCHOOL,15000 WHIRLAWAY LN CHINO HILLS CA 91709,False,"C39S29A55E3B4CVUCH31540, C39S29A55E3B4CVUCH51541, C39S29A55E3B4CVUCH31846",False,-117.72201,33.9802
GLENMEADE ELEMENTARY SCHOOL,15000 WHIRLAWAY LN CHINO HILLS CA 91709,True,"C39S29A55E3B4CVUCH31540, C39S29A55E3B4CVUCH51541, C39S29A55E3B4CVUCH31846",False,-117.72201,33.9802
GOLDY S LEWIS COMMUNITY CENTER,11200 BASELINE RD RANCHO CUCAMONGA CA 91701,False,"C31S23A40E1B2CUHRC31040, C31S23A40E1B2CUHRC31041, C31S23A40E1B2CUHRC31042, C31S23A40E1B2CUHRC31069, C31S23A40E1B2CUHRC31071, C31S23A40E1B2CUHRC31736, C31S23A40E1B2CUHRC31738, C31S23A40E1B2CUHRC32166, C31S23A40E1B2CUHRC32167",False,-117.56054,34.12318
GOLDY S LEWIS COMMUNITY CENTER,11200 BASELINE RD RANCHO CUCAMONGA CA 91701,True,"C31S23A40E1B2CUHRC31040, C31S23A40E1B2CUHRC31041, C31S23A40E1B2CUHRC31042, C31S23A40E1B2CUHRC31069, C31S23A40E1B2CUHRC31071, C31S23A40E1B2CUHRC31736, C31S23A40E1B2CUHRC31738, C31S23A40E1B2CUHRC32166, C31S23A40E1B2CUHRC32167",False,-117.56054,34.12318
GRACE LUTHERAN CHURCH,2108 N EUCLID AVE UPLAND CA 91784,False,C27S25A41E1B2UPUUP20845,False,-117.65068,34.14015
GRACE LUTHERAN CHURCH,2108 N EUCLID AVE UPLAND CA 91784,True,C27S25A41E1B2UPUUP20845,False,-117.65068,34.14015
GRACE POINT FELLOWSHIP,34784 YUCAIPA BLVD YUCAIPA CA 92399,False,"C08S23A42E4B3YCUYU40806, C08S23A42E4B3YCUYU30813, C08S23A42E4B3YCUYU40819, C08S23A42E4B3YCUYU32100, C08S23A42E4B3YCUYU32101, C08S23A42E4B3YCUYU32102",False,-117.04617,34.03458
GRACE POINT FELLOWSHIP,34784 YUCAIPA BLVD YUCAIPA CA 92399,True,"C08S23A42E4B3YCUYU40806, C08S23A42E4B3YCUYU30813, C08S23A42E4B3YCUYU40819, C08S23A42E4B3YCUYU32100, C08S23A42E4B3YCUYU32101, C08S23A42E4B3YCUYU32102",False,-117.04617,34.03458
GRACE YOKLEY MIDDLE SCHOOL,2947 S TURNER AVE ONTARIO CA 91761,False,"C35S20A52E1B4CUHONT1440, C35S20A52E1B4CUHONT1443, C35S20A52E1B4CUHONT1444",False,-117.58327,34.02142
GRACE YOKLEY MIDDLE SCHOOL,2947 S TURNER AVE ONTARIO CA 91761,True,"C35S20A52E1B4CUHONT1440, C35S20A52E1B4CUHONT1443, C35S20A52E1B4CUHONT1444",False,-117.58327,34.02142
GRAND TERRACE HIGH,21810 MAIN ST GRAND TERRACE CA 92313,False,"C31S20A47E4B3CJUGRA0909, C31S20A47E4B3CJUGRA0910",False,-117.32822,34.02172
GRAND TERRACE HIGH,21810 MAIN ST GRAND TERRACE CA 92313,True,"C31S20A47E4B3CJUGRA0909, C31S20A47E4B3CJUGRA0910",False,-117.32822,34.02172
GRANITE HILLS HIGH SCHOOL,22900 ESAWS RD APPLE VALLEY CA 92307,False,C08S21A33E1B1AVUAP50306,False,-117.16646,34.50902
GRANITE HILLS HIGH SCHOOL,22900 ESAWS RD APPLE VALLEY CA 92307,True,C08S21A33E1B1AVUAP50306,False,-117.16646,34.50902
GRANT ELEMENTARY SCHOOL,550 W OLIVE ST COLTON CA 92324,False,"C31S20A47E4B5CJUCO40932, C31S20A47E4B5CJUCO40933",False,-117.33004,34.07731
GRANT ELEMENTARY SCHOOL,550 W OLIVE ST COLTON CA 92324,True,"C31S20A47E4B5CJUCO40932, C31S20A47E4B5CJUCO40933",False,-117.33004,34.07731
GREATER FAITH GRACE BIBLE CHURCH,249 E RANDALL AVE RIALTO CA 92376,False,"C31S20A47E4B5RLURIA0977, C35S20A47E4B5CJURIA1343, C35S20A47E4B5CJURIA1338, C35S20A47E4B5CJURIA1339, C35S20A47E4B5RLURIA1385, C35S20A47E4B5RLURIA1380, C35S20A47E4B5RLURIA1381, C35S20A47E4B5RLURIA1382, C35S20A47E4B5CJURIA1642, C35S20A47E4B5RLURIA1643",False,-117.36657,34.0847
GREATER FAITH GRACE BIBLE CHURCH,249 E RANDALL AVE RIALTO CA 92376,True,"C31S20A47E4B5RLURIA0977, C35S20A47E4B5CJURIA1343, C35S20A47E4B5CJURIA1338, C35S20A47E4B5CJURIA1339, C35S20A47E4B5RLURIA1385, C35S20A47E4B5RLURIA1380, C35S20A47E4B5RLURIA1381, C35S20A47E4B5RLURIA1382, C35S20A47E4B5CJURIA1642, C35S20A47E4B5RLURIA1643",False,-117.36657,34.0847
HAWTHORN SUITES,11750 DUNIA RD VICTORVILLE CA 92392,False,"C08S21A33E1B1HPUVIC0368, C08S21A33E1B1HPUVIC0369, C08S21A33E1B1SJUVIC0379, C08S21A33E1B1VUHVIC0453, C08S21A33E1B1VUHVIC0449, C08S21A33E1B1VUHVIC0450, C08S21A33E1B1VUHVIC0452, C08S21A33E1B1HPUVIC1617, C08S21A33E1B1HPUVIC1618, C08S21A33E1B1VUHVIC1938",False,-117.35361,34.46405
HAWTHORN SUITES,11750 DUNIA RD VICTORVILLE CA 92392,True,"C08S21A33E1B1HPUVIC0368, C08S21A33E1B1HPUVIC0369, C08S21A33E1B1SJUVIC0379, C08S21A33E1B1VUHVIC0453, C08S21A33E1B1VUHVIC0449, C08S21A33E1B1VUHVIC0450, C08S21A33E1B1VUHVIC0452, C08S21A33E1B1HPUVIC1617, C08S21A33E1B1HPUVIC1618, C08S21A33E1B1VUHVIC1938",False,-117.35361,34.46405
HEMLOCK ELEMENTARY,15080 MILLER AVE FONTANA CA 92336,False,"C35S20A47E4B2FNUFO11315, C35S20A47E4B2FNUFO11316, C35S20A52E4B2FNUUNI1528, C35S20A47E4B2FNUFO11575",False,-117.47707,34.11537
HEMLOCK ELEMENTARY,15080 MILLER AVE FONTANA CA 92336,True,"C35S20A47E4B2FNUFO11315, C35S20A47E4B2FNUFO11316, C35S20A52E4B2FNUUNI1528, C35S20A47E4B2FNUFO11575",False,-117.47707,34.11537
HERITAGE NEIGHBORHOOD CENTER,7350 W LIBERTY PKWY FONTANA CA 92336,False,"C35S20A47E4B2CUHFO11299, C35S20A47E4B2CUHFO11300, C35S20A47E4B2CUHFO11303",False,-117.50344,34.12097
HERITAGE NEIGHBORHOOD CENTER,7350 W LIBERTY PKWY FONTANA CA 92336,True,"C35S20A47E4B2CUHFO11299, C35S20A47E4B2CUHFO11300, C35S20A47E4B2CUHFO11303",False,-117.50344,34.12097
HERMOSA SCHOOL,10133 WILSON AVE RANCHO CUCAMONGA CA 91737,False,"C31S23A41E1B2CUHRC11264, C31S23A41E1B2CUHRC41266, C31S23A41E1B2CUHRC11267, C31S23A41E1B2CUHRC42213, C31S23A41E1B2CUHRC12216, C31S23A41E1B2CUHRC12271, C31S23A41E1B2CUHRC12272, C31S23A41E1B2CUHRC42273",False,-117.58343,34.14995
HERMOSA SCHOOL,10133 WILSON AVE RANCHO CUCAMONGA CA 91737,True,"C31S23A41E1B2CUHRC11264, C31S23A41E1B2CUHRC41266, C31S23A41E1B2CUHRC11267, C31S23A41E1B2CUHRC42213, C31S23A41E1B2CUHRC12216, C31S23A41E1B2CUHRC12271, C31S23A41E1B2CUHRC12272, C31S23A41E1B2CUHRC42273",False,-117.58343,34.14995
HESPERIA CHURCH OF THE NAZARENE,8518 MAPLE AVE HESPERIA CA 92345,False,"C08S21A33E1B1HPUHE50346, C08S21A33E1B1HPUHE50347, C08S21A33E1B1HPUHE50349, C08S21A33E1B1HPUHE51815, C08S21A33E1B1HPUHE52029, C08S21A33E1B1HPUHE52030, C08S21A33E1B1HPUHE52034, C08S21A33E1B1HPUHE52035, C08S21A33E1B1HPUHE52052, C08S21A33E1B1HPUHE52053, C08S21A33E1B1HPUHE52054, C08S21A33E1B1HPUHE52055, C08S21A33E1B1HPUHE52056, C08S21A33E1B1HPUHE52057, C08S21A33E1B1HPUHE52059",False,-117.34664,34.4073
HESPERIA CHURCH OF THE NAZARENE,8518 MAPLE AVE HESPERIA CA 92345,True,"C08S21A33E1B1HPUHE50346, C08S21A33E1B1HPUHE50347, C08S21A33E1B1HPUHE50349, C08S21A33E1B1HPUHE51815, C08S21A33E1B1HPUHE52029, C08S21A33E1B1HPUHE52030, C08S21A33E1B1HPUHE52034, C08S21A33E1B1HPUHE52035, C08S21A33E1B1HPUHE52052, C08S21A33E1B1HPUHE52053, C08S21A33E1B1HPUHE52054, C08S21A33E1B1HPUHE52055, C08S21A33E1B1HPUHE52056, C08S21A33E1B1HPUHE52057, C08S21A33E1B1HPUHE52059",False,-117.34664,34.4073
HESPERIA GOLF AND COUNTRY CLUB,17970 BANGOR AVE HESPERIA CA 92345,False,"C08S21A33E1B1HPUHE50352, C08S21A33E1B1HPUHE30353, C08S21A33E1B1HPUHE50355, C08S21A33E1B1HPUHE30356, C08S21A33E1B1HPUHE51816, C08S21A33E1B1HPUHE41817, C08S21A33E1B1HPUHE31818, C08S21A33E1B1HPUHE32033, C08S21A33E1B1HPUHE42060, C08S21A33E1B1HPUHE42061, C08S21A33E1B1HPUHE52062, C08S21A33E1B1HPUHE52063, C08S21A33E1B1HPUHE52064, C08S21A33E1B1HPUHE32065, C08S21A33E1B1HPUHE32192",False,-117.27096,34.40827
HESPERIA GOLF AND COUNTRY CLUB,17970 BANGOR AVE HESPERIA CA 92345,True,"C08S21A33E1B1HPUHE50352, C08S21A33E1B1HPUHE30353, C08S21A33E1B1HPUHE50355, C08S21A33E1B1HPUHE30356, C08S21A33E1B1HPUHE51816, C08S21A33E1B1HPUHE41817, C08S21A33E1B1HPUHE31818, C08S21A33E1B1HPUHE32033, C08S21A33E1B1HPUHE42060, C08S21A33E1B1HPUHE42061, C08S21A33E1B1HPUHE52062, C08S21A33E1B1HPUHE52063, C08S21A33E1B1HPUHE52064, C08S21A33E1B1HPUHE32065, C08S21A33E1B1HPUHE32192",False,-117.27096,34.40827
HESPERIA HIGH SCHOOL,9898 MAPLE AVE HESPERIA CA 92345,False,"C08S21A33E1B1HPUHE42017, C08S21A33E1B1HPUHE22024, C08S21A33E1B1HPUHE10335, C08S21A33E1B1HPUHE20337, C08S21A33E1B1HPUHE40343, C08S21A33E1B1HPUHE40348, C08S21A33E1B1HPUHE41607, C08S21A33E1B1HPUHE42025, C08S21A33E1B1HPUHE42026, C08S21A33E1B1HPUHE42027, C08S21A33E1B1HPUHE42028, C08S21A33E1B1HPUHE42051, C08S21A33E1B1HPUHE42182",False,-117.35052,34.43016
HESPERIA HIGH SCHOOL,9898 MAPLE AVE HESPERIA CA 92345,True,"C08S21A33E1B1HPUHE42017, C08S21A33E1B1HPUHE22024, C08S21A33E1B1HPUHE10335, C08S21A33E1B1HPUHE20337, C08S21A33E1B1HPUHE40343, C08S21A33E1B1HPUHE40348, C08S21A33E1B1HPUHE41607, C08S21A33E1B1HPUHE42025, C08S21A33E1B1HPUHE42026, C08S21A33E1B1HPUHE42027, C08S21A33E1B1HPUHE42028, C08S21A33E1B1HPUHE42051, C08S21A33E1B1HPUHE42182",False,-117.35052,34.43016
HI-DESERT WORD CENTER,30918 SOAPMINE RD BARSTOW CA 92311,False,"C08S16A33E1B1BRUUNI0043, C08S16A33E1B1BRUUNI0044, C08S16A33E1B3BRUBA40135, C08S16A33E1B3BRUBA11863, C08S16A33E1B3BRUBA41868, C08S16A33E1B3BRUBA12078, C08S16A33E1B1BRUUNI2089, C08S16A33E1B1BRUUNI2090, C08S16A33E1B3BRUBA42091, C08S16A33E1B3BRUBA42092, C08S16A33E1B1BRUUNI2172",False,-116.9875,34.91174
HI-DESERT WORD CENTER,30918 SOAPMINE RD BARSTOW CA 92311,True,"C08S16A33E1B1BRUUNI0043, C08S16A33E1B1BRUUNI0044, C08S16A33E1B3BRUBA40135, C08S16A33E1B3BRUBA11863, C08S16A33E1B3BRUBA41868, C08S16A33E1B3BRUBA12078, C08S16A33E1B1BRUUNI2089, C08S16A33E1B1BRUUNI2090, C08S16A33E1B3BRUBA42091, C08S16A33E1B3BRUBA42092, C08S16A33E1B1BRUUNI2172",False,-116.9875,34.91174
HIDDEN TRAILS ELEMENTARY SCHOOL,2250 RIDGEVIEW DR CHINO HILLS CA 91709,False,"C39S29A55E3B4CVUCH21555, C39S29A55E3B4CVUCH11559",False,-117.75495,33.98539
HIDDEN TRAILS ELEMENTARY SCHOOL,2250 RIDGEVIEW DR CHINO HILLS CA 91709,True,"C39S29A55E3B4CVUCH21555, C39S29A55E3B4CVUCH11559",False,-117.75495,33.98539
HIGHLAND FAMILY YMCA,7793 CENTRAL AVE HIGHLAND CA 92346,False,"C08S23A40E4B3SBUHI10750, C08S23A40E4B3SBUHI10751, C08S23A40E4B3SBUHI10752, C08S23A40E4B3SBUHI10753, C08S23A40E4B3SBUHI30755, C31S23A40E4B3SBUHI11156, C08S23A40E4B3SBUHI21770",False,-117.21681,34.11216
HIGHLAND FAMILY YMCA,7793 CENTRAL AVE HIGHLAND CA 92346,True,"C08S23A40E4B3SBUHI10750, C08S23A40E4B3SBUHI10751, C08S23A40E4B3SBUHI10752, C08S23A40E4B3SBUHI10753, C08S23A40E4B3SBUHI30755, C31S23A40E4B3SBUHI11156, C08S23A40E4B3SBUHI21770",False,-117.21681,34.11216
HINKLEY SENIOR CENTER,35997 MOUNTAIN VIEW RD HINKLEY CA 92347,False,"C08S16A33E1B1BRUUNI0031, C08S16A33E1B1BRUUNI0042, C08S16A33E1B1BRUUNI2071",False,-117.17079,34.90457
HINKLEY SENIOR CENTER,35997 MOUNTAIN VIEW RD HINKLEY CA 92347,True,"C08S16A33E1B1BRUUNI0031, C08S16A33E1B1BRUUNI0042, C08S16A33E1B1BRUUNI2071",False,-117.17079,34.90457
HOOTMAN SENIOR/COMMUNITY CENTER,2929 RUNNING SPRINGS SCHOOL RD RUNNING SPRINGS CA 92382,False,"C08S23A33E1B2RWUUNI0487, C08S23A33E1B2RWUUNI0489, C08S23A33E1B2RWUUNI0488, C08S23A33E1B2RWUUNI0516, C08S23A33E1B2RWUUNI1689, C08S23A33E1B2RWUUNI1685, C08S23A33E1B2RWUUNI1686, C08S23A33E1B2RWUUNI1690, C08S23A33E1B2RWUUNI1691, C08S23A33E1B2RWUUNI2325",False,-117.09373,34.20027
HOOTMAN SENIOR/COMMUNITY CENTER,2929 RUNNING SPRINGS SCHOOL RD RUNNING SPRINGS CA 92382,True,"C08S23A33E1B2RWUUNI0487, C08S23A33E1B2RWUUNI0489, C08S23A33E1B2RWUUNI0488, C08S23A33E1B2RWUUNI0516, C08S23A33E1B2RWUUNI1689, C08S23A33E1B2RWUUNI1685, C08S23A33E1B2RWUUNI1686, C08S23A33E1B2RWUUNI1690, C08S23A33E1B2RWUUNI1691, C08S23A33E1B2RWUUNI2325",False,-117.09373,34.20027
HOWARD SCHOOL,4650 HOWARD ST MONTCLAIR CA 91763,False,"C35S20A52E1B4CUHMON1397, C35S20A52E1B4CUHUNI1457, C35S20A52E1B4CUHUNI1458, C35S20A52E1B4CUHMON1839",False,-117.70372,34.05258
HOWARD SCHOOL,4650 HOWARD ST MONTCLAIR CA 91763,True,"C35S20A52E1B4CUHMON1397, C35S20A52E1B4CUHUNI1457, C35S20A52E1B4CUHUNI1458, C35S20A52E1B4CUHMON1839",False,-117.70372,34.05258
IMAGINE THAT,1318 W 9TH ST UPLAND CA 91786,False,"C27S25A41E1B2UPUUP10853, C31S25A41E1B2UPUUP11277, C31S25A41E1B2UPUUP11278, C31S25A41E1B4CUHUP31284, C31S25A41E1B4CUHUP31285, C31S25A41E1B4UPUUP31291, C31S25A41E1B4UPUUP31292, C31S25A41E1B4UPUUP31293, C31S25A41E1B4UPUUP31294, C31S25A41E1B2UPUUP11835",False,-117.67281,34.09558
IMAGINE THAT,1318 W 9TH ST UPLAND CA 91786,True,"C27S25A41E1B2UPUUP10853, C31S25A41E1B2UPUUP11277, C31S25A41E1B4CUHUP31284, C31S25A41E1B2UPUUP11278, C31S25A41E1B4CUHUP31285, C31S25A41E1B4UPUUP31293, C31S25A41E1B4UPUUP31291, C31S25A41E1B4UPUUP31292, C31S25A41E1B4UPUUP31294, C31S25A41E1B2UPUUP11835",False,-117.67281,34.09558
INLAND CAREER EDUCATION CENTER,1200 N E ST SAN BERNARDINO CA 92405,False,"C31S23A40E4B5SBUSB21235, C31S23A40E4B5SBUSB21238, C31S23A40E4B5SBUSB71257, C31S23A40E4B5SBUSB21662",False,-117.2946,34.12173
INLAND CAREER EDUCATION CENTER,1200 N E ST SAN BERNARDINO CA 92405,True,"C31S23A40E4B5SBUSB21235, C31S23A40E4B5SBUSB21238, C31S23A40E4B5SBUSB71257, C31S23A40E4B5SBUSB21662",False,-117.2946,34.12173
JAMES WOODY COMMUNITY CENTER,13467 NAVAJO RD APPLE VALLEY CA 92308,False,"C08S21A33E1B1AVUAP30315, C08S21A33E1B1AVUAP30316, C08S21A33E1B1AVUAP50318, C08S21A33E1B1AVUAP31990",False,-117.18975,34.49602
JAMES WOODY COMMUNITY CENTER,13467 NAVAJO RD APPLE VALLEY CA 92308,True,"C08S21A33E1B1AVUAP30315, C08S21A33E1B1AVUAP30316, C08S21A33E1B1AVUAP50318, C08S21A33E1B1AVUAP31990",False,-117.18975,34.49602
JASPER ELEMENTARY SCHOOL,6881 JASPER ST RANCHO CUCAMONGA CA 91701,False,"C31S23A40E1B2CUHRC11029, C31S23A40E1B2CUHRC12266",False,-117.62015,34.13039
JASPER ELEMENTARY SCHOOL,6881 JASPER ST RANCHO CUCAMONGA CA 91701,True,"C31S23A40E1B2CUHRC11029, C31S23A40E1B2CUHRC12266",False,-117.62015,34.13039
JOSLYN SENIOR CENTER,21 GRANT ST REDLANDS CA 92373,False,"C08S23A42E4B3YCURE50782, C31S23A40E4B3RDURE51120, C31S23A40E4B3RDURE11121, C31S23A40E4B3RDURE51125, C31S23A40E4B3RDURE51126, C31S23A40E4B3RDURE31127, C31S23A40E4B3RDURE51129, C31S23A40E4B3YCURE51205, C31S23A40E4B3YCURE51206, C31S23A40E4B3RDURE51810, C31S23A40E4B3RDURE12006",False,-117.18525,34.05385
JOSLYN SENIOR CENTER,21 GRANT ST REDLANDS CA 92373,True,"C08S23A42E4B3YCURE50782, C31S23A40E4B3RDURE51120, C31S23A40E4B3RDURE11121, C31S23A40E4B3RDURE51125, C31S23A40E4B3RDURE51126, C31S23A40E4B3RDURE31127, C31S23A40E4B3RDURE51129, C31S23A40E4B3YCURE51205, C31S23A40E4B3YCURE51206, C31S23A40E4B3RDURE51810, C31S23A40E4B3RDURE12006",False,-117.18525,34.05385
JURUPA VISTA SCHOOL,15920 VILLAGE DR FONTANA CA 92337,False,"C35S20A47E4B2CJUFO41296, C35S20A47E4B2CJUFO41297, C35S20A47E4B2CJUFO41298, C35S20A47E4B2FNUFO41328, C35S20A47E4B2CJUFO42204",False,-117.45816,34.04383
JURUPA VISTA SCHOOL,15920 VILLAGE DR FONTANA CA 92337,True,"C35S20A47E4B2CJUFO41296, C35S20A47E4B2CJUFO41297, C35S20A47E4B2CJUFO41298, C35S20A47E4B2FNUFO41328, C35S20A47E4B2CJUFO42204",False,-117.45816,34.04383
Joshua Tree Community Center,6171 SUNBURST STREET JOSHUA TREE CA 92252,False,Locality wide location,False,-116.30562,34.13968
KOLB MIDDLE SCHOOL,2351 N SPRUCE AVE RIALTO CA 92377,False,"C31S20A47E1B5RLURIA0866, C31S20A47E1B5RLUUNI0867, C31S20A47E4B5RLURIA0964, C31S20A47E4B5RLURIA0965, C31S20A47E4B5RLUUNI0992, C31S20A47E4B5RLURIA0966, C31S20A47E4B5RLURIA0979, C31S20A47E4B5RLUUNI0994, C31S20A47E4B5RLUUNI0995, C31S20A47E4B5RLUUNI0996, C31S20A47E1B5RLUUNI2218, C31S20A47E1B5RLUUNI2219, C31S20A47E4B5RLURIA2220, C31S20A47E4B5RLURIA2221",False,-117.38609,34.14138
KOLB MIDDLE SCHOOL,2351 N SPRUCE AVE RIALTO CA 92377,True,"C31S20A47E1B5RLURIA0866, C31S20A47E1B5RLUUNI0867, C31S20A47E4B5RLURIA0964, C31S20A47E4B5RLURIA0965, C31S20A47E4B5RLUUNI0992, C31S20A47E4B5RLURIA0966, C31S20A47E4B5RLURIA0979, C31S20A47E4B5RLUUNI0994, C31S20A47E4B5RLUUNI0995, C31S20A47E4B5RLUUNI0996, C31S20A47E1B5RLUUNI2218, C31S20A47E1B5RLUUNI2219, C31S20A47E4B5RLURIA2220, C31S20A47E4B5RLURIA2221",False,-117.38609,34.14138
KUCERA MIDDLE SCHOOL,2140 W BUENA VISTA DR RIALTO CA 92377,False,"C31S20A47E4B5RLURIA0961, C31S20A47E4B5RLURIA0962, C31S20A47E4B5RLURIA0963, C31S20A47E4B5RLUUNI0993, C31S20A47E4B5RLURIA2222",False,-117.41709,34.16247
KUCERA MIDDLE SCHOOL,2140 W BUENA VISTA DR RIALTO CA 92377,True,"C31S20A47E4B5RLURIA0961, C31S20A47E4B5RLURIA0962, C31S20A47E4B5RLURIA0963, C31S20A47E4B5RLUUNI0993, C31S20A47E4B5RLURIA2222",False,-117.41709,34.16247
LION CENTER (WEST),9161 BASELINE RD RANCHO CUCAMONGA CA 91701,True,"C31S23A40E1B2CUHRC11061, C31S23A40E1B2CUHRC21062, C31S23A40E1B2CUHRC11063, C31S23A40E1B2CUHRC21072, C31S23A40E1B2CUHRC21573, C31S23A40E1B2CUHRC21853, C31S23A40E1B2CUHRC21967, C31S23A40E1B2CUHRC21968, C31S23A40E1B2CUHRC12140, C31S23A40E1B2CUHRC22142, C31S23A40E1B2CUHRC22147",False,-117.60511,34.12104
LION CENTER (WEST),9161 BASELINE RD RANCHO CUCAMONGA CA 91701,False,"C31S23A40E1B2CUHRC21072, C31S23A40E1B2CUHRC11061, C31S23A40E1B2CUHRC21062, C31S23A40E1B2CUHRC11063, C31S23A40E1B2CUHRC21573, C31S23A40E1B2CUHRC21853, C31S23A40E1B2CUHRC21968, C31S23A40E1B2CUHRC21967, C31S23A40E1B2CUHRC22147, C31S23A40E1B2CUHRC12140, C31S23A40E1B2CUHRC22142",False,-117.60511,34.12104
LITTLE LEAGUE HEADQUARTERS,6707 LITTLE LEAGUE DR SAN BERNARDINO CA 92407,False,"C31S23A40E1B2SBUSB51085, C31S23A40E1B5SBUSB51087, C31S23A40E1B5SBUSB51088, C31S23A40E1B5SBUSB51089",False,-117.36789,34.20325
LITTLE LEAGUE HEADQUARTERS,6707 LITTLE LEAGUE DR SAN BERNARDINO CA 92407,True,"C31S23A40E1B2SBUSB51085, C31S23A40E1B5SBUSB51087, C31S23A40E1B5SBUSB51088, C31S23A40E1B5SBUSB51089",False,-117.36789,34.20325
LIVING WORD ASSEMBLY,11887 TELEPHONE AVE CHINO CA 91710,False,"C35S20A52E1B4CVUCN11487, C35S20A52E1B4CVUCN21488, C35S20A52E1B4CVUCN21489",False,-117.6933,34.03743
LIVING WORD ASSEMBLY,11887 TELEPHONE AVE CHINO CA 91710,True,"C35S20A52E1B4CVUCN11487, C35S20A52E1B4CVUCN21488, C35S20A52E1B4CVUCN21489",False,-117.6933,34.03743
LOS OSOS HIGH SCHOOL,6001 MILLIKEN AVE RANCHO CUCAMONGA CA 91737,False,"C31S23A40E1B2CUHRC41035, C31S23A40E1B2CUHRC41053, C31S23A40E1B2CUHRC41054, C31S23A40E1B2CUHRC41735, C31S23A40E1B2CUHRC41742, C31S23A40E1B2CUHRC42156, C31S23A40E1B2CUHRC42157",False,-117.55549,34.14528
LOS OSOS HIGH SCHOOL,6001 MILLIKEN AVE RANCHO CUCAMONGA CA 91737,True,"C31S23A40E1B2CUHRC41035, C31S23A40E1B2CUHRC41053, C31S23A40E1B2CUHRC41054, C31S23A40E1B2CUHRC41735, C31S23A40E1B2CUHRC41742, C31S23A40E1B2CUHRC42156, C31S23A40E1B2CUHRC42157",False,-117.55549,34.14528
LUCERNE VALLEY COMMUNITY CENTER,33187 OLD WOMAN SPRINGS RD LUCERNE VALLEY CA 92356,False,"C08S16A33E1B3LVUUNI0155, C08S16A33E1B3LVUUNI0157",False,-116.93959,34.4436
LUCERNE VALLEY COMMUNITY CENTER,33187 OLD WOMAN SPRINGS RD LUCERNE VALLEY CA 92356,True,"C08S16A33E1B3LVUUNI0155, C08S16A33E1B3LVUUNI0157",False,-116.93959,34.4436
LUQUE COMMUNITY CENTER,292 E O ST COLTON CA 92324,False,"C31S20A47E4B3CJUCO60903, C31S20A47E4B3CJUCO60904, C31S20A47E4B5CJUCO60937, C31S20A47E4B5CJUCO60938, C31S20A47E4B5CJUCO60939, C31S20A47E4B5CJUCO10923, C31S20A47E4B5CJUCO10924, C31S20A47E4B5CJUCO10925, C31S20A47E4B5CJUCO10926, C31S20A47E4B5CJUCO40934, C31S20A47E4B5CJUCO60936, C31S20A47E4B5CJUUNI0949, C31S20A47E4B5CJUUNI0950, C31S20A47E4B5CJUUNI0951, C31S20A47E4B5RLUUNI0991, C31S20A47E4B5CJUCO62232",False,-117.32196,34.05848
LUQUE COMMUNITY CENTER,292 E O ST COLTON CA 92324,True,"C31S20A47E4B3CJUCO60903, C31S20A47E4B3CJUCO60904, C31S20A47E4B5CJUCO60937, C31S20A47E4B5CJUCO60938, C31S20A47E4B5CJUCO60939, C31S20A47E4B5CJUCO10923, C31S20A47E4B5CJUCO10924, C31S20A47E4B5CJUCO10925, C31S20A47E4B5CJUCO10926, C31S20A47E4B5CJUCO40934, C31S20A47E4B5CJUCO60936, C31S20A47E4B5CJUUNI0949, C31S20A47E4B5CJUUNI0950, C31S20A47E4B5CJUUNI0951, C31S20A47E4B5RLUUNI0991, C31S20A47E4B5CJUCO62232",False,-117.32196,34.05848
LYTLE CREEK COMMUNITY CENTER,14082 CENTER RD LYTLE CREEK CA 92358,False,C08S23A40E1B2RLUUNI0691,False,-117.4971,34.26118
LYTLE CREEK COMMUNITY CENTER,14082 CENTER RD LYTLE CREEK CA 92358,True,C08S23A40E1B2RLUUNI0691,False,-117.4971,34.26118
MAGNOLIA RECREATION CENTER,651 W 15TH ST UPLAND CA 91786,False,"C27S25A41E1B2UPUUP20850, C27S25A41E1B2UPUUP10851, C27S25A41E1B2UPUUP10852, C27S25A41E1B2UPUUP20855, C31S25A41E1B2UPUUP21276, C31S25A41E1B2UPUUP41282",False,-117.65854,34.11811
MAGNOLIA RECREATION CENTER,651 W 15TH ST UPLAND CA 91786,True,"C27S25A41E1B2UPUUP20850, C27S25A41E1B2UPUUP10851, C27S25A41E1B2UPUUP10852, C27S25A41E1B2UPUUP20855, C31S25A41E1B2UPUUP21276, C31S25A41E1B2UPUUP41282",False,-117.65854,34.11811
MANUEL A. SALINAS CREATIVE ARTS ELEMENTARY,2699 N CALIFORNIA ST SAN BERNARDINO CA 92407,False,"C31S20A47E4B5RLUSB60986, C31S20A47E4B5SBUSB61018, C31S20A47E4B5SBUSB61020, C31S20A47E4B5SBUUNI1025, C31S23A40E4B5SBUSB61249",False,-117.32991,34.14054
MANUEL A. SALINAS CREATIVE ARTS ELEMENTARY,2699 N CALIFORNIA ST SAN BERNARDINO CA 92407,True,"C31S20A47E4B5RLUSB60986, C31S20A47E4B5SBUSB61018, C31S20A47E4B5SBUSB61020, C31S20A47E4B5SBUUNI1025, C31S23A40E4B5SBUSB61249",False,-117.32991,34.14054
MAPLE ELEMENTARY SCHOOL (HESPERIA),10616 MAPLE AVE HESPERIA CA 92345,False,"C08S21A33E1B1HPUHE12014, C08S21A33E1B1HPUHE12015, C08S21A33E1B1HPUHE12016, C08S21A33E1B1HPUHE10329, C08S21A33E1B1HPUHE20330, C08S21A33E1B1HPUHE10333, C08S21A33E1B1HPUHE20336",False,-117.34859,34.44268
MAPLE ELEMENTARY SCHOOL (HESPERIA),10616 MAPLE AVE HESPERIA CA 92345,True,"C08S21A33E1B1HPUHE12014, C08S21A33E1B1HPUHE12015, C08S21A33E1B1HPUHE12016, C08S21A33E1B1HPUHE10329, C08S21A33E1B1HPUHE20330, C08S21A33E1B1HPUHE10333, C08S21A33E1B1HPUHE20336",False,-117.34859,34.44268
MARIANA RANCHOS COUNTY WATER DISTRICT,9600 MANZANITA ST APPLE VALLEY CA 92308,False,"C08S16A33E1B1AVUUNI0016, C08S16A33E1B1AVUUNI0017, C08S16A33E1B1AVUUNI1980, C08S16A33E1B1AVUUNI1981, C08S16A33E1B1AVUUNI2191",False,-117.20558,34.42587
MARIANA RANCHOS COUNTY WATER DISTRICT,9600 MANZANITA ST APPLE VALLEY CA 92308,True,"C08S16A33E1B1AVUUNI0016, C08S16A33E1B1AVUUNI0017, C08S16A33E1B1AVUUNI1980, C08S16A33E1B1AVUUNI1981, C08S16A33E1B1AVUUNI2191",False,-117.20558,34.42587
MARIPOSA LODGE,19311 JESS RANCH PKWY APPLE VALLEY CA 92308,False,"C08S21A33E1B1AVUAP20320, C08S21A33E1B1AVUAP40321",False,-117.24093,34.45904
MARIPOSA LODGE,19311 JESS RANCH PKWY APPLE VALLEY CA 92308,True,"C08S21A33E1B1AVUAP20320, C08S21A33E1B1AVUAP40321",False,-117.24093,34.45904
MASONIC CENTER (YUCAIPA),13669 CALIFORNIA ST YUCAIPA CA 92399,False,"C08S23A42E4B3YCUYU50814, C08S23A42E4B3YCUYU50816, C08S23A42E4B3YCUYU50818, C08S23A42E4B3YCUYU50820, C08S23A42E4B3YCUYU50830, C08S23A42E4B3YCUYU31777, C08S23A42E4B3YCUYU31778, C08S23A42E4B3YCUYU52098",False,-117.03825,34.0054
MASONIC CENTER (YUCAIPA),13669 CALIFORNIA ST YUCAIPA CA 92399,True,"C08S23A42E4B3YCUYU50814, C08S23A42E4B3YCUYU50816, C08S23A42E4B3YCUYU50818, C08S23A42E4B3YCUYU50820, C08S23A42E4B3YCUYU50830, C08S23A42E4B3YCUYU31777, C08S23A42E4B3YCUYU31778, C08S23A42E4B3YCUYU52098",False,-117.03825,34.0054
MCCOY EQUESTRIAN AND RECREATION CENTER,14280 PEYTON DR CHINO HILLS CA 91709,False,"C39S29A55E3B4CVUCH11538, C39S29A55E3B4CVUCH31539, C39S29A55E3B4CVUCH31552, C39S29A55E3B4CVUCH21556, C39S29A55E3B4CVUCH21557, C39S29A55E3B4CVUCH11558, C39S29A55E3B4CVUCH21845, C39S29A55E3B4CVUCH51847",False,-117.73399,33.99402
MCCOY EQUESTRIAN AND RECREATION CENTER,14280 PEYTON DR CHINO HILLS CA 91709,True,"C39S29A55E3B4CVUCH11538, C39S29A55E3B4CVUCH31539, C39S29A55E3B4CVUCH31552, C39S29A55E3B4CVUCH21556, C39S29A55E3B4CVUCH21557, C39S29A55E3B4CVUCH11558, C39S29A55E3B4CVUCH21845, C39S29A55E3B4CVUCH51847",False,-117.73399,33.99402
MICHAEL G WICKMAN ELEMENTARY,16250 PINEHURST DR CHINO HILLS CA 91709,False,"C39S29A55E3B4CVUCH51550, C39S29A55E3B4CVUCH41551",False,-117.71218,33.95898
MICHAEL G WICKMAN ELEMENTARY,16250 PINEHURST DR CHINO HILLS CA 91709,True,"C39S29A55E3B4CVUCH51550, C39S29A55E3B4CVUCH41551",False,-117.71218,33.95898
MISSION ELEMENTARY SCHOOL,5555 HOWARD ST ONTARIO CA 91762,False,"C35S20A52E1B4CUHONT1421, C35S20A52E1B4CUHONT1422, C35S20A52E1B4CUHONT1423, C35S20A52E1B4CUHONT1429, C35S20A52E1B4CUHUNI1459, C35S20A52E1B4CUHONT1841, C35S20A52E1B4CUHONT1955",False,-117.68305,34.05142
MISSION ELEMENTARY SCHOOL,5555 HOWARD ST ONTARIO CA 91762,True,"C35S20A52E1B4CUHONT1421, C35S20A52E1B4CUHONT1422, C35S20A52E1B4CUHONT1423, C35S20A52E1B4CUHONT1429, C35S20A52E1B4CUHUNI1459, C35S20A52E1B4CUHONT1841, C35S20A52E1B4CUHONT1955",False,-117.68305,34.05142
MISSION ELEMENTARY SCHOOL (REDLANDS),10568 CALIFORNIA ST REDLANDS CA 92373,False,"C31S23A40E4B3CJULOM1091, C31S23A40E4B3RDULOM1095, C31S23A40E4B3RDULOM1096, C31S23A40E4B3RDULOM1097, C31S23A40E4B3RDULOM1098, C31S23A40E4B3RDULOM1099, C31S23A40E4B3RDULOM1151, C31S23A40E4B3RDULOM1998",False,-117.2273,34.06185
MISSION ELEMENTARY SCHOOL (REDLANDS),10568 CALIFORNIA ST REDLANDS CA 92373,True,"C31S23A40E4B3CJULOM1091, C31S23A40E4B3RDULOM1095, C31S23A40E4B3RDULOM1096, C31S23A40E4B3RDULOM1097, C31S23A40E4B3RDULOM1098, C31S23A40E4B3RDULOM1099, C31S23A40E4B3RDULOM1151, C31S23A40E4B3RDULOM1998",False,-117.2273,34.06185
MOJAVE VISTA ELEMENTARY SCHOOL,16100 BURWOOD RD VICTORVILLE CA 92395,False,"C08S21A33E1B1VUHVIC0454, C08S21A33E1B1VUHVIC0455, C08S21A33E1B1VUHVIC0456, C08S21A33E1B1VUHVIC0457, C08S21A33E1B1VUHVIC0458, C08S21A33E1B1VUHVIC0459, C08S21A33E1B1VUHVIC1821",False,-117.31199,34.48044
MOJAVE VISTA ELEMENTARY SCHOOL,16100 BURWOOD RD VICTORVILLE CA 92395,True,"C08S21A33E1B1VUHVIC0454, C08S21A33E1B1VUHVIC0455, C08S21A33E1B1VUHVIC0456, C08S21A33E1B1VUHVIC0457, C08S21A33E1B1VUHVIC0458, C08S21A33E1B1VUHVIC0459, C08S21A33E1B1VUHVIC1821",False,-117.31199,34.48044
MONTERA SCHOOL,4825 BANDERA ST MONTCLAIR CA 91763,False,"C35S20A52E1B4CUHMON1390, C35S20A52E1B4CUHMON1394, C35S20A52E1B4CUHMON1396",False,-117.69958,34.06381
MONTERA SCHOOL,4825 BANDERA ST MONTCLAIR CA 91763,True,"C35S20A52E1B4CUHMON1390, C35S20A52E1B4CUHMON1394, C35S20A52E1B4CUHMON1396",False,-117.69958,34.06381
MOOSE LODGE #1335,2139 MENTONE BLVD MENTONE CA 92359,False,"C08S23A42E4B3RDUUNI0769, C08S23A40E4B3RDUUNI0736, C31S23A40E4B3RDUUNI1143, C31S23A40E4B3RDURE31130, C31S23A40E4B3RDURE31131, C31S23A40E4B3RDURE31133, C31S23A42E4B3RDUUNI1274, C31S23A42E4B3RDURE31273, C31S23A40E4B3RDUUNI1666, C08S23A42E4B3RDUUNI1627, C08S23A42E4B3RDURE31824, C08S23A42E4B3RDURE31856, C31S23A40E4B3RDUUNI2009, C31S23A40E4B3RDUUNI2189",False,-117.11833,34.07067
MOOSE LODGE #1335,2139 MENTONE BLVD MENTONE CA 92359,True,"C08S23A42E4B3RDUUNI0769, C08S23A40E4B3RDUUNI0736, C31S23A40E4B3RDUUNI1143, C31S23A40E4B3RDURE31130, C31S23A40E4B3RDURE31131, C31S23A40E4B3RDURE31133, C31S23A42E4B3RDUUNI1274, C31S23A42E4B3RDURE31273, C31S23A40E4B3RDUUNI1666, C08S23A42E4B3RDUUNI1627, C08S23A42E4B3RDURE31824, C08S23A42E4B3RDURE31856, C31S23A40E4B3RDUUNI2009, C31S23A40E4B3RDUUNI2189",False,-117.11833,34.07067
MORENO ELEMENTARY SCHOOL,4825 MORENO ST MONTCLAIR CA 91763,False,"C35S20A52E1B4CUHMON1389, C35S20A52E1B4UPUMON1521, C35S20A52E1B4CUHMON1840",False,-117.7013,34.0881
MORENO ELEMENTARY SCHOOL,4825 MORENO ST MONTCLAIR CA 91763,True,"C35S20A52E1B4CUHMON1389, C35S20A52E1B4UPUMON1521, C35S20A52E1B4CUHMON1840",False,-117.7013,34.0881
MOUNTAIN COMMUNITIES SENIOR CENTER,675 GRANDVIEW RD TWIN PEAKS CA 92391,False,"C08S23A33E1B2RWUUNI0519, C08S23A33E1B2RWUUNI0523, C08S23A33E1B2RWUUNI0524, C08S23A33E1B2RWUUNI0525, C08S23A33E1B2RWUUNI0526, C08S23A33E1B2RWUUNI0527, C08S23A33E1B2RWUUNI0529, C08S23A33E1B2RWUUNI0530, C08S23A33E1B2RWUUNI1616, C08S23A33E1B2RWUUNI1939, C08S23A33E1B2RWUUNI1940, C08S23A33E1B2RWUUNI1941, C08S23A33E1B2RWUUNI1942, C08S23A33E1B2RWUUNI1943, C08S23A33E1B2RWUUNI1944, C08S23A33E1B2RWUUNI1945, C08S23A33E1B2RWUUNI2298, C08S23A33E1B2RWUUNI2297, C08S23A33E1B2RWUUNI2299, C08S23A33E1B2RWUUNI2318, C08S23A33E1B2RWUUNI2319, C08S23A33E1B2RWUUNI2320, C08S23A33E1B2RWUUNI2321, C08S23A33E1B2RWUUNI2326",False,-117.23789,34.241
MOUNTAIN COMMUNITIES SENIOR CENTER,675 GRANDVIEW RD TWIN PEAKS CA 92391,True,"C08S23A33E1B2RWUUNI0519, C08S23A33E1B2RWUUNI0523, C08S23A33E1B2RWUUNI0524, C08S23A33E1B2RWUUNI0525, C08S23A33E1B2RWUUNI0526, C08S23A33E1B2RWUUNI0527, C08S23A33E1B2RWUUNI0529, C08S23A33E1B2RWUUNI0530, C08S23A33E1B2RWUUNI1616, C08S23A33E1B2RWUUNI1939, C08S23A33E1B2RWUUNI1940, C08S23A33E1B2RWUUNI1941, C08S23A33E1B2RWUUNI1942, C08S23A33E1B2RWUUNI1943, C08S23A33E1B2RWUUNI1944, C08S23A33E1B2RWUUNI1945, C08S23A33E1B2RWUUNI2298, C08S23A33E1B2RWUUNI2297, C08S23A33E1B2RWUUNI2299, C08S23A33E1B2RWUUNI2318, C08S23A33E1B2RWUUNI2319, C08S23A33E1B2RWUUNI2320, C08S23A33E1B2RWUUNI2321, C08S23A33E1B2RWUUNI2326",False,-117.23789,34.241
MOUNTAIN VIEW ELEMENTARY,2825 E WALNUT ST ONTARIO CA 91761,False,"C35S20A52E1B4CUHONT1441, C35S20A52E1B4CUHONT1442, C35S20A52E1B4CUHONT1730, C35S20A52E1B4CUHONT1731",False,-117.59115,34.0269
MOUNTAIN VIEW ELEMENTARY,2825 E WALNUT ST ONTARIO CA 91761,True,"C35S20A52E1B4CUHONT1441, C35S20A52E1B4CUHONT1442, C35S20A52E1B4CUHONT1730, C35S20A52E1B4CUHONT1731",False,-117.59115,34.0269
MT BALDY VILLAGE CHURCH,6757 BEAR CANYON RD MT BALDY CA 91759,False,"C08S23A40E1B2CUHUNI0688, C08S25A41E1B2CUHUNI0834",False,-117.65854,34.23773
MT BALDY VILLAGE CHURCH,6757 BEAR CANYON RD MT BALDY CA 91759,True,"C08S23A40E1B2CUHUNI0688, C08S25A41E1B2CUHUNI0834",False,-117.65854,34.23773
MUSCOY ELEMENTARY,2119 BLAKE ST SAN BERNARDINO CA 92407,False,"C31S20A47E1B5SBUUNI0879, C31S20A47E1B5SBUUNI0880, C31S20A47E4B5SBUUNI1022, C31S20A47E4B5SBUUNI1024, C31S20A47E4B5SBUUNI1026",False,-117.3403,34.15012
MUSCOY ELEMENTARY,2119 BLAKE ST SAN BERNARDINO CA 92407,True,"C31S20A47E1B5SBUUNI0879, C31S20A47E1B5SBUUNI0880, C31S20A47E4B5SBUUNI1022, C31S20A47E4B5SBUUNI1024, C31S20A47E4B5SBUUNI1026",False,-117.3403,34.15012
Maple Elementary School,751 S MAPLE AVE FONTANA CA 92335,False,"C35S20A47E4B5CJURIA1344, C35S20A47E4B5CJURIA1345, C35S20A47E4B5CJURIA1346, C35S20A47E4B5CJURIA1347, C35S20A47E4B5CJUUNI1348, C35S20A47E4B5CJUUNI1349, C35S20A47E4B5CJUUNI1350, C35S20A47E4B5CJUUNI1351, C35S20A47E4B5FNURIA1372, C35S20A47E4B5FNURIA1373, C35S20A47E4B5CJURIA1640, C35S20A47E4B5CJURIA1641, C35S20A47E4B5CJUUNI2229, C35S20A47E4B5CJUUNI2230",False,-117.40482,34.08815
Maple Elementary School,751 S MAPLE AVE FONTANA CA 92335,True,"C35S20A47E4B5CJURIA1344, C35S20A47E4B5CJURIA1345, C35S20A47E4B5CJURIA1346, C35S20A47E4B5CJURIA1347, C35S20A47E4B5CJUUNI1348, C35S20A47E4B5CJUUNI1349, C35S20A47E4B5CJUUNI1350, C35S20A47E4B5CJUUNI1351, C35S20A47E4B5FNURIA1372, C35S20A47E4B5FNURIA1373, C35S20A47E4B5CJURIA1640, C35S20A47E4B5CJURIA1641, C35S20A47E4B5CJUUNI2229, C35S20A47E4B5CJUUNI2230",False,-117.40482,34.08815
NAZARENE CHURCH,12935 CENTRAL RD APPLE VALLEY CA 92308,False,C08S21A33E1B1AVUAP50319,False,-117.17215,34.48712
NAZARENE CHURCH,12935 CENTRAL RD APPLE VALLEY CA 92308,True,C08S21A33E1B1AVUAP50319,False,-117.17215,34.48712
NEW BEGINNINGS UNITED METHODIST,785 N ARROWHEAD AVE SAN BERNARDINO CA 92401,False,"C31S20A47E4B5SBUSB11006, C31S20A47E4B5SBUSB21007, C31S23A40E4B5SBUSB11216",False,-117.28901,34.11372
NEW BEGINNINGS UNITED METHODIST,785 N ARROWHEAD AVE SAN BERNARDINO CA 92401,True,"C31S20A47E4B5SBUSB11006, C31S20A47E4B5SBUSB21007, C31S23A40E4B5SBUSB11216",False,-117.28901,34.11372
NEW HOPE COMMUNITY CHURCH,12345 NAVAJO RD APPLE VALLEY CA 92308,False,"C08S21A33E1B1AVUAP30317, C08S21A33E1B1AVUAP41988, C08S21A33E1B1AVUAP42262, C08S21A33E1B1AVUAP42263, C08S21A33E1B1AVUAP42264",False,-117.18984,34.47555
NEW HOPE COMMUNITY CHURCH,12345 NAVAJO RD APPLE VALLEY CA 92308,True,"C08S21A33E1B1AVUAP30317, C08S21A33E1B1AVUAP41988, C08S21A33E1B1AVUAP42262, C08S21A33E1B1AVUAP42263, C08S21A33E1B1AVUAP42264",False,-117.18984,34.47555
NEW HOPE FAMILY LIFE CENTER,1505 W HIGHLAND AVE SAN BERNARDINO CA 92411,False,"C31S23A40E4B5SBUSB11215, C31S23A40E4B5SBUSB61250, C31S23A40E4B5SBUSB61253, C31S23A40E4B5SBUSB61663",False,-117.31858,34.13543
NEW HOPE FAMILY LIFE CENTER,1505 W HIGHLAND AVE SAN BERNARDINO CA 92411,True,"C31S23A40E4B5SBUSB11215, C31S23A40E4B5SBUSB61250, C31S23A40E4B5SBUSB61253, C31S23A40E4B5SBUSB61663",False,-117.31858,34.13543
NEWMARK ELEMENTARY,4121 N 3RD AVE SAN BERNARDINO CA 92407,False,C31S23A40E4B5SBUUNI1258,False,-117.30458,34.16881
NEWMARK ELEMENTARY,4121 N 3RD AVE SAN BERNARDINO CA 92407,True,C31S23A40E4B5SBUUNI1258,False,-117.30458,34.16881
NORTHKIRK PRESBYTERIAN CHURCH,9101 19TH ST RANCHO CUCAMONGA CA 91701,False,"C31S23A40E1B2CUHRC11031, C31S23A40E1B2CUHRC11969, C31S23A40E1B2CUHRC12177",False,-117.60658,34.132
NORTHKIRK PRESBYTERIAN CHURCH,9101 19TH ST RANCHO CUCAMONGA CA 91701,True,"C31S23A40E1B2CUHRC11031, C31S23A40E1B2CUHRC11969, C31S23A40E1B2CUHRC12177",False,-117.60658,34.132
NOVACK COMMUNITY CENTER,13558 PALM ST HESPERIA CA 92344,False,"C08S21A33E1B1HPUHE12018, C08S21A33E1B1HPUHE52019, C08S21A33E1B1HPUHE12020, C08S21A33E1B1HPUUNI2021, C08S21A33E1B1HPUUNI2022, C08S21A33E1B1HPUHE10341, C08S21A33E1B1HPUHE10342, C08S21A33E1B1HPUHE50344, C08S21A33E1B1HPUUNI0363, C08S21A33E1B1HPUUNI0364, C08S21A33E1B1HPUHE41606",False,-117.36817,34.40904
NOVACK COMMUNITY CENTER,13558 PALM ST HESPERIA CA 92344,True,"C08S21A33E1B1HPUHE12018, C08S21A33E1B1HPUHE52019, C08S21A33E1B1HPUHE12020, C08S21A33E1B1HPUUNI2021, C08S21A33E1B1HPUUNI2022, C08S21A33E1B1HPUHE10341, C08S21A33E1B1HPUHE10342, C08S21A33E1B1HPUHE50344, C08S21A33E1B1HPUUNI0363, C08S21A33E1B1HPUUNI0364, C08S21A33E1B1HPUHE41606",False,-117.36817,34.40904
OAK RIDGE ELEMENTARY SCHOOL,15452 VALLE VISTA DR CHINO HILLS CA 91709,False,"C39S29A55E3B4CVUCH31553, C39S29A55E3B4CVUCH31554, C39S29A55E3B4CVUCH11560",False,-117.74075,33.97435
OAK RIDGE ELEMENTARY SCHOOL,15452 VALLE VISTA DR CHINO HILLS CA 91709,True,"C39S29A55E3B4CVUCH31553, C39S29A55E3B4CVUCH31554, C39S29A55E3B4CVUCH11560",False,-117.74075,33.97435
OLEANDER ELEMENTARY SCHOOL,8650 OLEANDER AVE FONTANA CA 92335,False,"C35S20A47E4B2FNUFO21311, C35S20A47E4B2FNUFO21312",False,-117.45052,34.09652
OLEANDER ELEMENTARY SCHOOL,8650 OLEANDER AVE FONTANA CA 92335,True,"C35S20A47E4B2FNUFO21311, C35S20A47E4B2FNUFO21312",False,-117.45052,34.09652
OUR LADY OF HOPE PARISH,6885 DEL ROSA AVE SAN BERNARDINO CA 92404,False,"C31S23A40E4B3SBUSB21169, C31S23A40E4B3SBUSB71192, C31S23A40E4B3SBUSB71190, C31S23A40E4B3SBUSB71191, C31S23A40E4B3SBUSB71196, C31S23A40E4B3SBUSB71195, C31S23A40E4B3SBUSB71198, C31S23A40E4B3SBUUNI1204, C31S23A40E4B5SBUSB71256, C31S23A40E4B3SBUUNI1638, C31S23A40E4B3SBUSB71670, C31S23A40E4B3SBUSB71671",False,-117.24995,34.12931
OUR LADY OF HOPE PARISH,6885 DEL ROSA AVE SAN BERNARDINO CA 92404,True,"C31S23A40E4B3SBUSB21169, C31S23A40E4B3SBUSB71192, C31S23A40E4B3SBUSB71190, C31S23A40E4B3SBUSB71191, C31S23A40E4B3SBUSB71196, C31S23A40E4B3SBUSB71195, C31S23A40E4B3SBUSB71198, C31S23A40E4B3SBUUNI1204, C31S23A40E4B5SBUSB71256, C31S23A40E4B3SBUUNI1638, C31S23A40E4B3SBUSB71670, C31S23A40E4B3SBUSB71671",False,-117.24995,34.12931
OUR LADY OF LOURDES CATHOLIC CHURCH,10191 CENTRAL AVE MONTCLAIR CA 91763,False,"C35S20A52E1B4CUHMON1391, C35S20A52E1B4CUHMON1392, C35S20A52E1B4CUHMON1393, C35S20A52E1B4CUHMON1395",False,-117.68881,34.06969
OUR LADY OF LOURDES CATHOLIC CHURCH,10191 CENTRAL AVE MONTCLAIR CA 91763,True,"C35S20A52E1B4CUHMON1391, C35S20A52E1B4CUHMON1392, C35S20A52E1B4CUHMON1393, C35S20A52E1B4CUHMON1395",False,-117.68881,34.06969
PAAKUMA' K8,17825 SYCAMORE CREEK LOOP PKWY SAN BERNARDINO CA 92407,False,"C31S20A47E1B5RLUUNI0869, C31S20A47E1B5SBUUNI0877",False,-117.41718,34.18824
PAAKUMA' K8,17825 SYCAMORE CREEK LOOP PKWY SAN BERNARDINO CA 92407,True,"C31S20A47E1B5RLUUNI0869, C31S20A47E1B5SBUUNI0877",False,-117.41718,34.18824
PALMETTO ELEMENTARY SCHOOL,9325 PALMETTO AVE FONTANA CA 92335,False,"C35S20A47E4B5CJUFO31329, C35S20A47E4B5CJUFO31330, C35S20A47E4B5CJUFO41331, C35S20A47E4B5CJUFO31332, C35S20A47E4B5CJUFO41333, C35S20A47E4B5FNUFO31369, C35S20A47E4B5FNUFO31370, C35S20A47E4B5CJUFO31831",False,-117.42668,34.08454
PALMETTO ELEMENTARY SCHOOL,9325 PALMETTO AVE FONTANA CA 92335,True,"C35S20A47E4B5CJUFO31329, C35S20A47E4B5CJUFO31330, C35S20A47E4B5CJUFO41331, C35S20A47E4B5CJUFO31332, C35S20A47E4B5CJUFO41333, C35S20A47E4B5FNUFO31369, C35S20A47E4B5FNUFO31370, C35S20A47E4B5CJUFO31831",False,-117.42668,34.08454
PILGRIM PINES CAMP,39570 GLEN RD YUCAIPA CA 92399,False,C08S23A42E4B3YCUUNI0785,False,-116.94297,34.04936
PILGRIM PINES CAMP,39570 GLEN RD YUCAIPA CA 92399,True,C08S23A42E4B3YCUUNI0785,False,-116.94297,34.04936
PORTER ELEMENTARY SCHOOL,8330 LOCUST AVE FONTANA CA 92335,False,"C35S20A47E4B5FNUFO31363, C35S20A47E4B5FNUFO31364",False,-117.40974,34.10257
PORTER ELEMENTARY SCHOOL,8330 LOCUST AVE FONTANA CA 92335,True,"C35S20A47E4B5FNUFO31363, C35S20A47E4B5FNUFO31364",False,-117.40974,34.10257
POWER PLAY CENTER,10770 I AVE HESPERIA CA 92345,False,"C08S21A33E1B1HPUHE22023, C08S21A33E1B1HPUHE30331, C08S21A33E1B1HPUHE30332, C08S21A33E1B1HPUHE30339",False,-117.27781,34.44685
POWER PLAY CENTER,10770 I AVE HESPERIA CA 92345,True,"C08S21A33E1B1HPUHE22023, C08S21A33E1B1HPUHE30331, C08S21A33E1B1HPUHE30332, C08S21A33E1B1HPUHE30339",False,-117.27781,34.44685
RANCHO CUCAMONGA HIGH SCHOOL,11801 LARK DR RANCHO CUCAMONGA CA 91701,False,"C31S23A40E1B2CUHRC31043, C31S23A40E1B2CUHRC31046, C31S23A40E1B2CUHRC31047, C31S23A40E1B2CUHRC31048, C31S23A40E1B2CUHRC31049, C31S23A40E1B2CUHRC32168",False,-117.54738,34.13066
RANCHO CUCAMONGA HIGH SCHOOL,11801 LARK DR RANCHO CUCAMONGA CA 91701,True,"C31S23A40E1B2CUHRC31043, C31S23A40E1B2CUHRC31046, C31S23A40E1B2CUHRC31047, C31S23A40E1B2CUHRC31048, C31S23A40E1B2CUHRC31049, C31S23A40E1B2CUHRC32168",False,-117.54738,34.13066
RANDALL PEPPER ELEMENTARY SCHOOL,16613 RANDALL AVE FONTANA CA 92335,False,"C35S20A47E4B2FNUFO21319, C35S20A47E4B5FNUFO31366, C35S20A47E4B5FNUFO31367, C35S20A47E4B5FNUFO31368",False,-117.443,34.0837
RANDALL PEPPER ELEMENTARY SCHOOL,16613 RANDALL AVE FONTANA CA 92335,True,"C35S20A47E4B2FNUFO21319, C35S20A47E4B5FNUFO31366, C35S20A47E4B5FNUFO31367, C35S20A47E4B5FNUFO31368",False,-117.443,34.0837
RECHE CANYON ELEMENTARY SCHOOL,3101 CANYON VISTA DR COLTON CA 92324,False,"C31S20A47E4B3CJUCO50894, C31S20A47E4B3CJUCO50895, C31S20A47E4B3CJUCO50896, C31S20A47E4B3CJUCO50897, C31S20A47E4B3CJUCO50898, C31S20A47E4B3CJUCO50899, C31S20A47E4B3CJUCO50900, C31S20A47E4B3CJUCO50901, C31S20A47E4B3CJUCO50902, C31S20A47E4B3CJUUNI0915, C31S20A47E4B3CJUUNI0917, C31S20A47E4B3CJUUNI0918",False,-117.27424,34.0387
RECHE CANYON ELEMENTARY SCHOOL,3101 CANYON VISTA DR COLTON CA 92324,True,"C31S20A47E4B3CJUCO50894, C31S20A47E4B3CJUCO50895, C31S20A47E4B3CJUCO50896, C31S20A47E4B3CJUCO50897, C31S20A47E4B3CJUCO50898, C31S20A47E4B3CJUCO50899, C31S20A47E4B3CJUCO50900, C31S20A47E4B3CJUCO50901, C31S20A47E4B3CJUCO50902, C31S20A47E4B3CJUUNI0915, C31S20A47E4B3CJUUNI0917, C31S20A47E4B3CJUUNI0918",False,-117.27424,34.0387
REDEEMER LUTHERAN CHURCH,920 W 6TH ST ONTARIO CA 91762,False,"C35S20A52E1B4CUHONT1398, C35S20A52E1B4CUHONT1399, C35S20A52E1B4CUHONT1401, C35S20A52E1B4CUHONT1404",False,-117.66626,34.08562
REDEEMER LUTHERAN CHURCH,920 W 6TH ST ONTARIO CA 91762,True,"C35S20A52E1B4CUHONT1398, C35S20A52E1B4CUHONT1399, C35S20A52E1B4CUHONT1401, C35S20A52E1B4CUHONT1404",False,-117.66626,34.08562
REDLANDS COMMUNITY CENTER,111 W LUGONIA AVE REDLANDS CA 92374,False,"C31S23A40E4B3RDURE11103, C31S23A40E4B3RDURE11104, C31S23A40E4B3RDURE21105, C31S23A40E4B3RDURE21106, C31S23A40E4B3RDURE21109, C31S23A40E4B3RDURE21110, C31S23A40E4B3RDURE21119, C31S23A40E4B3RDUUNI1150, C31S23A40E4B3RDUUNI1623, C31S23A40E4B3RDUUNI1624, C31S23A40E4B3RDUUNI2001, C31S23A40E4B3RDURE22005",False,-117.18407,34.06937
REDLANDS COMMUNITY CENTER,111 W LUGONIA AVE REDLANDS CA 92374,True,"C31S23A40E4B3RDURE11103, C31S23A40E4B3RDURE11104, C31S23A40E4B3RDURE21105, C31S23A40E4B3RDURE21106, C31S23A40E4B3RDURE21109, C31S23A40E4B3RDURE21110, C31S23A40E4B3RDURE21119, C31S23A40E4B3RDUUNI1150, C31S23A40E4B3RDUUNI1623, C31S23A40E4B3RDUUNI1624, C31S23A40E4B3RDUUNI2001, C31S23A40E4B3RDURE22005",False,-117.18407,34.06937
REDLANDS UNITED CHURCH OF CHRIST,168 BELLEVUE AVE REDLANDS CA 92373,False,"C31S23A40E4B3RDURE11122, C31S23A40E4B3RDURE51123, C31S23A40E4B3RDURE51124, C31S23A40E4B3RDURE51128, C31S23A40E4B3RDUUNI1152",False,-117.20418,34.04152
REDLANDS UNITED CHURCH OF CHRIST,168 BELLEVUE AVE REDLANDS CA 92373,True,"C31S23A40E4B3RDURE11122, C31S23A40E4B3RDURE51123, C31S23A40E4B3RDURE51124, C31S23A40E4B3RDURE51128, C31S23A40E4B3RDUUNI1152",False,-117.20418,34.04152
RIALTO COMMUNITY CENTER,214 N PALM AVE RIALTO CA 92376,False,"C31S20A47E4B5RLURIA0970, C31S20A47E4B5RLURIA0971, C31S20A47E4B5RLURIA0973, C35S20A47E4B5RLURIA1377, C35S20A47E4B5RLURIA1378",False,-117.37323,34.10197
RIALTO COMMUNITY CENTER,214 N PALM AVE RIALTO CA 92376,True,"C31S20A47E4B5RLURIA0970, C31S20A47E4B5RLURIA0971, C31S20A47E4B5RLURIA0973, C35S20A47E4B5RLURIA1377, C35S20A47E4B5RLURIA1378",False,-117.37323,34.10197
RIALTO HIGH SCHOOL,595 S EUCALYPTUS AVE RIALTO CA 92376,False,"C31S20A47E4B5CJUSB30940, C31S20A47E4B5CJUSB30941, C31S20A47E4B5CJUSB30942, C31S20A47E4B5CJUSB30943, C31S20A47E4B5RLUSB30981, C31S20A47E4B5RLUSB30982, C31S20A47E4B5RLUSB30983, C31S20A47E4B5RLUSB30984, C31S20A47E4B5RLUSB30985, C31S20A47E4B5RLUSB60988",False,-117.35625,34.09142
RIALTO HIGH SCHOOL,595 S EUCALYPTUS AVE RIALTO CA 92376,True,"C31S20A47E4B5CJUSB30940, C31S20A47E4B5CJUSB30941, C31S20A47E4B5CJUSB30942, C31S20A47E4B5CJUSB30943, C31S20A47E4B5RLUSB30981, C31S20A47E4B5RLUSB30982, C31S20A47E4B5RLUSB30983, C31S20A47E4B5RLUSB30984, C31S20A47E4B5RLUSB30985, C31S20A47E4B5RLUSB60988",False,-117.35625,34.09142
RIALTO MIDDLE SCHOOL,1262 W RIALTO AVE RIALTO CA 92376,False,"C31S20A47E4B5FNURIA0953, C31S20A47E4B5RLURIA0975, C31S20A47E4B5RLURIA0976, C35S20A47E4B5FNURIA1374, C35S20A47E4B5RLURIA1379",False,-117.39438,34.10021
RIALTO MIDDLE SCHOOL,1262 W RIALTO AVE RIALTO CA 92376,True,"C31S20A47E4B5FNURIA0953, C31S20A47E4B5RLURIA0975, C31S20A47E4B5RLURIA0976, C35S20A47E4B5FNURIA1374, C35S20A47E4B5RLURIA1379",False,-117.39438,34.10021
SAN BERNARDINO COUNTY FIRE STATION 79,5075 COYOTE CANYON RD FONTANA CA 92336,False,"C31S20A47E4B2CUHFO10881, C31S20A47E4B2CUHFO10882, C31S20A47E4B2CUHFO10883, C31S20A47E4B2CUHFO10884, C31S20A47E4B2FNUFO30887, C31S20A47E4B2FNUFO11827, C31S20A47E4B2FNUFO11828, C31S20A47E4B2CUHFO12162, C31S20A47E4B2CUHFO12163, C31S20A47E4B2CUHFO12169",False,-117.46597,34.16237
SAN BERNARDINO COUNTY FIRE STATION 79,5075 COYOTE CANYON RD FONTANA CA 92336,True,"C31S20A47E4B2CUHFO10881, C31S20A47E4B2CUHFO10882, C31S20A47E4B2CUHFO10883, C31S20A47E4B2CUHFO10884, C31S20A47E4B2FNUFO30887, C31S20A47E4B2FNUFO11827, C31S20A47E4B2FNUFO11828, C31S20A47E4B2CUHFO12162, C31S20A47E4B2CUHFO12163, C31S20A47E4B2CUHFO12169",False,-117.46597,34.16237
SAN BERNARDINO SCOTTISH RITE,4400 N VARSITY AVE SAN BERNARDINO CA 92407,False,"C31S23A40E4B5SBUSB51245, C31S23A40E4B5SBUSB51246, C31S23A40E4B5SBUSB51247, C31S23A40E4B5SBUSB51248",False,-117.33353,34.16642
SAN BERNARDINO SCOTTISH RITE,4400 N VARSITY AVE SAN BERNARDINO CA 92407,True,"C31S23A40E4B5SBUSB51245, C31S23A40E4B5SBUSB51246, C31S23A40E4B5SBUSB51247, C31S23A40E4B5SBUSB51248",False,-117.33353,34.16642
SAN BERNARDINO VALLEY COLLEGE,701 S MOUNT VERNON AVE SAN BERNARDINO CA 92410,False,"C31S20A47E4B5CJUSB30944, C31S20A47E4B5CJUSB30945, C31S20A47E4B5SBUSB31008, C31S20A47E4B5SBUSB31010, C31S20A47E4B5SBUSB31011, C31S20A47E4B5SBUSB31013",False,-117.31295,34.08875
SAN BERNARDINO VALLEY COLLEGE,701 S MOUNT VERNON AVE SAN BERNARDINO CA 92410,True,"C31S20A47E4B5CJUSB30944, C31S20A47E4B5CJUSB30945, C31S20A47E4B5SBUSB31008, C31S20A47E4B5SBUSB31010, C31S20A47E4B5SBUSB31011, C31S20A47E4B5SBUSB31013",False,-117.31295,34.08875
SAN MORITZ LODGE,24640 SAN MORITZ DR CRESTLINE CA 92325,False,"C08S23A33E1B2RWUUNI0558, C08S23A33E1B2RWUUNI0559, C08S23A33E1B2RWUUNI0549, C08S23A33E1B2RWUUNI0551, C08S23A33E1B2RWUUNI0560, C08S23A33E1B2RWUUNI0561, C08S23A33E1B2RWUUNI0562, C08S23A33E1B2RWUUNI0564, C08S23A33E1B2RWUUNI0565, C08S23A33E1B2RWUUNI1586, C08S23A33E1B2RWUUNI1610, C08S23A33E1B2RWUUNI1612, C08S23A33E1B2RWUUNI1613, C08S23A33E1B2RWUUNI1800, C08S23A33E1B2RWUUNI1798, C08S23A33E1B2RWUUNI1796, C08S23A33E1B2RWUUNI1797, C08S23A33E1B2RWUUNI1799, C08S23A33E1B2RWUUNI1802, C08S23A33E1B2RWUUNI1801, C08S23A33E1B2RWUUNI1803, C08S23A33E1B2RWUUNI1804, C08S23A33E1B2RWUUNI1805, C08S23A33E1B2RWUUNI1806, C08S23A33E1B2RWUUNI1807, C08S23A33E1B2RWUUNI2294, C08S23A33E1B2RWUUNI2293, C08S23A33E1B2RWUUNI2314, C08S23A33E1B2RWUUNI2315, C08S23A33E1B2RWUUNI2316, C08S23A33E1B2RWUUNI2317",False,-117.26619,34.23896
SAN MORITZ LODGE,24640 SAN MORITZ DR CRESTLINE CA 92325,True,"C08S23A33E1B2RWUUNI0558, C08S23A33E1B2RWUUNI0559, C08S23A33E1B2RWUUNI0549, C08S23A33E1B2RWUUNI0551, C08S23A33E1B2RWUUNI0560, C08S23A33E1B2RWUUNI0561, C08S23A33E1B2RWUUNI0562, C08S23A33E1B2RWUUNI0564, C08S23A33E1B2RWUUNI0565, C08S23A33E1B2RWUUNI1586, C08S23A33E1B2RWUUNI1610, C08S23A33E1B2RWUUNI1612, C08S23A33E1B2RWUUNI1613, C08S23A33E1B2RWUUNI1800, C08S23A33E1B2RWUUNI1798, C08S23A33E1B2RWUUNI1796, C08S23A33E1B2RWUUNI1797, C08S23A33E1B2RWUUNI1799, C08S23A33E1B2RWUUNI1802, C08S23A33E1B2RWUUNI1801, C08S23A33E1B2RWUUNI1803, C08S23A33E1B2RWUUNI1804, C08S23A33E1B2RWUUNI1805, C08S23A33E1B2RWUUNI1806, C08S23A33E1B2RWUUNI1807, C08S23A33E1B2RWUUNI2294, C08S23A33E1B2RWUUNI2293, C08S23A33E1B2RWUUNI2314, C08S23A33E1B2RWUUNI2315, C08S23A33E1B2RWUUNI2316, C08S23A33E1B2RWUUNI2317",False,-117.26619,34.23896
SANDIA ACADEMY,21331 SANDIA RD APPLE VALLEY CA 92308,False,"C08S16A33E1B1AVUUNI0015, C08S16A33E1B1AVUUNI0018, C08S16A33E1B1AVUUNI0019, C08S16A33E1B1AVUUNI0013, C08S16A33E1B1AVUUNI0014, C08S21A33E1B1AVUAP40322, C08S21A33E1B1AVUAP40323, C08S16A33E1B1AVUUNI1608, C08S21A33E1B1AVUAP41609, C08S16A33E1B1AVUUNI1982, C08S16A33E1B1AVUUNI1983, C08S16A33E1B1AVUUNI1984, C08S16A33E1B1AVUUNI1979, C08S16A33E1B1AVUUNI1985, C08S21A33E1B1AVUAP41986, C08S21A33E1B1AVUAP41987, C08S21A33E1B1AVUAP52265",False,-117.19874,34.46282
SANDIA ACADEMY,21331 SANDIA RD APPLE VALLEY CA 92308,True,"C08S16A33E1B1AVUUNI0015, C08S16A33E1B1AVUUNI0018, C08S16A33E1B1AVUUNI0019, C08S16A33E1B1AVUUNI0013, C08S16A33E1B1AVUUNI0014, C08S21A33E1B1AVUAP40322, C08S21A33E1B1AVUAP40323, C08S16A33E1B1AVUUNI1608, C08S21A33E1B1AVUAP41609, C08S16A33E1B1AVUUNI1982, C08S16A33E1B1AVUUNI1983, C08S16A33E1B1AVUUNI1984, C08S16A33E1B1AVUUNI1979, C08S16A33E1B1AVUUNI1985, C08S21A33E1B1AVUAP41986, C08S21A33E1B1AVUAP41987, C08S21A33E1B1AVUAP52265",False,-117.19874,34.46282
SCHERER COMMUNITY CENTER,12202 1ST ST YUCAIPA CA 92399,False,"C08S23A42E4B3YCUYU10802, C08S23A42E4B3YCUYU10803, C08S23A42E4B3YCUYU40807, C08S23A42E4B3YCUYU40824, C08S23A42E4B3YCUYU10829, C08S23A42E4B3YCUYU42103, C08S23A42E4B3YCUYU12164",False,-117.04139,34.03208
SCHERER COMMUNITY CENTER,12202 1ST ST YUCAIPA CA 92399,True,"C08S23A42E4B3YCUYU10802, C08S23A42E4B3YCUYU10803, C08S23A42E4B3YCUYU40807, C08S23A42E4B3YCUYU40824, C08S23A42E4B3YCUYU10829, C08S23A42E4B3YCUYU42103, C08S23A42E4B3YCUYU12164",False,-117.04139,34.03208
SENIOR CITIZENS BUILDING,33383 NEWBERRY RD NEWBERRY SPRINGS CA 92365,False,"C08S16A33E1B1SVUUNI0093, C08S16A33E1B1SVUUNI0097",False,-116.66201,34.85952
SENIOR CITIZENS BUILDING,33383 NEWBERRY RD NEWBERRY SPRINGS CA 92365,True,"C08S16A33E1B1SVUUNI0093, C08S16A33E1B1SVUUNI0097",False,-116.66201,34.85952
SERRANO MIDDLE SCHOOL,3131 PIEDMONT DR HIGHLAND CA 92346,False,"C31S23A40E4B3SBUSB41173, C31S23A40E4B3SBUSB41174, C31S23A40E4B3SBUSB41175, C31S23A40E4B3SBUSB41179, C31S23A40E4B3SBUSB41180, C31S23A40E4B3SBUSB41181, C31S23A40E4B3SBUSB41182, C31S23A40E4B3SBUSB41183",False,-117.21955,34.14478
SERRANO MIDDLE SCHOOL,3131 PIEDMONT DR HIGHLAND CA 92346,True,"C31S23A40E4B3SBUSB41173, C31S23A40E4B3SBUSB41174, C31S23A40E4B3SBUSB41175, C31S23A40E4B3SBUSB41179, C31S23A40E4B3SBUSB41180, C31S23A40E4B3SBUSB41181, C31S23A40E4B3SBUSB41182, C31S23A40E4B3SBUSB41183",False,-117.21955,34.14478
SHADOW HILLS ELEMENTARY SCHOOL,14300 SHADOW DR FONTANA CA 92337,False,"C35S20A47E4B2FNUFO41325, C35S20A47E4B2FNUFO41326, C35S20A47E4B2FNUFO41327",False,-117.49261,34.04506
SHADOW HILLS ELEMENTARY SCHOOL,14300 SHADOW DR FONTANA CA 92337,True,"C35S20A47E4B2FNUFO41325, C35S20A47E4B2FNUFO41326, C35S20A47E4B2FNUFO41327",False,-117.49261,34.04506
SIERRA LAKES ELEMENTARY SCHOOL,5740 AVENAL PL FONTANA CA 92336,False,"C31S20A47E4B2FNUFO20891, C31S20A47E4B2CUHFO10885, C31S20A47E4B2FNUFO30889, C31S20A47E4B2CUHFO10886, C31S20A47E4B2FNUFO30888, C31S20A47E4B2FNUFO20890, C31S20A47E4B2FNUFO10892, C35S20A47E4B2CUHFO11848, C31S20A47E4B2FNUFO31829, C31S20A47E4B2FNUFO31832",False,-117.45259,34.14887
SIERRA LAKES ELEMENTARY SCHOOL,5740 AVENAL PL FONTANA CA 92336,True,"C31S20A47E4B2FNUFO20891, C31S20A47E4B2CUHFO10885, C31S20A47E4B2FNUFO30889, C31S20A47E4B2CUHFO10886, C31S20A47E4B2FNUFO30888, C31S20A47E4B2FNUFO20890, C31S20A47E4B2FNUFO10892, C35S20A47E4B2CUHFO11848, C31S20A47E4B2FNUFO31829, C31S20A47E4B2FNUFO31832",False,-117.45259,34.14887
SILVER LAKES CLUBHOUSE,27801 MOUNTAIN SPRINGS RD HELENDALE CA 92342,False,"C08S16A33E1B1VUHUNI0120, C08S16A33E1B1VUHUNI0121",False,-117.34742,34.75607
SILVER LAKES CLUBHOUSE,27801 MOUNTAIN SPRINGS RD HELENDALE CA 92342,True,"C08S16A33E1B1VUHUNI0120, C08S16A33E1B1VUHUNI0121",False,-117.34742,34.75607
ST ANN PARISH,218 D ST NEEDLES CA 92363,False,"C08S16A33E1B1NDUNEE0060, C08S16A33E1B1NDUNEE0061",False,-114.60465,34.83758
ST ANN PARISH,218 D ST NEEDLES CA 92363,True,"C08S16A33E1B1NDUNEE0060, C08S16A33E1B1NDUNEE0061",False,-114.60465,34.83758
ST JOHNS EPISCOPAL CHURCH,1407 N ARROWHEAD AVE SAN BERNARDINO CA 92405,False,"C31S23A40E4B5SBUSB21236, C31S23A40E4B5SBUSB21237",False,-117.28904,34.126
ST JOHNS EPISCOPAL CHURCH,1407 N ARROWHEAD AVE SAN BERNARDINO CA 92405,True,"C31S23A40E4B5SBUSB21236, C31S23A40E4B5SBUSB21237",False,-117.28904,34.126
ST JOSEPH CATHOLIC CHURCH,17020 ARROW BLVD FONTANA CA 92335,False,"C35S20A47E4B2FNUFO21309, C35S20A47E4B2FNUFO21313, C35S20A47E4B2FNUFO21314, C35S20A47E4B5FNUFO31365",False,-117.43266,34.09988
ST JOSEPH CATHOLIC CHURCH,17020 ARROW BLVD FONTANA CA 92335,True,"C35S20A47E4B2FNUFO21309, C35S20A47E4B2FNUFO21313, C35S20A47E4B2FNUFO21314, C35S20A47E4B5FNUFO31365",False,-117.43266,34.09988
SVLA COMMUNITY BUILDING,12975 ROLLING RIDGE DR VICTORVILLE CA 92395,False,"C08S21A33E1B1VUHUNI0412, C08S21A33E1B1VUHUNI0413, C08S21A33E1B1VUHUNI0414, C08S21A33E1B1VUHUNI1820, C08S21A33E1B1VUHUNI1936, C08S21A33E1B1VUHUNI2049, C08S21A33E1B1VUHUNI2050, C08S21A33E1B1VUHUNI2200",False,-117.25947,34.48772
SVLA COMMUNITY BUILDING,12975 ROLLING RIDGE DR VICTORVILLE CA 92395,True,"C08S21A33E1B1VUHUNI0412, C08S21A33E1B1VUHUNI0413, C08S21A33E1B1VUHUNI0414, C08S21A33E1B1VUHUNI1820, C08S21A33E1B1VUHUNI1936, C08S21A33E1B1VUHUNI2049, C08S21A33E1B1VUHUNI2050, C08S21A33E1B1VUHUNI2200",False,-117.25947,34.48772
SYCAMORE ROCKS ELEMENTARY SCHOOL,23450 SOUTH RD APPLE VALLEY CA 92307,False,"C08S16A33E1B1AVUUNI0011, C08S16A33E1B1AVUUNI0012, C08S21A33E1B1AVUAP50298, C08S21A33E1B1AVUAP50305, C08S21A33E1B1AVUAP51996, C08S16A33E1B1AVUUNI1997, C08S21A33E1B1AVUAP32170, C08S21A33E1B1AVUAP32261",False,-117.15283,34.55306
SYCAMORE ROCKS ELEMENTARY SCHOOL,23450 SOUTH RD APPLE VALLEY CA 92307,True,"C08S16A33E1B1AVUUNI0011, C08S16A33E1B1AVUUNI0012, C08S21A33E1B1AVUAP50298, C08S21A33E1B1AVUAP50305, C08S21A33E1B1AVUAP51996, C08S16A33E1B1AVUUNI1997, C08S21A33E1B1AVUAP32170, C08S21A33E1B1AVUAP32261",False,-117.15283,34.55306
San Bernardino County Registrar of Voters Office,777 E. RIALTO AVE SAN BERNARDINO CA 92415,False,Locality wide location,False,-117.27035,34.10027
San Bernardino International Airport Domestic Terminal,105 NORTH LELAND NORTON WAY SAN BERNARDINO CA 92408,False,Locality wide location,False,-117.24682,34.10079
TERRACE HILLS MIDDLE SCHOOL,22579 DE BERRY ST GRAND TERRACE CA 92313,False,"C31S20A47E4B3CJUGRA0908, C31S20A47E4B3CJUGRA0913",False,-117.31183,34.02933
TERRACE HILLS MIDDLE SCHOOL,22579 DE BERRY ST GRAND TERRACE CA 92313,True,"C31S20A47E4B3CJUGRA0908, C31S20A47E4B3CJUGRA0913",False,-117.31183,34.02933
TERRACE VIEW ELEMENTARY SCHOOL,22731 GRAND TERRACE RD GRAND TERRACE CA 92313,False,"C31S20A47E4B3CJUGRA0906, C31S20A47E4B3CJUGRA0907, C31S20A47E4B3CJUGRA0911, C31S20A47E4B3CJUGRA0912, C31S20A47E4B3CJUUNI0919",False,-117.30887,34.04242
TERRACE VIEW ELEMENTARY SCHOOL,22731 GRAND TERRACE RD GRAND TERRACE CA 92313,True,"C31S20A47E4B3CJUGRA0906, C31S20A47E4B3CJUGRA0907, C31S20A47E4B3CJUGRA0911, C31S20A47E4B3CJUGRA0912, C31S20A47E4B3CJUUNI0919",False,-117.30887,34.04242
THE CHURCH IN SAN BERNARDINO,1900 E LYNWOOD DR SAN BERNARDINO CA 92404,False,"C31S23A40E4B3SBUSB41197, C31S23A40E4B3SBUUNI1202, C31S23A40E4B3SBUSB41672, C31S23A40E4B3SBUUNI1673, C31S23A40E4B3SBUSB41743",False,-117.2457,34.14714
THE CHURCH IN SAN BERNARDINO,1900 E LYNWOOD DR SAN BERNARDINO CA 92404,True,"C31S23A40E4B3SBUSB41197, C31S23A40E4B3SBUUNI1202, C31S23A40E4B3SBUSB41672, C31S23A40E4B3SBUUNI1673, C31S23A40E4B3SBUSB41743",False,-117.2457,34.14714
TOWN OF APPLE VALLEY CONFERENCE CENTER,14975 DALE EVANS PKWY APPLE VALLEY CA 92307,False,"C08S21A33E1B1AVUAP10303, C08S21A33E1B1AVUAP30304, C08S21A33E1B1AVUAP30309, C08S21A33E1B1AVUAP30311, C08S21A33E1B1AVUAP11993, C08S21A33E1B1AVUAP11994, C08S21A33E1B1AVUAP31995, C08S21A33E1B1AVUAP12258, C08S21A33E1B1AVUAP22259, C08S21A33E1B1AVUAP22260",False,-117.21442,34.52525
TOWN OF APPLE VALLEY CONFERENCE CENTER,14975 DALE EVANS PKWY APPLE VALLEY CA 92307,True,"C08S21A33E1B1AVUAP10303, C08S21A33E1B1AVUAP30304, C08S21A33E1B1AVUAP30309, C08S21A33E1B1AVUAP30311, C08S21A33E1B1AVUAP11993, C08S21A33E1B1AVUAP11994, C08S21A33E1B1AVUAP31995, C08S21A33E1B1AVUAP12258, C08S21A33E1B1AVUAP22259, C08S21A33E1B1AVUAP22260",False,-117.21442,34.52525
TRONA COMMUNITY SENIOR CENTER,13187 MARKET ST TRONA CA 93562,False,C08S16A33E1B1TJUUNI0109,False,-117.37721,35.75883
TRONA COMMUNITY SENIOR CENTER,13187 MARKET ST TRONA CA 93562,True,C08S16A33E1B1TJUUNI0109,False,-117.37721,35.75883
Town of Apple Valley Recreation Center,14955 DALE EVANS PARKWAY APPLE VALLEY CA 92307,False,Locality wide location,False,-117.21442,34.52444
Toyota Arena,4000 EAST ONTARIO CENTER PKWY ONTARIO CA 91764,False,Locality wide location,False,-117.56628,34.0729
UNITED METHODIST CHURCH (WRIGHTWOOD),1543 BARBARA ST WRIGHTWOOD CA 92397,False,"C08S23A36E1B1SJUUNI0655, C08S23A36E1B1SJUUNI0656, C08S23A40E1B1SJUUNI0677, C08S23A36E1B1SJUUNI0657, C08S23A36E1B1SJUUNI0653, C08S23A36E1B1SJUUNI0654, C08S23A40E1B1SJUUNI0671, C08S23A40E1B1SJUUNI0672, C08S23A40E1B1SJUUNI0673, C08S23A40E1B1SJUUNI0674, C08S23A40E1B1SJUUNI0675, C08S23A40E1B1SJUUNI0676, C08S23A40E1B1SJUUNI1790, C08S23A36E1B1SJUUNI1791, C08S23A36E1B1SJUUNI1792, C08S23A40E1B1SJUUNI1915, C08S23A36E1B1SJUUNI1917, C08S23A36E1B1SJUUNI1918",False,-117.62801,34.35788
UNITED METHODIST CHURCH (WRIGHTWOOD),1543 BARBARA ST WRIGHTWOOD CA 92397,True,"C08S23A36E1B1SJUUNI0655, C08S23A36E1B1SJUUNI0656, C08S23A40E1B1SJUUNI0677, C08S23A36E1B1SJUUNI0657, C08S23A36E1B1SJUUNI0653, C08S23A36E1B1SJUUNI0654, C08S23A40E1B1SJUUNI0671, C08S23A40E1B1SJUUNI0672, C08S23A40E1B1SJUUNI0673, C08S23A40E1B1SJUUNI0674, C08S23A40E1B1SJUUNI0675, C08S23A40E1B1SJUUNI0676, C08S23A40E1B1SJUUNI1790, C08S23A36E1B1SJUUNI1791, C08S23A36E1B1SJUUNI1792, C08S23A40E1B1SJUUNI1915, C08S23A36E1B1SJUUNI1917, C08S23A36E1B1SJUUNI1918",False,-117.62801,34.35788
UNIVERSITY OF REDLANDS (ORTON CENTER),1200 E COLTON AVE REDLANDS CA 92374,False,"C31S23A40E4B3RDURE41113, C31S23A40E4B3RDURE41114, C31S23A40E4B3RDURE31116, C31S23A40E4B3RDURE31117, C31S23A40E4B3RDURE41118, C31S23A40E4B3RDURE41665, C31S23A40E4B3RDURE31626, C31S23A40E4B3RDURE31667, C31S23A40E4B3RDURE31664, C31S23A40E4B3RDURE51808, C31S23A40E4B3RDURE41809, C31S23A40E4B3RDURE42004, C31S23A40E4B3RDURE42007, C31S23A40E4B3RDURE42008",False,-117.16476,34.06172
UNIVERSITY OF REDLANDS (ORTON CENTER),1200 E COLTON AVE REDLANDS CA 92374,True,"C31S23A40E4B3RDURE41113, C31S23A40E4B3RDURE41114, C31S23A40E4B3RDURE31116, C31S23A40E4B3RDURE31117, C31S23A40E4B3RDURE41118, C31S23A40E4B3RDURE41665, C31S23A40E4B3RDURE31626, C31S23A40E4B3RDURE31667, C31S23A40E4B3RDURE31664, C31S23A40E4B3RDURE51808, C31S23A40E4B3RDURE41809, C31S23A40E4B3RDURE42004, C31S23A40E4B3RDURE42007, C31S23A40E4B3RDURE42008",False,-117.16476,34.06172
UNIVERSITY PREPARATORY SCHOOL,13853 SENECA RD VICTORVILLE CA 92392,False,"C08S21A33E1B1VUHVIC0435, C08S21A33E1B1VUHVIC0436, C08S21A33E1B1VUHVIC0437, C08S21A33E1B1VUHVIC1932, C08S21A33E1B1VUHVIC2041",False,-117.36119,34.51265
UNIVERSITY PREPARATORY SCHOOL,13853 SENECA RD VICTORVILLE CA 92392,True,"C08S21A33E1B1VUHVIC0435, C08S21A33E1B1VUHVIC0436, C08S21A33E1B1VUHVIC0437, C08S21A33E1B1VUHVIC1932, C08S21A33E1B1VUHVIC2041",False,-117.36119,34.51265
UPLAND HIGH SCHOOL,565 W 11TH ST UPLAND CA 91786,False,"C31S25A41E1B4CUHUP41283, C31S25A41E1B4UPUUP41287, C31S25A41E1B4UPUUP41288, C31S25A41E1B4UPUUP21289, C31S25A41E1B4UPUUP31290, C31S25A41E1B4CUHUP41833, C31S25A41E1B4UPUUP31836",False,-117.65879,34.1045
UPLAND HIGH SCHOOL,565 W 11TH ST UPLAND CA 91786,True,"C31S25A41E1B4CUHUP41283, C31S25A41E1B4UPUUP41287, C31S25A41E1B4UPUUP41288, C31S25A41E1B4UPUUP21289, C31S25A41E1B4UPUUP31290, C31S25A41E1B4CUHUP41833, C31S25A41E1B4UPUUP31836",False,-117.65879,34.1045
VALLEY CHRISTIAN CHURCH,12410 NORTON AVE CHINO CA 91710,False,"C35S20A52E1B4CVUCN11466, C35S20A52E1B4CVUCN11471, C35S20A52E1B4CVUCN41472, C35S20A52E1B4CVUCN11490, C35S20A52E1B4CVUCN31491, C35S20A52E1B4CVUUNI1515, C35S20A52E1B4CVUUNI1519",False,-117.7125,34.02878
VALLEY CHRISTIAN CHURCH,12410 NORTON AVE CHINO CA 91710,True,"C35S20A52E1B4CVUCN11466, C35S20A52E1B4CVUCN11471, C35S20A52E1B4CVUCN41472, C35S20A52E1B4CVUCN11490, C35S20A52E1B4CVUCN31491, C35S20A52E1B4CVUUNI1515, C35S20A52E1B4CVUUNI1519",False,-117.7125,34.02878
VERMONT ELEMENTARY,3695 VERMONT ST SAN BERNARDINO CA 92407,False,"C31S20A47E4B5SBUSB61019, C31S20A47E4B5SBUUNI1023",False,-117.3518,34.16213
VERMONT ELEMENTARY,3695 VERMONT ST SAN BERNARDINO CA 92407,True,"C31S20A47E4B5SBUSB61019, C31S20A47E4B5SBUUNI1023",False,-117.3518,34.16213
VICTORIA GARDENS CULTURAL CENTER,12505 CULTURAL CENTER DR RANCHO CUCAMONGA CA 91739,False,"C31S23A40E1B2CUHRC31044, C31S23A40E1B2CUHRC41045, C31S23A40E1B2CUHRC41051, C31S23A40E1B2CUHRC41052, C31S23A40E1B2FNURC41084, C31S23A40E1B2CUHRC31739, C31S23A40E1B2CUHRC31740, C31S23A40E1B2CUHRC31741, C31S23A40E1B2CUHRC41854, C31S23A40E1B2CUHRC41977, C31S23A40E1B2CUHRC41978, C31S23A40E1B2CUHRC32153, C31S23A40E1B2CUHRC32154, C31S23A40E1B2CUHRC42155, C31S23A40E1B2CUHRC42160",False,-117.5328,34.11307
VICTORIA GARDENS CULTURAL CENTER,12505 CULTURAL CENTER DR RANCHO CUCAMONGA CA 91739,True,"C31S23A40E1B2CUHRC31044, C31S23A40E1B2CUHRC41045, C31S23A40E1B2CUHRC41051, C31S23A40E1B2CUHRC41052, C31S23A40E1B2FNURC41084, C31S23A40E1B2CUHRC31739, C31S23A40E1B2CUHRC31740, C31S23A40E1B2CUHRC31741, C31S23A40E1B2CUHRC41854, C31S23A40E1B2CUHRC41977, C31S23A40E1B2CUHRC41978, C31S23A40E1B2CUHRC32153, C31S23A40E1B2CUHRC32154, C31S23A40E1B2CUHRC42155, C31S23A40E1B2CUHRC42160",False,-117.5328,34.11307
VICTORY COMMUNITY CHURCH,2009 PORTER FIELD WAY UPLAND CA 91786,False,"C27S25A41E1B2UPUUP10843, C31S25A41E1B2UPUUP11279",False,-117.69124,34.1096
VICTORY COMMUNITY CHURCH,2009 PORTER FIELD WAY UPLAND CA 91786,True,"C27S25A41E1B2UPUUP10843, C31S25A41E1B2UPUUP11279",False,-117.69124,34.1096
VINEYARD JR HIGH SCHOOL,6440 MAYBERRY AVE RANCHO CUCAMONGA CA 91737,False,"C31S23A40E1B2CUHRC11971, C31S23A40E1B2CUHRC12176, C31S23A40E1B2CUHRC42211, C31S23A40E1B2CUHRC42274",False,-117.58155,34.13712
VINEYARD JR HIGH SCHOOL,6440 MAYBERRY AVE RANCHO CUCAMONGA CA 91737,True,"C31S23A40E1B2CUHRC11971, C31S23A40E1B2CUHRC12176, C31S23A40E1B2CUHRC42211, C31S23A40E1B2CUHRC42274",False,-117.58155,34.13712
VINEYARD SCHOOL,1500 E 6TH ST ONTARIO CA 91764,False,"C35S20A52E1B4CUHONT1408, C35S20A52E1B4CUHONT1413, C35S20A52E1B4CUHONT1414, C35S20A52E1B4CUHONT1416, C35S20A52E1B4CUHONT1450, C35S20A52E1B4CUHONT1453, C35S20A52E1B4CUHONT1843",False,-117.62318,34.0838
VINEYARD SCHOOL,1500 E 6TH ST ONTARIO CA 91764,True,"C35S20A52E1B4CUHONT1408, C35S20A52E1B4CUHONT1413, C35S20A52E1B4CUHONT1414, C35S20A52E1B4CUHONT1416, C35S20A52E1B4CUHONT1450, C35S20A52E1B4CUHONT1453, C35S20A52E1B4CUHONT1843",False,-117.62318,34.0838
VISTA GRANDE ELEMENTARY,1390 W FRANCIS ST ONTARIO CA 91762,False,"C35S20A52E1B4CUHONT1424, C35S20A52E1B4CUHONT1426, C35S20A52E1B4CVUONT1502, C35S20A52E1B4CVUONT1503, C35S20A52E1B4CUHONT1576, C35S20A52E1B4CUHONT1577, C35S20A52E1B4CUHONT1954",False,-117.67518,34.04254
VISTA GRANDE ELEMENTARY,1390 W FRANCIS ST ONTARIO CA 91762,True,"C35S20A52E1B4CUHONT1424, C35S20A52E1B4CUHONT1426, C35S20A52E1B4CVUONT1502, C35S20A52E1B4CVUONT1503, C35S20A52E1B4CUHONT1576, C35S20A52E1B4CUHONT1577, C35S20A52E1B4CUHONT1954",False,-117.67518,34.04254
VISTA VERDE ELEMENTARY SCHOOL,13403 VISTA VERDE ST VICTORVILLE CA 92392,False,"C08S21A33E1B1SJUVIC0377, C08S21A33E1B1SJUVIC0378",False,-117.40209,34.49575
VISTA VERDE ELEMENTARY SCHOOL,13403 VISTA VERDE ST VICTORVILLE CA 92392,True,"C08S21A33E1B1SJUVIC0377, C08S21A33E1B1SJUVIC0378",False,-117.40209,34.49575
WEST END EDUCATIONAL SERVICE CENTER,8265 ASPEN ST RANCHO CUCAMONGA CA 91730,False,"C31S23A40E1B2CUHRC21074, C31S23A40E1B2CUHRC21075, C31S23A40E1B2CUHRC21078, C31S23A40E1B2CUHRC21568, C31S23A40E1B2CUHRC21569, C31S23A40E1B2CUHRC21973, C31S23A40E1B2CUHRC21974, C31S23A40E1B2CUHRC22148, C31S23A40E1B2CUHRC22149, C31S23A40E1B2CUHRC22152, C31S23A40E1B2CUHRC22214",False,-117.57006,34.10345
WEST END EDUCATIONAL SERVICE CENTER,8265 ASPEN ST RANCHO CUCAMONGA CA 91730,True,"C31S23A40E1B2CUHRC21074, C31S23A40E1B2CUHRC21075, C31S23A40E1B2CUHRC21078, C31S23A40E1B2CUHRC21568, C31S23A40E1B2CUHRC21569, C31S23A40E1B2CUHRC21973, C31S23A40E1B2CUHRC21974, C31S23A40E1B2CUHRC22148, C31S23A40E1B2CUHRC22149, C31S23A40E1B2CUHRC22152, C31S23A40E1B2CUHRC22214",False,-117.57006,34.10345
WILLIAM MCKINLEY ELEMENTARY SCHOOL,600 W JOHNSTON ST COLTON CA 92324,False,"C31S20A47E4B5CJUCO20927, C31S20A47E4B5CJUCO20928, C31S20A47E4B5RLUCO20959",False,-117.33084,34.08732
WILLIAM MCKINLEY ELEMENTARY SCHOOL,600 W JOHNSTON ST COLTON CA 92324,True,"C31S20A47E4B5CJUCO20927, C31S20A47E4B5CJUCO20928, C31S20A47E4B5RLUCO20959",False,-117.33084,34.08732
WOODCREST JUNIOR HIGH SCHOOL,2725 S CAMPUS AVE ONTARIO CA 91761,False,"C35S20A52E1B4CUHONT1435, C35S20A52E1B4CUHONT1437, C35S20A52E1B4CVUONT1504, C35S20A52E1B4CVUONT1505, C35S20A52E1B4CVUONT1506, C35S20A52E1B4CVUONT1509, C35S20A52E1B4CUHONT1849, C35S20A52E1B4CVUONT1850, C35S20A52E1B4CVUONT1851",False,-117.64083,34.02436
WOODCREST JUNIOR HIGH SCHOOL,2725 S CAMPUS AVE ONTARIO CA 91761,True,"C35S20A52E1B4CUHONT1435, C35S20A52E1B4CUHONT1437, C35S20A52E1B4CVUONT1504, C35S20A52E1B4CVUONT1505, C35S20A52E1B4CVUONT1506, C35S20A52E1B4CVUONT1509, C35S20A52E1B4CUHONT1849, C35S20A52E1B4CVUONT1850, C35S20A52E1B4CVUONT1851",False,-117.64083,34.02436
YANKS AIR MUSEUM,15121 STEARMAN DR CHINO CA 91710,False,"C35S20A52E1B4CUHCN31388, C35S20A52E1B4CVUCN31479, C35S20A52E1B4CVUCN41480, C35S20A52E1B4CVUCN42327",False,-117.64729,33.97908
YANKS AIR MUSEUM,15121 STEARMAN DR CHINO CA 91710,True,"C35S20A52E1B4CUHCN31388, C35S20A52E1B4CVUCN31479, C35S20A52E1B4CVUCN41480, C35S20A52E1B4CVUCN42327",False,-117.64729,33.97908
YERMO COMMUNITY SERVICES,38315 MC CORMICK ST YERMO CA 92398,False,"C08S16A33E1B1SVUUNI0089, C08S16A33E1B1SVUUNI0090",False,-116.82447,34.90426
YERMO COMMUNITY SERVICES,38315 MC CORMICK ST YERMO CA 92398,True,"C08S16A33E1B1SVUUNI0089, C08S16A33E1B1SVUUNI0090",False,-116.82447,34.90426
YUCCA MESA COMMUNITY CENTER,3133 BALSA AVE YUCCA VALLEY CA 92284,False,"C08S16A42E4B3MRUUNI0226, C08S16A42E4B3MRUUNI0254, C08S16A42E4B3MRUYV20272, C08S16A42E4B3MRUYV40273, C08S16A42E4B3MRUYV41903, C08S16A42E4B3MRUYV41904, C08S16A42E4B3MRUYV22130, C08S16A42E4B3MRUYV22131, C08S16A42E4B3MRUUNI2132, C08S16A42E4B3MRUUNI2133, C08S16A42E4B3MRUYV22186",False,-116.3952,34.19609
YUCCA MESA COMMUNITY CENTER,3133 BALSA AVE YUCCA VALLEY CA 92284,True,"C08S16A42E4B3MRUUNI0226, C08S16A42E4B3MRUUNI0254, C08S16A42E4B3MRUYV20272, C08S16A42E4B3MRUYV40273, C08S16A42E4B3MRUYV41903, C08S16A42E4B3MRUYV41904, C08S16A42E4B3MRUYV22130, C08S16A42E4B3MRUYV22131, C08S16A42E4B3MRUUNI2132, C08S16A42E4B3MRUUNI2133, C08S16A42E4B3MRUYV22186",False,-116.3952,34.19609
ZION LUTHERAN CHURCH,15342 JERALDO DR VICTORVILLE CA 92394,False,"C08S21A33E1B1VUHVIC0426, C08S21A33E1B1VUHVIC0427, C08S21A33E1B1VUHVIC0428, C08S21A33E1B1VUHVIC0431, C08S21A33E1B1VUHVIC0432, C08S21A33E1B1VUHVIC1935, C08S21A33E1B1VUHVIC2042, C08S21A33E1B1VUHVIC2043, C08S21A33E1B1VUHVIC2044, C08S21A33E1B1VUHVIC2045, C08S21A33E1B1VUHVIC2046, C08S21A33E1B1VUHVIC2195, C08S21A33E1B1VUHVIC2196",False,-117.3357,34.53016
ZION LUTHERAN CHURCH,15342 JERALDO DR VICTORVILLE CA 92394,True,"C08S21A33E1B1VUHVIC0426, C08S21A33E1B1VUHVIC0427, C08S21A33E1B1VUHVIC0428, C08S21A33E1B1VUHVIC0431, C08S21A33E1B1VUHVIC0432, C08S21A33E1B1VUHVIC1935, C08S21A33E1B1VUHVIC2042, C08S21A33E1B1VUHVIC2043, C08S21A33E1B1VUHVIC2044, C08S21A33E1B1VUHVIC2045, C08S21A33E1B1VUHVIC2046, C08S21A33E1B1VUHVIC2195, C08S21A33E1B1VUHVIC2196",False,-117.3357,34.53016
