name,address,Is Early Voting,Precincts (Or Locality-wide),Is Drop Off,lon,lat
100 THIEVES - OUTDOOR - PARKING LOT,6050 JEFFERSON BLVD LOS ANGELES CA 90016,False,Locality wide location,False,-118.38069,34.02062
15TH STREET ELEMENTARY SCHOOL - AUDITORIUM,1527 S MESA ST SAN PEDRO CA 90731,False,Locality wide location,False,-118.28731,33.72989
A C BILBREW LIBRARY - LIBRARY ROOM AND LOBBY,150 E EL SEGUNDO BLVD LOS ANGELES CA 90061,False,Locality wide location,False,-118.2723,33.91608
A C STELLE MIDDLE SCHOOL - MULTI-PURPOSE ROOM,22450 MULHOLLAND HWY CALABASAS CA 91302,False,Locality wide location,False,-118.61299,34.14232
A V FAIR AND EVENT CENTER - H W HUNTER PAVILION,2551 W AVENUE H LANCASTER CA 93536,False,Locality wide location,False,-118.17654,34.71937
ABRAHAM LINCOLN HIGH SCHOOL - SMALL COURT GYMNASIUM,3501 N BROADWAY LOS ANGELES CA 90031,False,Locality wide location,False,-118.204,34.07467
ACF BESHIR MARDIROSSIAN YOUTH CENTER - LIBERTY HALL,75 E SANTA ANITA AVE BURBANK CA 91502,False,Locality wide location,False,-118.30651,34.17682
ACTON ELEMENTARY SCHOOL - MULTI-PURPOSE ROOM,32248 CROWN VALLEY RD ACTON CA 93510,False,Locality wide location,False,-118.19667,34.47292
ACTON REHABILITATION CENTER - MENS DINING HALL,30500 ARRASTRE CANYON RD ACTON CA 93510,False,Locality wide location,False,-118.20006,34.44896
ADAT ARI EL - JACOBY SOCIAL & SISTERHOOD LOUNGE,12020 BURBANK BLVD VALLEY VILLAGE CA 91607,False,Locality wide location,False,-118.39541,34.17143
"AGOURA HILLS/CALABASAS COMMUNITY CENTER - AGOURA, LAS VIRGENES &",27040 MALIBU HILLS RD CALABASAS CA 91301,False,Locality wide location,False,-118.71296,34.13616
AGUA DULCE AIRPARK - AIR HANGAR,33638 AGUA DULCE CANYON RD SANTA CLARITA CA 91390,False,Locality wide location,False,-118.31556,34.50315
ALCOTT ELEMENTARY SCHOOL - AUDITORIUM,1600 S TOWNE AVE POMONA CA 91766,False,Locality wide location,False,-117.74041,34.0429
ALFRED B NOBEL CHARTER MIDDLE SCHOOL - MULTI-PURPOSE ROOM,9950 TAMPA AVE NORTHRIDGE CA 91324,False,Locality wide location,False,-118.55198,34.25165
ALLIANCE ALICE M BAXTER COLLEGE READY - THE FORUM,461 W 9TH ST SAN PEDRO CA 90731,False,Locality wide location,False,-118.28724,33.73575
ALONDRA COMMUNITY REGIONAL PARK - GYMNASIUM,3850 W MANHATTAN BEACH BLVD LAWNDALE CA 90260,False,Locality wide location,False,-118.33889,33.88401
ALONDRA MIDDLE SCHOOL - GYM,16200 DOWNEY AVE PARAMOUNT CA 90723,False,Locality wide location,False,-118.15062,33.8866
ALTADENA SENIOR CENTER - MULTI-PURPOSE ROOM,560 E MARIPOSA ST ALTADENA CA 91001,False,Locality wide location,False,-118.13799,34.1892
ALVARADO INTERMEDIATE SCHOOL - MULTI-PURPOSE ROOM,1901 DESIRE AVE ROWLAND HEIGHTS CA 91748,False,Locality wide location,False,-117.89546,33.98348
AMARGOSA CREEK MIDDLE SCHOOL - GYMNASIUM,44333 27TH ST W LANCASTER CA 93534,False,Locality wide location,False,-118.18029,34.68702
AMERICAN GOLD STAR MANOR - CAPT LEONARD REC HALL,3021 N GOLD STAR DR LONG BEACH CA 90810,False,Locality wide location,False,-118.21767,33.8132
ANDERSON W CLARK MAGNET HIGH SCHOOL - AUDITERIA,4747 NEW YORK AVE GLENDALE CA 91214,False,Locality wide location,False,-118.25391,34.23722
ANIMO FLORENCE-FIRESTONE CHARTER SCHOOL - GYMNASIUM,8255 BEACH ST LOS ANGELES CA 90001,False,Locality wide location,False,-118.24261,33.96298
ANIMO PAT BROWN CHARTER HIGH SCHOOL - GYMNASIUM,8205 BEACH ST LOS ANGELES CA 90001,False,Locality wide location,False,-118.24224,33.96419
ANTELOPE VALLEY CHURCH OF GOD IN CHRIST - SANCTUARY,37827 97TH ST E LITTLEROCK CA 93543,False,Locality wide location,False,-117.95714,34.56953
APPLIED TECHNOLOGY CENTER HIGH SCHOOL - MULTI-PURPOSE ROOM & BIS,1200 W MINES AVE MONTEBELLO CA 90640,False,Locality wide location,False,-118.11693,34.00533
ARLINGTON HEIGHTS ELEMENTARY - AUDITORIUM,1717 7TH AVE LOS ANGELES CA 90019,False,Locality wide location,False,-118.32506,34.04119
ARMENIAN CILICIA EVANGELICAL CHURCH - DERIAN HALL,339 S SANTA ANITA AVE PASADENA CA 91107,False,Locality wide location,False,-118.09897,34.14025
ARMSTRONG ELEMENTARY SCHOOL - MULTI-PURPOSE ROOM,22750 BEAVERHEAD DR DIAMOND BAR CA 91765,False,Locality wide location,False,-117.81715,34.02128
ARTESIA DES PORTUGUESE HALL - SOUTH DES HALL,11903 ASHWORTH ST ARTESIA CA 90701,False,Locality wide location,False,-118.07907,33.86885
ATHENS PARK - MULTI-PURPOSE ROOM AND TINY TOT ROOM,12603 S BROADWAY LOS ANGELES CA 90061,False,Locality wide location,False,-118.27956,33.91825
ATWATER AVENUE ELEMENTARY SCHOOL - AUDITORIUM,3271 SILVER LAKE BLVD LOS ANGELES CA 90039,False,Locality wide location,False,-118.25494,34.1157
AUGUSTUS HAWKINS HIGH SCHOOL - SMALL GYMNASIUM,825 W 60TH ST LOS ANGELES CA 90044,False,Locality wide location,False,-118.28838,33.98579
AVENUE OF THE STARS - SUITE 60,10050 CONSTELLATION BLVD LOS ANGELES CA 90067,False,Locality wide location,False,-118.41441,34.05922
AVIATION GYMNASIUM - LARGE GYMNASIUM,1935 MANHATTAN BEACH BLVD REDONDO BEACH CA 90278,False,Locality wide location,False,-118.37697,33.88948
AWAKEN LA CHURCH - FELLOWSHIP ROOM,5853 LAUREL CANYON BLVD VALLEY VILLAGE CA 91607,False,Locality wide location,False,-118.3971,34.17711
AZUSA WOMENS CLUB - BANQUET ROOM,1003 N AZUSA AVE AZUSA CA 91702,False,Locality wide location,False,-117.90792,34.13928
BANC OF CALIFORNIA STADIUM - WEST CONCOURSE,3939 S FIGUEROA ST LOS ANGELES CA 90037,False,Locality wide location,False,-118.28445,34.01263
BANNING RECREATION CENTER - MAIN GYMNASIUM,1331 EUBANK AVE WILMINGTON CA 90744,False,Locality wide location,False,-118.25664,33.79064
BARRINGTON RECREATION CENTER - GYMNASIUM,333 S BARRINGTON AVE LOS ANGELES CA 90049,False,Locality wide location,False,-118.46885,34.06133
BARRIO ACTION YOUTH & FAMILY CENTER - GYMNASIUM,4927 HUNTINGTON DR N LOS ANGELES CA 90032,False,Locality wide location,False,-118.1764,34.08746
BARTON HILL ELEMENTARY SCHOOL - AUDITORIUM,423 N PACIFIC AVE SAN PEDRO CA 90731,False,Locality wide location,False,-118.28872,33.74652
BASSETT ADULT SCHOOL - AUDITORIUM,943 N SUNKIST AVE LA PUENTE CA 91746,False,Locality wide location,False,-117.96966,34.05221
BASSETT STREET ELEMENTARY SCHOOL - AUDITORIUM,15756 BASSETT ST VAN NUYS CA 91406,False,Locality wide location,False,-118.47766,34.19522
BATEMAN HALL - THOMPSON AUDITORIUM,11331 ERNESTINE AVE LYNWOOD CA 90262,False,Locality wide location,False,-118.19879,33.92518
BAY SHORE COMM CONGREGATIONAL CHURCH - GYMNASIUM,5100 E THE TOLEDO LONG BEACH CA 90803,False,Locality wide location,False,-118.13407,33.76319
BEARDSLEE ELEMENTARY SCHOOL - MULTI-PURPOSE ROOM,1212 KELLWILL WAY DUARTE CA 91010,False,Locality wide location,False,-117.97888,34.12839
BELL COMMUNITY CENTER - BIG HALL,6250 PINE AVE BELL CA 90201,False,Locality wide location,False,-118.18847,33.98017
BELL GARDENS HIGH SCHOOL - GYMNASIUM,6119 AGRA ST BELL GARDENS CA 90201,False,Locality wide location,False,-118.15343,33.97662
BELL GARDENS VETERANS PARK - AUDITORIUM,6662 LOVELAND ST BELL GARDENS CA 90201,False,Locality wide location,False,-118.14693,33.96698
BETHEL AME CHURCH LA - AA MORGAN FELLOWSHIP HALL,7900 S WESTERN AVE LOS ANGELES CA 90047,False,Locality wide location,False,-118.30864,33.96696
BETHESDA PRESBYTERIAN CHURCH - HOPE OF PRAISE,14420 CRENSHAW BLVD GARDENA CA 90249,False,Locality wide location,False,-118.32625,33.9003
BETTY HILL SENIOR CITIZEN CENTER - SMALL CLASSROOM,3570 S DENKER AVE LOS ANGELES CA 90018,False,Locality wide location,False,-118.30441,34.02298
BEVERLY HILLS CITY HALL - OUTDOOR - CRESCENT PARKING GARAGE,450 N CRESCENT DR BEVERLY HILLS CA 90210,False,Locality wide location,False,-118.40063,34.07304
BEVERLY HILLS WOMENS CLUB - BALLROOM AND GARDEN ROOM,1700 CHEVY CHASE DR BEVERLY HILLS CA 90210,False,Locality wide location,False,-118.42156,34.08419
BIRDIELEE V BRIGHT ELEMENTARY SCHOOL - AUDITORIUM,1771 W 36TH ST LOS ANGELES CA 90018,False,Locality wide location,False,-118.31126,34.02311
BIRMINGHAM COMM CHARTER HIGH SCHOOL - MAIN GYMNASIUM,17000 HAYNES ST VAN NUYS CA 91406,False,Locality wide location,False,-118.50423,34.18813
BLAIR HIGH SCHOOL - GYMNASIUM,1201 S MARENGO AVE PASADENA CA 91106,False,Locality wide location,False,-118.14642,34.12645
BLANDFORD ELEMENTARY SCHOOL - CAFETERIA,2601 BLANDFORD DR ROWLAND HEIGHTS CA 91748,False,Locality wide location,False,-117.89776,33.97269
BNAI DAVID JUDEA - LOBBY,8906 W PICO BLVD LOS ANGELES CA 90035,False,Locality wide location,False,-118.38587,34.05485
BOB HOPE PATRIOTIC HALL - MAIN LOBBY,1816 S FIGUEROA ST LOS ANGELES CA 90015,False,Locality wide location,False,-118.27107,34.0353
BOUQUET CANYON ELEMENTARY - MULTI-PURPOSE ROOM,28110 WELLSTON DR SAUGUS CA 91350,False,Locality wide location,False,-118.50302,34.45298
BOYLE HEIGHTS SENIOR CENTER - ART ROOM,2839 E 3RD ST LOS ANGELES CA 90033,False,Locality wide location,False,-118.20537,34.03902
BRADLEY MULTI PURPOSE ROOM - DINING ROOM,10957 S CENTRAL AVE LOS ANGELES CA 90059,False,Locality wide location,False,-118.25454,33.93553
BRENDA VILLA AQUATIC CENTER - MEETING ROOM,5600 HARBOR ST COMMERCE CA 90040,False,Locality wide location,False,-118.15624,34.00312
BRET HARTE MIDDLE SCHOOL - BOYS GYMNASIUM,9301 S HOOVER ST LOS ANGELES CA 90044,False,Locality wide location,False,-118.28797,33.9518
BRIDGES ACADEMY - AUDITORIUM,3921 LAUREL CANYON BLVD STUDIO CITY CA 91604,False,Locality wide location,False,-118.39481,34.1415
BRIGHTWOOD ELEMENTARY SCHOOL - CAFETERIA,1701 BRIGHTWOOD ST MONTEREY PARK CA 91754,False,Locality wide location,False,-118.15218,34.04607
BROCKTON AVENUE ELEMENTARY SCHOOL - AUDITORIUM,1309 ARMACOST AVE LOS ANGELES CA 90025,False,Locality wide location,False,-118.46308,34.04449
BUD CARSON MIDDLE SCHOOL - GYMNASIUM,13838 YUKON AVE HAWTHORNE CA 90250,False,Locality wide location,False,-118.33414,33.90667
BUENA VISTA BRANCH LIBRARY - MEETING ROOM,300 N BUENA VISTA ST BURBANK CA 91505,False,Locality wide location,False,-118.33021,34.16413
BURBANK HIGH SCHOOL - GYMNASIUM,902 N 3RD ST BURBANK CA 91502,False,Locality wide location,False,-118.31425,34.18729
BURTON CHACE PARK - COMMUNITY BUILDING,13650 MINDANAO WAY MARINA DEL REY CA 90292,False,Locality wide location,False,-118.44481,33.97748
Branford Park,13306 BRANFORD ST ARLETA CA 91331,False,Locality wide location,False,-118.42325,34.23238
C ROBERT LEE ACTIVITY CENTER - MULTI-PURPOSE ROOM A & B,21815 PIONEER BLVD HAWAIIAN GARDENS CA 90716,False,Locality wide location,False,-118.08209,33.82948
"CA STATE POLYTECHNIC UNIVERSITY, POMONA - KELLOGG ARENA",3801 W TEMPLE AVE POMONA CA 91768,False,Locality wide location,False,-117.82134,34.05407
"CA STATE UNIVERSITY, DOMINGUEZ HILLS - ROOM E1213 AND ROOM E1218",1000 E VICTORIA ST CARSON CA 90747,False,Locality wide location,False,-118.2549,33.86088
CABRILLO AVENUE ELEMENTARY SCHOOL - AUDITORIUM,732 S CABRILLO AVE SAN PEDRO CA 90731,False,Locality wide location,False,-118.29335,33.73726
CABRILLO HIGH SCHOOL - NORTH GYMNASIUM,2001 SANTA FE AVE LONG BEACH CA 90810,False,Locality wide location,False,-118.21579,33.79412
CAHUENGA ELEMENTARY SCHOOL - MULTI-PURPOSE ROOM,220 S HOBART BLVD LOS ANGELES CA 90004,False,Locality wide location,False,-118.3053,34.07015
"CAL STATE UNIVERSITY, LOS ANGELES - GYMNASIUM",5151 STATE UNIVERSITY DR LOS ANGELES CA 90032,False,Locality wide location,False,-118.16845,34.06633
CALARTS - MAIN GALLERY,24700 MCBEAN PKWY VALENCIA CA 91355,False,Locality wide location,False,-118.56734,34.39275
"CALIFORNIA STATE UNIVERSITY, LONG BEACH - CARPENTER PERFORMING A",6200 ATHERTON ST LONG BEACH CA 90815,False,Locality wide location,False,-118.11295,33.78767
"CALIFORNIA STATE UNIVERSITY, NORTHRIDGE - ACTIVITIES CENTER",18111 NORDHOFF ST NORTHRIDGE CA 91330,False,Locality wide location,False,-118.52625,34.23994
CALVARY CHAPEL GOLDEN SPRINGS - FELLOWSHIP HALL,22324 GOLDEN SPRINGS DR DIAMOND BAR CA 91765,False,Locality wide location,False,-117.82317,34.00256
CALVARY GRACE CHURCH - FELLOWSHIP HALL,2520 PECK RD MONROVIA CA 91016,False,Locality wide location,False,-118.00315,34.1189
CAMERON PARK COMMUNITY CENTER - MULTI-PURPOSE ROOM,1305 E CAMERON AVE WEST COVINA CA 91790,False,Locality wide location,False,-117.9184,34.06202
CANOGA PARK HIGH SCHOOL - LARGE GYMNASIUM,6850 TOPANGA CANYON BLVD CANOGA PARK CA 91303,False,Locality wide location,False,-118.60535,34.19568
CANYON CENTER - UNIT D4,19361 SOLEDAD CANYON RD SANTA CLARITA CA 91351,False,Locality wide location,False,-118.47435,34.41656
CANYON CLUB DINNER THEATER - MAIN ROOM,28912 ROADSIDE DR AGOURA HILLS CA 91301,False,Locality wide location,False,-118.75289,34.14304
CARAVALHO SANTA CLARITA SPORTS COMPLEX - GYMNASIUM,20870 CENTRE POINTE PKWY SANTA CLARITA CA 91350,False,Locality wide location,False,-118.49931,34.41044
CARAVAN 4 JUSTICE - WAREHOUSE,646 W PACIFIC COAST HWY LONG BEACH CA 90806,False,Locality wide location,False,-118.20035,33.7896
CARMELITOS COMMUNITY CENTER - MULTI-PURPOSE ROOM,851 VIA CARMELITOS LONG BEACH CA 90805,False,Locality wide location,False,-118.18187,33.84901
CARMENITA MIDDLE SCHOOL - MULTI-PURPOSE ROOM,13435 166TH ST CERRITOS CA 90703,False,Locality wide location,False,-118.04537,33.88098
CARPENTERS LOCAL UNION 562 - MEETING HALL,341 E WARDLOW RD LONG BEACH CA 90807,False,Locality wide location,False,-118.1883,33.81918
CARSON CIVIC CENTER - CARSON DOMINGUEZ ROOM,801 E CARSON ST CARSON CA 90745,False,Locality wide location,False,-118.26134,33.83285
CARSON HIGH SCHOOL - MULTI-PURPOSE ROOM,22328 S MAIN ST CARSON CA 90745,False,Locality wide location,False,-118.27537,33.82378
CARVER ELEMENTARY SCHOOL - MULTI-PURPOSE ROOM,1425 E 120TH ST LOS ANGELES CA 90059,False,Locality wide location,False,-118.25086,33.92413
CASTAIC MIDDLE SCHOOL - MULTI-PURPOSE ROOM,28900 HILLCREST PKWY CASTAIC CA 91384,False,Locality wide location,False,-118.64006,34.47116
CASTAIC SPORTS COMPLEX - GYMNASIUM,31230 CASTAIC RD CASTAIC CA 91384,False,Locality wide location,False,-118.61472,34.48605
CASTELAR ELEMENTARY SCHOOL - AUDITORIUM,840 YALE ST LOS ANGELES CA 90012,False,Locality wide location,False,-118.23973,34.06457
CASTLEBAY LANE CHARTER ELEMENTARY - PERFORMING ARTS CENTER,19010 CASTLEBAY LN PORTER RANCH CA 91326,False,Locality wide location,False,-118.54745,34.29372
CATALINA CASINO - CASINO BALLROOM,1 CASINO WAY AVALON CA 90704,False,Locality wide location,False,-118.32583,33.34887
CATHY HENSEL YOUTH CENTER - GYMNASIUM,236 GEORGE HENSEL DR MONTEBELLO CA 90640,False,Locality wide location,False,-118.11445,34.00773
CENTER OF HOPE CHURCH - FELLOWSHIP HALL/GYMNASIUM,9550 CRENSHAW BLVD INGLEWOOD CA 90305,False,Locality wide location,False,-118.32588,33.94956
CENTINELA ELEMENTARY SCHOOL - MULTI-PURPOSE ROOM,1123 N MARLBOROUGH AVE INGLEWOOD CA 90302,False,Locality wide location,False,-118.34715,33.97755
CENTRAL CITY NEIGHBORHOOD PARTNERS - ATRIUM,501 S BIXEL STREET LOS ANGELES CA 90017,False,Locality wide location,False,-118.26182,34.05488
CENTRAL LUTHERAN CHURCH - FELLOWSHIP HALL,6425 TYRONE AVE VAN NUYS CA 91401,False,Locality wide location,False,-118.44466,34.18713
CENTRO DE VIDA VICTORIOSA - MAIN HALLWAY,715 BRADY AVE LOS ANGELES CA 90022,False,Locality wide location,False,-118.13762,34.01819
CENTURY VILLAGES AT CABRILLO - SOCIAL HALL,2001 RIVER AVE LONG BEACH CA 90810,False,Locality wide location,False,-118.22246,33.7923
CESAR CHAVEZ ALTERNATIVE SCHOOL - MULTI-PURPOSE ROOM,12501 WILMINGTON AVE COMPTON CA 90222,False,Locality wide location,False,-118.24106,33.91889
CESAR CHAVEZ ELEMENTARY SCHOOL - MULTI-PURPOSE ROOM,12110 WALNUT ST NORWALK CA 90650,False,Locality wide location,False,-118.07482,33.90342
CESAR E CHAVEZ PARK - SOCIAL HALL,401 GOLDEN AVE LONG BEACH CA 90802,False,Locality wide location,False,-118.20231,33.77173
CHAPARRAL MIDDLE SCHOOL - MULTI-PURPOSE ROOM,1405 SPRUCE TREE DR DIAMOND BAR CA 91765,False,Locality wide location,False,-117.81976,33.99591
CHARLES KIM ELEMENTARY SCHOOL - MULTI-PURPOSE ROOM,225 S OXFORD AVE LOS ANGELES CA 90004,False,Locality wide location,False,-118.30826,34.07027
CHEVY CHASE BRANCH LIBRARY - MAIN ROOM,3301 E CHEVY CHASE DR GLENDALE CA 91206,False,Locality wide location,False,-118.20007,34.17382
CHEVY CHASE COUNTRY CLUB - CYPRESS HALL,3067 E CHEVY CHASE DR GLENDALE CA 91206,False,Locality wide location,False,-118.20332,34.17191
CHIMBOLE CULTURAL CENTER - MANZANITA BALLROOM,38350 SIERRA HWY PALMDALE CA 93550,False,Locality wide location,False,-118.1162,34.57868
CHRIST TEMPLE CHURCH - FELLOWSHIP HALL,3125 W 54TH ST LOS ANGELES CA 90043,False,Locality wide location,False,-118.32789,33.99334
CHRIST THE GOOD SHEPHERD CHURCH - PARISH HALL,3303 W VERNON AVE LOS ANGELES CA 90008,False,Locality wide location,False,-118.32962,34.0042
CHRIST THE KING SCHOOL - PARISH HALL,617 N ARDEN BLVD LOS ANGELES CA 90004,False,Locality wide location,False,-118.32642,34.08221
CHRISTIAN LIFE CHURCH - FELLOWSHIP HALL,3400 PACIFIC AVE LONG BEACH CA 90807,False,Locality wide location,False,-118.19336,33.81939
CHRISTIAN SCIENCE CHURCH-MALIBU - SUNDAY SCHOOL BUILDING,28635 PACIFIC COAST HWY MALIBU CA 90265,False,Locality wide location,False,-118.79602,34.021
CITIZENS OF ZION MISSIONARY CHURCH - FELLOWSHIP HALL,12930 S LIME AVE LOS ANGELES CA 90059,False,Locality wide location,False,-118.1926,33.90421
CITY OF REFUGE - LOBBY,14527 SAN PEDRO ST GARDENA CA 90248,False,Locality wide location,False,-118.26929,33.89928
CLAREMONT CENTER FOR SPIRITUAL LIVING - HOLMES SOCIAL HALL,509 S COLLEGE AVE CLAREMONT CA 91711,False,Locality wide location,False,-117.71576,34.08627
CLAREMONT HELEN RENWICK LIBRARY - MEETING ROOM 1 & 2,208 N HARVARD AVE CLAREMONT CA 91711,False,Locality wide location,False,-117.71603,34.09589
CLARK BUILDING - CLARK ROOM,861 VALLEY DR HERMOSA BEACH CA 90254,False,Locality wide location,False,-118.39483,33.86101
CLOVERLY ELEMENTARY SCHOOL - CAFETERIA,5476 CLOVERLY AVE TEMPLE CITY CA 91780,False,Locality wide location,False,-118.06192,34.09936
COLLEGE OF THE CANYONS - EAST GYMNASIUM,26455 ROCKWELL CANYON RD SANTA CLARITA CA 91355,False,Locality wide location,False,-118.57059,34.40438
COLUMBIA COLLEGE HOLLYWOOD - OUTDOOR - PARKING LOT,18618 W OXNARD ST TARZANA CA 91356,False,Locality wide location,False,-118.5389,34.17946
COLUMBIA ELEMENTARY SCHOOL - MULTI-PURPOSE ROOM HALL 123,3400 CALIFORNIA AVE EL MONTE CA 91731,False,Locality wide location,False,-118.03423,34.07134
COLUMBUS MIDDLE SCHOOL - LIBRARY,22250 ELKWOOD ST CANOGA PARK CA 91304,False,Locality wide location,False,-118.61176,34.21239
COMMUNITY CHRISTIAN CHURCH - COFFEE HOUSE,10193 TUJUNGA CANYON BLVD TUJUNGA CA 91042,False,Locality wide location,False,-118.29078,34.25104
COMMUNITY CHURCH OF LOS ANGELES - FELLOWSHIP HALL,10611 S HOOVER ST LOS ANGELES CA 90044,False,Locality wide location,False,-118.28728,33.9395
COMPTON COLLEGE - GYMNASIUM,1111 E ARTESIA BLVD COMPTON CA 90221,False,Locality wide location,False,-118.20983,33.87748
COOLIDGE ELEMENTARY SCHOOL - CAFETERIA,421 N MISSION DR SAN GABRIEL CA 91775,False,Locality wide location,False,-118.11252,34.10955
CORTADA ELEMENTARY SCHOOL - MULTI-PURPOSE ROOM,3111 POTRERO AVE EL MONTE CA 91733,False,Locality wide location,False,-118.05728,34.06468
CORTEZ PARK COMMUNITY & SENIOR CENTER - NORTH WING,2501 E CORTEZ ST WEST COVINA CA 91791,False,Locality wide location,False,-117.89149,34.06495
CORVALLIS MIDDLE SCHOOL - MULTI-PURPOSE ROOM,11032 LEFFINGWELL RD NORWALK CA 90650,False,Locality wide location,False,-118.09725,33.90635
COURTYARD BY MARRIOTT LA - WEST SIDE - PALISADES ROOM,6333 BRISTOL PARKWAY CULVER CITY CA 90230,False,Locality wide location,False,-118.39235,33.98177
COURTYARD THOUSAND OAKS AGOURA HILLS - OCASO BALL ROOM,29505 AGOURA RD AGOURA HILLS CA 91301,False,Locality wide location,False,-118.76807,34.14581
"COVINA SENIOR & COMMUNITY CENTER - CALIFORNIA ROOMS 1, 2 & 3",815 N BARRANCA AVE COVINA CA 91723,False,Locality wide location,False,-117.88137,34.09427
COVINA WOMANS CLUB - HALL,128 S SAN JOSE AVE COVINA CA 91723,False,Locality wide location,False,-117.88302,34.08528
CRENSHAW HIGH SCHOOL - SOUTH SIDE GYMNASIUM,5010 11TH AVE LOS ANGELES CA 90043,False,Locality wide location,False,-118.32894,33.99696
CRESCENTA VALLEY HIGH SCHOOL - VARSITY GYMNASIUM,2900 COMMUNITY AVE LA CRESCENTA CA 91214,False,Locality wide location,False,-118.24321,34.22382
CROWTHER TEEN & FAMILY CENTER - GYMNASIUM,241 W DAWSON AVE GLENDORA CA 91741,False,Locality wide location,False,-117.86664,34.11846
CROZIER MIDDLE SCHOOL - GYMNASIUM,120 W REGENT ST INGLEWOOD CA 90301,False,Locality wide location,False,-118.35613,33.96361
CULVER CITY JULIAN DIXON LIBRARY - HOMEWORK CENTER AND MEETING R,4975 OVERLAND AVE CULVER CITY CA 90230,False,Locality wide location,False,-118.39707,34.00762
CURTISS MIDDLE SCHOOL - GYMNASIUM,1254 E HELMICK ST CARSON CA 90746,False,Locality wide location,False,-118.2508,33.85138
CYRUS J MORRIS ELEMENTARY SCHOOL - MULTI-PURPOSE ROOM,19875 E CALLE BAJA DR WALNUT CA 91789,False,Locality wide location,False,-117.86786,34.01233
D D JOHNSTON ELEMENTARY SCHOOL - MULTI-PURPOSE ROOM,13421 FAIRFORD AVE NORWALK CA 90650,False,Locality wide location,False,-118.09581,33.90878
DAE HUENG KOREAN PRESBYTERIAN CHURCH - GARAGE WAREHOUSE,15411 S FIGUEROA ST GARDENA CA 90248,False,Locality wide location,False,-118.28363,33.8913
DAN DIAZ RECREATION CENTER - GYMNASIUM,16053 CALLE DE PASEO IRWINDALE CA 91706,False,Locality wide location,False,-117.93268,34.10406
DANA MIDDLE SCHOOL - MULTI-PURPOSE ROOM,5504 W 135TH ST HAWTHORNE CA 90250,False,Locality wide location,False,-118.3771,33.908
DANIEL WEBSTER MIDDLE SCHOOL - MULTI-PURPOSE ROOM,11330 GRAHAM PL LOS ANGELES CA 90064,False,Locality wide location,False,-118.43479,34.02985
DAPPLE GRAY ELEMENTARY SCHOOL - MULTI-PURPOSE ROOM,3011 PALOS VERDES DR N ROLLING HILLS ESTATES CA 90274,False,Locality wide location,False,-118.33817,33.77409
DARBY PARK - GYMNASIUM,3400 W ARBOR VITAE ST INGLEWOOD CA 90305,False,Locality wide location,False,-118.32936,33.95516
DEBBIE ALLEN DANCE ACADEMY - ROOM BG AND ROOM WA,3791 SANTA ROSALIA DR LOS ANGELES CA 90008,False,Locality wide location,False,-118.33844,34.01123
DEL AIRE PARK - GYMNASIUM,12601 ISIS AVE HAWTHORNE CA 90250,False,Locality wide location,False,-118.37549,33.91781
DEL RECORDS/ SONY MUSIC LATIN - MAIN BUILDING,6400 GARFIELD AVE BELL GARDENS CA 90201,False,Locality wide location,False,-118.14692,33.97328
DESTINY CHRISTIAN CENTER INTERNATIONAL - ADMEN ROOM,44628 10TH ST W LANCASTER CA 93534,False,Locality wide location,False,-118.14739,34.69443
DIAMOND BAR CENTER - GRAND BALLROOM,1600 GRAND AVE DIAMOND BAR CA 91765,False,Locality wide location,False,-117.79771,33.99867
DIAMOND BAR CITY HALL - WINDMILL ROOM,21810 COPLEY DR DIAMOND BAR CA 91765,False,Locality wide location,False,-117.83053,33.99918
DIAMOND BAR HIGH SCHOOL - GYMNASIUM,21400 PATHFINDER RD DIAMOND BAR CA 91765,False,Locality wide location,False,-117.84055,33.9797
DISABLED AMERICAN VETERANS #73 - MEETING ROOM,6543 CORBIN AVE WOODLAND HILLS CA 91367,False,Locality wide location,False,-118.56416,34.18999
"DOCKWEILER YOUTH CENTER - COMMUNITY ROOMS A, B AND C",12505 VISTA DEL MAR PLAYA DEL REY CA 90293,False,Locality wide location,False,-118.43188,33.9224
DODGER STADIUM - OUTDOOR - UPPER DECK,1000 VIN SCULLY AVE LOS ANGELES CA 90012,False,Locality wide location,False,-118.24571,34.07177
DOLLARHIDE HEALTH CENTER - COMPTON YOUTH,1108 N OLEANDER AVE COMPTON CA 90222,False,Locality wide location,False,-118.22973,33.90375
DOMINGUEZ ELEMENTARY SCHOOL - MULTI-PURPOSE ROOM,21250 S SANTA FE AVE CARSON CA 90810,False,Locality wide location,False,-118.21463,33.8358
DOUBLETREE BY HILTON LA DOWNTOWN - GOLDEN BALLROOM & CALIFORNIA,120 S LOS ANGELES ST LOS ANGELES CA 90012,False,Locality wide location,False,-118.24261,34.05055
DOUBLETREE BY HILTON LAX - EL SEGUNDO - PACIFIC BALLROOM,1985 E GRAND AVE EL SEGUNDO CA 90245,False,Locality wide location,False,-118.3918,33.91978
DOUBLETREE SAN PEDRO PORT OF LA - MADEO BALLROOM,2800 VIA CABRILLO-MARINA SAN PEDRO CA 90731,False,Locality wide location,False,-118.28203,33.71802
DR RONALD E MCNAIR ELEMENTARY - MULTI-PURPOSE ROOM,1450 W EL SEGUNDO BLVD COMPTON CA 90221,False,Locality wide location,False,-118.24791,33.91534
DRAKE PARK - SOCIAL HALL,951 MAINE AVE LONG BEACH CA 90813,False,Locality wide location,False,-118.20135,33.77811
DUARTE HIGH SCHOOL - GYMNASIUM,1565 E CENTRAL AVE DUARTE CA 91010,False,Locality wide location,False,-117.97062,34.1365
DURFEE ELEMENTARY SCHOOL - CAFE / AUDITORIUM & STAFF ROOM,4220 DURFEE AVE PICO RIVERA CA 90660,False,Locality wide location,False,-118.07404,34.01186
E RANCHO DOMINGUEZ COMM CENTER AND PARK - GYMNASIUM,15116 S ATLANTIC AVE COMPTON CA 90221,False,Locality wide location,False,-118.19264,33.8955
E WHITTIER UNITED METHODIST CHURCH - GREER HALL,10005 COLE RD WHITTIER CA 90603,False,Locality wide location,False,-118.00585,33.94635
EAGLE ROCK ELEMENTARY SCHOOL - MULTI-PURPOSE ROOM,2057 FAIR PARK AVE LOS ANGELES CA 90041,False,Locality wide location,False,-118.21314,34.13641
EAGLE ROCK PLAZA - ROOM 108,2700 COLORADO BLVD LOS ANGELES CA 90041,False,Locality wide location,False,-118.22499,34.14095
EAGLE ROCK RECREATION CENTER - GYMNASIUM,1100 EAGLE VISTA DR LOS ANGELES CA 90041,False,Locality wide location,False,-118.18918,34.14266
EAST LA RISING YOUTH CLUB - GYMNASIUM,324 N MCDONNELL AVE LOS ANGELES CA 90022,False,Locality wide location,False,-118.16631,34.03933
EAST LOS ANGELES COLLEGE - MUSIC BLDG - ROOM 121,1301 AVE CESAR CHAVEZ MONTEREY PARK CA 91754,False,Locality wide location,False,-118.15097,34.04109
EAST LOS ANGELES COLLEGE - MUSIC BLDG - ROOM 121,1301 AVE CESAR CHAVEZ MONTEREY PARK CA 91754,True,Locality wide location,False,-118.15097,34.04109
EAST LOS ANGELES LIBRARY - MEETING ROOM AND CHILDREN AREA/LOBBY,4837 E 3RD ST LOS ANGELES CA 90022,False,Locality wide location,False,-118.15972,34.03399
EAST WHITTIER MIDDLE SCHOOL - GYMNASIUM,14421 WHITTIER BLVD WHITTIER CA 90605,False,Locality wide location,False,-118.01621,33.95534
"EASTMONT COMMUNITY CENTER-RM A,B,C",701 HOEFNER AVE LOS ANGELES CA 90022,False,Locality wide location,False,-118.15017,34.02101
EASTSIDE HIGH SCHOOL - GYMNASIUM,3200 E AVENUE J8 LANCASTER CA 93535,False,Locality wide location,False,-118.07102,34.68149
ECHO COMMUNITY CENTER - GYMNASIUM,313 PATTON ST LOS ANGELES CA 90026,False,Locality wide location,False,-118.25932,34.06557
EDGEWOOD ACADEMY ELEMENTARY SCHOOL - CAFETERIA,14135 FAIRGROVE AVE LA PUENTE CA 91746,False,Locality wide location,False,-117.96634,34.0563
EL CAMINO COMMUNITY COLLEGE - EAST DINING ROOM,16007 CRENSHAW BLVD TORRANCE CA 90506,False,Locality wide location,False,-118.32821,33.88516
EL CAMINO HIGH SCHOOL - MULTI-PURPOSE ROOM,14625 KEESE DR WHITTIER CA 90604,False,Locality wide location,False,-118.01996,33.91986
EL CAMINO REAL CHARTER HIGH SCHOOL - ANDERSON HALL,5440 VALLEY CIRCLE BLVD WOODLAND HILLS CA 91367,False,Locality wide location,False,-118.64315,34.17016
EL HUSSEIN COMMUNITY CENTER - YOUTH CENTER,4313 GAGE AVE BELL CA 90201,False,Locality wide location,False,-118.19098,33.97868
EL MONTE COMMUNITY CENTER - GRACE T BLACK AUDITORIUM,3130 TYLER AVE EL MONTE CA 91731,False,Locality wide location,False,-118.03535,34.06559
EL MONTE STATION (LA METRO) - RETAIL SPACE,3501 SANTA ANITA AVE EL MONTE CA 91731,False,Locality wide location,False,-118.04395,34.07244
EL ROBLE INTERMEDIATE SCHOOL - MULTI-PURPOSE ROOM,665 N MOUNTAIN AVE CLAREMONT CA 91711,False,Locality wide location,False,-117.73074,34.10021
EL SEGUNDO TEEN CENTER - RECREATION ROOM,405 E GRAND AVE EL SEGUNDO CA 90245,False,Locality wide location,False,-118.41207,33.91975
ELIZABETH LEARNING CENTER - MULTI-PURPOSE ROOM,4811 ELIZABETH ST CUDAHY CA 90201,False,Locality wide location,False,-118.18307,33.96316
ELKS LODGE 2190 - MAIN HALL,20925 OSBORNE ST CANOGA PARK CA 91304,False,Locality wide location,False,-118.58951,34.23342
ELYSIAN MASONIC LODGE - DINING ROOM,1900 N VERMONT AVE LOS ANGELES CA 90027,False,Locality wide location,False,-118.29149,34.1057
ELYSIAN PARK THERAPEUTIC REC CENTER - MULTI-PURPOSE ROOM,929 ACADEMY RD LOS ANGELES CA 90012,False,Locality wide location,False,-118.23772,34.08084
ELYSIAN VALLEY RECREATION CENTER - GYMNASIUM,1811 RIPPLE ST LOS ANGELES CA 90039,False,Locality wide location,False,-118.24503,34.0991
EMBASSY SUITES BY HILTON LAX NORTH - PACIFIC BALLROOM,9801 AIRPORT BLVD LOS ANGELES CA 90045,False,Locality wide location,False,-118.38655,33.94692
EMBASSY SUITES BY HILTON LAX NORTH - PACIFIC BALLROOM,9801 AIRPORT BLVD LOS ANGELES CA 90045,True,Locality wide location,False,-118.38655,33.94692
EMBASSY SUITES BY HILTON LAX SOUTH - VALENCIA/SEVILLA/MADRID BAL,1440 E IMPERIAL HWY EL SEGUNDO CA 90245,False,Locality wide location,False,-118.39594,33.93069
EMERSON MIDDLE SCHOOL - GYMNASIUM,1650 SELBY AVE LOS ANGELES CA 90024,False,Locality wide location,False,-118.43625,34.05404
ENCINITA ELEMENTARY SCHOOL - MULTI-PURPOSE ROOM,4515 ENCINITA AVE ROSEMEAD CA 91770,False,Locality wide location,False,-118.06924,34.08722
ENDEAVOUR MIDDLE SCHOOL - GYMNASIUM,43755 45TH STREET W LANCASTER CA 93536,False,Locality wide location,False,-118.21157,34.67808
ENTERPRISE PARK - GYMNASIUM,13055 CLOVIS AVE LOS ANGELES CA 90059,False,Locality wide location,False,-118.25773,33.9135
EPISCOPAL CHURCH - THE ASCENSION - THE CHURCH HALL,25 E LAUREL AVE SIERRA MADRE CA 91024,False,Locality wide location,False,-118.05179,34.16575
EPOCA HALL - BANQUET HALL,6624 ATLANTIC AVE BELL CA 90201,False,Locality wide location,False,-118.187,33.97573
ERETZ SYNAGOGUE & CULTURAL CENTER - ERETZ BALLROOM,6170 WILBUR AVE TARZANA CA 91335,False,Locality wide location,False,-118.54414,34.18233
ERNEST MCBRIDE PARK & CAL REC COMM CTR - GYMNASIUM,1550 MARTIN LUTHER KING JR AVE LONG BEACH CA 90813,False,Locality wide location,False,-118.18033,33.78677
ESHELMAN AVENUE ELEMENTARY SCHOOL - AUDITORIUM,25902 ESHELMAN AVE LOMITA CA 90717,False,Locality wide location,False,-118.31354,33.78778
ESPERANZA ELEMENTARY SCHOOL - MULTI-PURPOSE ROOM,680 LITTLE ST LOS ANGELES CA 90017,False,Locality wide location,False,-118.27226,34.05494
ESTELLE VAN METER MULTI-PURPOSE CENTER - MULTI-PURPOSE ROOM,7600 S AVALON BLVD LOS ANGELES CA 90001,False,Locality wide location,False,-118.26488,33.97096
ESTRELLA ELEMENTARY SCHOOL - MULTI-PURPOSE ROOM,120 E 57TH ST LOS ANGELES CA 90011,False,Locality wide location,False,-118.2734,33.99048
EXPO CENTER - LOBBY AND AFTER SCHOOL ROOM,3980 BILL ROBERTSON LN LOS ANGELES CA 90037,False,Locality wide location,False,-118.28948,34.01226
FAIRFAX SENIOR CITIZEN CENTER - AUDITORIUM,7929 MELROSE AVE LOS ANGELES CA 90046,False,Locality wide location,False,-118.36231,34.08402
FAIRGROVE ACADEMY - CAFETERIA,15540 FAIRGROVE AVE LA PUENTE CA 91744,False,Locality wide location,False,-117.94555,34.04032
FAIRPLEX - CLUB 1,1101 W MCKINLEY AVE POMONA CA 91768,False,Locality wide location,False,-117.76796,34.08581
FAITH IN CHRIST MINISTRIES - COMMUNITY ROOM,4501 S WESTERN AVE LOS ANGELES CA 90062,False,Locality wide location,False,-118.30916,34.00266
FAITHFUL CENTRAL BIBLE CHURCH - SANCTUARY,333 W FLORENCE AVE INGLEWOOD CA 90301,False,Locality wide location,False,-118.36131,33.96577
FAME RENAISSANCE CENTER - MEDIA CENTER A&B,1968 W ADAMS BLVD LOS ANGELES CA 90018,False,Locality wide location,False,-118.30813,34.03245
FELICIA MAHOOD MULTIPURPOSE CENTER - AUDITORIUM,11338 SANTA MONICA BLVD LOS ANGELES CA 90025,False,Locality wide location,False,-118.44969,34.04576
FELICITAS & GONZALO MENDEZ HIGH SCHOOL - MULTI-PURPOSE ROOM,1200 PLAZA DEL SOL E LOS ANGELES CA 90033,False,Locality wide location,False,-118.22703,34.04852
FIRST BAPTIST CHURCH - CALHOUN HALL,28 MOCCASIN LN ROLLING HILLS ESTATES CA 90274,False,Locality wide location,False,-118.35437,33.78734
FIRST UMC SAN FERNANDO - FRIENDSHIP HALL,1525 GLENOAKS BLVD SAN FERNANDO CA 91340,False,Locality wide location,False,-118.43324,34.29452
FIRST UNITED METHODIST CHURCH - GREAT HALL,500 E COLORADO BLVD PASADENA CA 91101,False,Locality wide location,False,-118.14011,34.14522
FLORENCE AVENUE FOURSQUARE CHURCH - FELLOWSHIP HALL,11457 FLORENCE AVE SANTA FE SPRINGS CA 90670,False,Locality wide location,False,-118.08835,33.9357
FOISIA PARK - GYMNASIUM,23410 CATSKILL AVE CARSON CA 90745,False,Locality wide location,False,-118.26985,33.81465
FORMER FIRE STATION-1 - APPARATUS ROOM,1444 7TH ST SANTA MONICA CA 90401,False,Locality wide location,False,-118.49158,34.01766
FOSTER ELEMENTARY SCHOOL - CAFETERIA,13900 FOSTER AVE BALDWIN PARK CA 91706,False,Locality wide location,False,-117.97236,34.07164
FOUNDERS HALL - BEHIND THE LIBRARY,200 CIVIC CENTER WAY CALABASAS CA 91302,False,Locality wide location,False,-118.64658,34.15259
FOUR POINTS BY SHERATON LA WESTSIDE - MARINA BALLROOM/FOYER,5990 GREEN VALLEY CIR CULVER CITY CA 90230,False,Locality wide location,False,-118.39363,33.98314
FOUR POINTS BY SHERATON LAX - SAN DIEGO BALLROOM,9750 AIRPORT BLVD LOS ANGELES CA 90045,False,Locality wide location,False,-118.38482,33.94759
FOUR SEASONS WESTLAKE VILLAGE - SOUND STAGE,2 DOLE DR WESTLAKE VILLAGE CA 91362,False,Locality wide location,False,-118.80487,34.15107
FRANK D PARENT ELEMENTARY SCHOOL - MULTI-PURPOSE ROOM,5354 W 64TH ST INGLEWOOD CA 90302,False,Locality wide location,False,-118.3753,33.98234
FRANK DEL OLMO ELEMENTARY SCHOOL - MULTI-PURPOSE ROOM,100 N NEW HAMPSHIRE AVE LOS ANGELES CA 90004,False,Locality wide location,False,-118.29254,34.073
FRANKLIN D ROOSEVELT PARK - GYMNASIUM,7600 GRAHAM AVE LOS ANGELES CA 90001,False,Locality wide location,False,-118.24283,33.96976
FRANKLIN ELEMENTARY SCHOOL - AUDITORIUM,527 VENTURA ST ALTADENA CA 91001,False,Locality wide location,False,-118.16075,34.19299
FRANKLIN ELEMENTARY SCHOOL - CAFETORIUM,2400 MONTANA AVE SANTA MONICA CA 90403,False,Locality wide location,False,-118.48504,34.03914
FREMONT HIGH SCHOOL - GYMNASIUM,7676 S SAN PEDRO ST LOS ANGELES CA 90003,False,Locality wide location,False,-118.26719,33.9696
FRIENDSHIP AUDITORIUM - FRIENDSHIP AUDITORIUM,3201 RIVERSIDE DR LOS ANGELES CA 90027,False,Locality wide location,False,-118.2686,34.11394
FRIES AVENUE ELEMENTARY SCHOOL - AUDITORIUM,1301 N FRIES AVE WILMINGTON CA 90744,False,Locality wide location,False,-118.2666,33.78833
GAHR HIGH SCHOOL - MULTI-PURPOSE ROOM,11111 ARTESIA BLVD CERRITOS CA 90703,False,Locality wide location,False,-118.0937,33.87375
GANESHA HIGH SCHOOL - GYMNASIUM,1151 FAIRPLEX DR POMONA CA 91768,False,Locality wide location,False,-117.79015,34.0672
GAREY HIGH SCHOOL - GYMNASIUM,321 W LEXINGTON AVE POMONA CA 91766,False,Locality wide location,False,-117.75186,34.03858
GARVEY CENTER - BANQUET ROOM,9108 GARVEY AVE ROSEMEAD CA 91770,False,Locality wide location,False,-118.07048,34.06171
GEORGE K PORTER MIDDLE SCHOOL - LIBRARY,15960 KINGSBURY ST GRANADA HILLS CA 91344,False,Locality wide location,False,-118.48074,34.26272
GEORGE LANE PARK - COMMUNITY ROOM,5520 W AVENUE L8 LANCASTER CA 93536,False,Locality wide location,False,-118.22872,34.65164
GEORGE NAKANO THEATER - THEATER,3330 TORRANCE BLVD TORRANCE CA 90503,False,Locality wide location,False,-118.34418,33.83702
GEORGE WASHINGTON PREP HIGH SCHOOL - 2ND GYM (BOYS GYM),10860 S DENKER AVE LOS ANGELES CA 90047,False,Locality wide location,False,-118.30431,33.93714
GIDLEY ELEMENTARY SCHOOL - CAFETERIA,10226 LOWER AZUSA RD EL MONTE CA 91731,False,Locality wide location,False,-118.04329,34.09121
GLASSELL PARK RECREATION CENTER - AUDITORIUM,3650 VERDUGO RD LOS ANGELES CA 90065,False,Locality wide location,False,-118.23352,34.11597
GLEN A WILSON HIGH SCHOOL - CAFETERIA,16455 WEDGEWORTH DR HACIENDA HEIGHTS CA 91745,False,Locality wide location,False,-117.93703,33.99767
GLEN OAK ELEMENTARY SCHOOL - MULTI-USE ROOM,1000 N SUNFLOWER AVE COVINA CA 91724,False,Locality wide location,False,-117.84619,34.09815
GLENDALE CHURCH OF CHRIST - MULTI-PURPOSE ROOM,2021 W GLENOAKS BLVD GLENDALE CA 91201,False,Locality wide location,False,-118.29592,34.17612
GLENDALE EXPRESS HOTEL - GRAND BALLROOM,450 W PIONEER DR GLENDALE CA 91203,False,Locality wide location,False,-118.26353,34.15491
GLENDALE HIGH SCHOOL - AUDITORIUM-PERFORMING ARTS CENTER,1440 E BROADWAY GLENDALE CA 91205,False,Locality wide location,False,-118.23192,34.14569
GLENDALE POLICE DEPARTMENT - POLICE COMMUNITY CENTER,131 N ISABEL ST GLENDALE CA 91206,False,Locality wide location,False,-118.24918,34.14749
GLENDALE YOUTH CENTER - MAIN ROOM AND WAITING ROOM,211 W CHESTNUT ST GLENDALE CA 91204,False,Locality wide location,False,-118.25701,34.13951
GLENDORA UNITED METHODIST CHURCH - DINING ROOM,201 E BENNETT AVE GLENDORA CA 91741,False,Locality wide location,False,-117.86379,34.13995
GOLDEN POPPY ELEMENTARY SCHOOL - LIBRARY,37802 ROCKIE LN PALMDALE CA 93552,False,Locality wide location,False,-118.01852,34.5695
GOOD SHEPHERD MBC OF LA - FELLOWSHIP HALL,510 W 53RD ST LOS ANGELES CA 90037,False,Locality wide location,False,-118.28311,33.994
GOODWILL COMMUNITY ENRICHMENT CENTER - COMMUNITY CENTER,3150 N SAN FERNANDO RD LOS ANGELES CA 90065,False,Locality wide location,False,-118.24846,34.11525
GOODWILL SOUTHERN CALIFORNIA - COMMUNITY ROOM,14565 LANARK ST PANORAMA CITY CA 91402,False,Locality wide location,False,-118.45147,34.21833
GRACE BAPTIST CHURCH - JR HIGH ROOM,22833 COPPER HILL DR SANTA CLARITA CA 91350,False,Locality wide location,False,-118.53781,34.4619
GRACE UNITED METHODIST CHURCH - FELLOWSHIP HALL,4112 W SLAUSON AVE LOS ANGELES CA 90043,False,Locality wide location,False,-118.34633,33.98865
GRANADA PARK - GYMNASIUM,2000 W HELLMAN AVE ALHAMBRA CA 91803,False,Locality wide location,False,-118.14555,34.0677
GRAND CENTRAL MARKET - BASEMENT,317 S BROADWAY LOS ANGELES CA 90013,False,Locality wide location,False,-118.24933,34.05105
GRANDVIEW COLLEGE PREPARATORY ACADEMY - CAFETERIA,795 GRANDVIEW LN S LA PUENTE CA 91744,False,Locality wide location,False,-117.92443,34.03189
GRANT ELEMENTARY SCHOOL - AUDITORIUM,2368 PEARL ST SANTA MONICA CA 90405,False,Locality wide location,False,-118.46201,34.01828
GRANT ELEMENTARY SCHOOL LAUSD - AUDITORIUM,1530 N WILTON PL LOS ANGELES CA 90028,False,Locality wide location,False,-118.31326,34.09982
GRATTS ELEMENTARY SCHOOL - MULTI-PURPOSE ROOM,309 LUCAS AVE LOS ANGELES CA 90017,False,Locality wide location,False,-118.2632,34.05759
GRAZIDE ELEMENTARY SCHOOL - CAFETERIA,2850 LEOPOLD AVE HACIENDA HEIGHTS CA 91745,False,Locality wide location,False,-117.96176,33.98327
GREAT COMMISSION WORSHIP CENTER - SANCTUARY AND ANNEX,8644 E AVENUE T LITTLEROCK CA 93543,False,Locality wide location,False,-117.97565,34.54247
H&H JIVALAGIAN YOUTH CENTER - YOUTH CENTER,2242 E FOOTHILL BLVD PASADENA CA 91107,False,Locality wide location,False,-118.10411,34.14889
HACIENDA - LA PUENTE USD OFFICE - LA PUENTE CONFERENCE ROOM,15959 E GALE AVE CITY OF INDUSTRY CA 91745,False,Locality wide location,False,-117.95863,34.01006
HACIENDA HEIGHTS COMM AND REC CENTER - AUDITORIUM,1234 VALENCIA AVE HACIENDA HEIGHTS CA 91745,False,Locality wide location,False,-117.97889,34.01304
HACIENDA PARK - GYMNASIUM,1885 HACIENDA RD LA HABRA HEIGHTS CA 90631,False,Locality wide location,False,-117.95872,33.95771
HAMILTON ADULT SCHOOL - MULTI-PURPOSE ROOM,2606 W 182ND ST TORRANCE CA 90504,False,Locality wide location,False,-118.32241,33.86484
HAMMER MUSEUM - NIMOY STUDIO,10899 WILSHIRE BLVD LOS ANGELES CA 90024,False,Locality wide location,False,-118.44367,34.05912
HARRISON ELEMENTARY SCHOOL - AUDITORIUM,3529 CITY TERRACE DR LOS ANGELES CA 90063,False,Locality wide location,False,-118.18897,34.05379
HASKELL STEM ACADEMY - MULTI-PURPOSE ROOM,11525 DEL AMO BLVD CERRITOS CA 90703,False,Locality wide location,False,-118.08691,33.8467
HAWTHORNE HIGH SCHOOL - GYMNASIUM,4859 W EL SEGUNDO BLVD HAWTHORNE CA 90250,False,Locality wide location,False,-118.36295,33.91731
HAWTHORNE LIBRARY - MEETING ROOM AND MAIN ROOM,12700 GREVILLEA AVE HAWTHORNE CA 90250,False,Locality wide location,False,-118.3545,33.91721
HENNING YOUTH CENTER - GYMNASIUM,11409 BIRCH ST LYNWOOD CA 90262,False,Locality wide location,False,-118.20574,33.92674
HERMOSA BEACH COMMUNITY CENTER - GYMNASIUM,710 PIER AVE HERMOSA BEACH CA 90254,False,Locality wide location,False,-118.39399,33.86419
HERMOSA VALLEY SCHOOL - GYMNASIUM,1645 VALLEY DR HERMOSA BEACH CA 90254,False,Locality wide location,False,-118.3977,33.86618
HIGH DESERT SCHOOL - GYMNASIUM/MULTI-PURPOSE ROOM,3620 ANTELOPE WOODS RD ACTON CA 91350,False,Locality wide location,False,-118.19484,34.49031
HIGHER VISION CHURCH - MULTI-PURPOSE ROOM,28776 THE OLD RD VALENCIA CA 91355,False,Locality wide location,False,-118.60469,34.44152
HILLCREST ELEMENTARY SCHOOL - CAFETERIA,795 PEPPER ST MONTEREY PARK CA 91755,False,Locality wide location,False,-118.10896,34.04712
HILLVIEW MIDDLE SCHOOL - PALMDALE GYM,40525 PEONZA LN PALMDALE CA 93551,False,Locality wide location,False,-118.2117,34.62005
HILTON LA NORTH/GLENDALE & EXEC CTR - GLENDALE BALLROOM,100 W GLENOAKS BLVD GLENDALE CA 91202,False,Locality wide location,False,-118.25604,34.1587
HOLLINGWORTH ELEMENTARY SCHOOL - MULTI-PURPOSE ROOM,3003 E HOLLINGWORTH ST LOS ANGELES CA 91792,False,Locality wide location,False,-117.87922,34.00762
HOLLYDALE COMMUNITY CENTER - HALL,12221 INDUSTRIAL AVE SOUTH GATE CA 90280,False,Locality wide location,False,-118.1644,33.91621
HOLLYWOOD BOWL - OUTDOOR - PARKING LOT B,2301 N HIGHLAND AVE LOS ANGELES CA 90068,False,Locality wide location,False,-118.33729,34.11188
HOLLYWOOD HOTEL - BALLROOM,1160 N VERMONT AVE LOS ANGELES CA 90029,False,Locality wide location,False,-118.29144,34.09304
HOLLYWOOD PALLADIUM-1 - MAIN FLOOR,6215 SUNSET BLVD LOS ANGELES CA 90028,False,Locality wide location,False,-118.32414,34.09846
HOLLYWOOD PANTAGES THEATRE - GRAND LOBBY,6233 HOLLYWOOD BLVD LOS ANGELES CA 90028,False,Locality wide location,False,-118.32576,34.10193
HOLLYWOOD PARK - NFL CONFERENCE ROOM,1000 S PRAIRIE AVE INGLEWOOD CA 90301,False,Locality wide location,False,-118.34362,33.94967
"HOLLYWOOD PRODUCTION CENTER - UNIT 401, 4TH FLOOR",121 W LEXINGTON DR LOS ANGELES CA 91203,False,Locality wide location,False,-118.256,34.15196
HOLLYWOOD RECREATION CENTER - GYM,1122 COLE AVE LOS ANGELES CA 90038,False,Locality wide location,False,-118.32958,34.09183
HOLY ANGELS CHURCH OF THE DEAF - FELLOWSHIP HALL,4433 S SANTA FE AVE VERNON CA 90058,False,Locality wide location,False,-118.23057,34.00293
HOPE COMMUNITY CHURCH - CHURCH BASEMENT,1429 CLARK AVE LONG BEACH CA 90815,False,Locality wide location,False,-118.13444,33.78623
HORACE MANN ELEMENTARY SCHOOL - MULTI-PURPOSE ROOM,8701 CHARLEVILLE BLVD BEVERLY HILLS CA 90211,False,Locality wide location,False,-118.38212,34.06538
HOT AND COOL CAFE - CAFE,4331 DEGNAN BLVD LOS ANGELES CA 90008,False,Locality wide location,False,-118.33165,34.0051
HOTEL FIGUEROA - GRAN SALA AND LOBBY,939 S FIGUEROA ST LOS ANGELES CA 90015,False,Locality wide location,False,-118.26401,34.04553
HOUGHTON PARK COMMUNITY CENTER - SOCIAL HALL,6301 MYRTLE AVE LONG BEACH CA 90805,False,Locality wide location,False,-118.18364,33.86864
HUERTA ELEMENTARY SCHOOL - MULTI-PURPOSE ROOM,15415 PIONEER BLVD NORWALK CA 90650,False,Locality wide location,False,-118.08326,33.89084
HUNTINGTON MIDDLE SCHOOL - GYMNASIUM,1700 HUNTINGTON DR SAN MARINO CA 91108,False,Locality wide location,False,-118.11323,34.1178
HYATT REGENCY LAX - JET WAY BALLROOM,6225 W CENTURY BLVD LOS ANGELES CA 90045,False,Locality wide location,False,-118.39559,33.94618
IAC SHEPHER COMMUNITY CENTER - SAIDOFF HALL,6530 WINNETKA AVE WOODLAND HILLS CA 91367,False,Locality wide location,False,-118.57027,34.18972
ICEF VIEW PARK K8 - MULTI-PURPOSE ROOM,5311 CRENSHAW BLVD LOS ANGELES CA 90043,False,Locality wide location,False,-118.33118,33.99436
IGLESIA ADVENTISTA HISPANA - COMMUNITY CENTER,901 E BROADWAY GLENDALE CA 91205,False,Locality wide location,False,-118.24396,34.1465
IGLESIA DE CRISTO CENTRO DE ALABANZA - MAIN ROOM,11105 S WESTERN AVE LOS ANGELES CA 90047,False,Locality wide location,False,-118.30937,33.93366
IMAN CULTURAL CENTER - COMMUNITY ROOM,3376 MOTOR AVE LOS ANGELES CA 90034,False,Locality wide location,False,-118.40951,34.0282
IMMANUEL PRESBYTERIAN CHURCH - GENEVA HALL,3300 WILSHIRE BLVD LOS ANGELES CA 90010,False,Locality wide location,False,-118.29462,34.06124
IMPERIAL COURTS RECREATION CENTER - GYMNASIUM,2250 E 114TH ST LOS ANGELES CA 90059,False,Locality wide location,False,-118.23242,33.93126
IMPRESSIONS BANQUET HALL - BANQUET HALL,212 N ORANGE ST GLENDALE CA 91203,False,Locality wide location,False,-118.25609,34.14866
IN CHRIST COMMUNITY CHURCH - BANQUET HALL/FELLOWSHIP HALL,19514 RINALDI ST NORTHRIDGE CA 91326,False,Locality wide location,False,-118.56056,34.27404
INCARNATION COMMUNITY CENTER - GYMNASIUM,214 W FAIRVIEW AVE GLENDALE CA 91202,False,Locality wide location,False,-118.25803,34.16018
INDEPENDENCE ELEMENTARY SCHOOL - MULTI-PURPOSE ROOM,8435 VICTORIA AVE SOUTH GATE CA 90280,False,Locality wide location,False,-118.21075,33.95958
INGLEWOOD HIGH SCHOOL - GYMNASIUM,231 S GREVILLEA AVE INGLEWOOD CA 90301,False,Locality wide location,False,-118.35542,33.96136
INTERNATIONAL CITY MASONIC CENTER - HALL,5155 PACIFIC COAST HWY LONG BEACH CA 90804,False,Locality wide location,False,-118.13317,33.78372
IOOF BELLFLOWER LODGE #463 - MEETING HALL,15720 CLARK AVE BELLFLOWER CA 90706,False,Locality wide location,False,-118.13362,33.89081
IRANIAN AMERICAN JEWISH FEDERATION - SAPPER HALL,1317 N CRESCENT HEIGHTS BLVD WEST HOLLYWOOD CA 90046,False,Locality wide location,False,-118.36642,34.09483
ISANA ACHERNAR ACADEMY / WILLARD SCHOOL - MULTI-PURPOSE ROOM,310 E EL SEGUNDO BLVD COMPTON CA 90222,False,Locality wide location,False,-118.22255,33.91591
JACKIE ROBINSON PARK - GYMNASIUM,8773 E AVENUE R SUN VILLAGE CA 93543,False,Locality wide location,False,-117.97245,34.57277
JAMES MADISON MIDDLE SCHOOL - MULTI-PURPOSE ROOM,13000 HART ST NORTH HOLLYWOOD CA 91605,False,Locality wide location,False,-118.41626,34.19625
JAMES MONROE HIGH SCHOOL - MULTI-PURPOSE ROOM,9229 HASKELL AVE NORTH HILLS CA 91343,False,Locality wide location,False,-118.4767,34.23876
JANE ADDAMS MIDDLE SCHOOL - GYMNASIUM,4535 W 153RD PL LAWNDALE CA 90260,False,Locality wide location,False,-118.35674,33.8921
JEFF SEYMOUR FAMILY CENTER - MULTI-PURPOSE ROOM,10900 MULHALL ST EL MONTE CA 91731,False,Locality wide location,False,-118.02847,34.08895
JEFFERSON MIDDLE SCHOOL - GYMNASIUM,1372 E LAS TUNAS DR SAN GABRIEL CA 91776,False,Locality wide location,False,-118.07898,34.10151
JELLICK ELEMENTARY SCHOOL - MULTI-PURPOSE B-12,1400 S JELLICK AVE ROWLAND HEIGHTS CA 91748,False,Locality wide location,False,-117.90044,33.99216
JESSE OWENS PARK - GYMNASIUM,9651 S WESTERN AVE LOS ANGELES CA 90047,False,Locality wide location,False,-118.31049,33.94759
JETHAWK STADIUM - OUTDOOR - MAIN GATE PARKING LOT,45116 VALLEY CENTRAL WAY LANCASTER CA 93536,False,Locality wide location,False,-118.17165,34.70259
JF CHEN - MAIN FLOOR,1000 N HIGHLAND AVE HOLLYWOOD CA 90038,False,Locality wide location,False,-118.33807,34.0891
JH HULL MIDDLE SCHOOL - GYMNASIUM,2080 W 231ST ST TORRANCE CA 90501,False,Locality wide location,False,-118.3172,33.81441
JOE WALKER MIDDLE SCHOOL - GYMNASIUM,5632 W AVENUE L8 QUARTZ HILL CA 93536,False,Locality wide location,False,-118.23046,34.65176
JOHN F KENNEDY HIGH SCHOOL - INDOOR DINING ROOM,11254 GOTHIC AVE GRANADA HILLS CA 91344,False,Locality wide location,False,-118.48758,34.27575
JOHN MARSHALL MIDDLE SCHOOL - GYMNASIUM,1921 ARROYO AVE POMONA CA 91768,False,Locality wide location,False,-117.7858,34.06549
JOHN MARSHALL MIDDLE SCHOOL - GYMNASIUM,1921 ARROYO AVE POMONA CA 91768,True,Locality wide location,False,-117.7858,34.06549
JOHN MUIR ELEMENTARY SCHOOL - MULTI-PURPOSE ROOM,2526 6TH ST SANTA MONICA CA 90405,False,Locality wide location,False,-118.4806,34.0057
JOHN MUIR MIDDLE SCHOOL - GYMNASIUM,1111 N KENNETH RD BURBANK CA 91504,False,Locality wide location,False,-118.31154,34.1949
JOOHYANG PRESBYTERIAN CHURCH - GYMNASIUM,3412 W 4TH ST LOS ANGELES CA 90020,False,Locality wide location,False,-118.29345,34.06709
JORDAN DOWNS RECREATION CENTER - OLD GYMNASIUM,9900 GRAPE ST LOS ANGELES CA 90002,False,Locality wide location,False,-118.23644,33.94613
JOSLYN COMMUNITY CENTER - AUDITORIUM,1601 N VALLEY DR MANHATTAN BEACH CA 90266,False,Locality wide location,False,-118.41016,33.88891
JUAN CABRILLO ELEMENTARY SCHOOL - MULTI-PURPOSE ROOM,30237 MORNING VIEW DR MALIBU CA 90265,False,Locality wide location,False,-118.82868,34.02487
JUAN DE ANZA ELEMENTARY SCHOOL - MULTI-PURPOSE ROOM,12110 HINDRY AVE HAWTHORNE CA 90250,False,Locality wide location,False,-118.3715,33.92247
JUAREZ ACADEMY OF ENGINEERING & TECH - MULTI-PURPOSE ROOM,11939 ACLARE ST CERRITOS CA 90703,False,Locality wide location,False,-118.0782,33.87505
KATY GEISSERT CIVIC CENTER LIBRARY - MEETING ROOM,3301 TORRANCE BLVD TORRANCE CA 90503,False,Locality wide location,False,-118.34318,33.83781
KELSO ELEMENTARY SCHOOL - MULTI-PURPOSE ROOM,809 E KELSO ST INGLEWOOD CA 90301,False,Locality wide location,False,-118.34498,33.95706
KEN MILLER RECREATION CENTER - RECREATION ROOM,3330 CIVIC CENTER DR N TORRANCE CA 90503,False,Locality wide location,False,-118.34359,33.83903
KENNETH HAHN HALL OF ADMINISTRATION - ROOM 140A AND ROOM 104B,500 W TEMPLE ST LOS ANGELES CA 90012,False,Locality wide location,False,-118.2459,34.05667
KILLIAN ELEMENTARY SCHOOL - MULTI-PURPOSE ROOM,19100 KILLIAN AVE ROWLAND HEIGHTS CA 91748,False,Locality wide location,False,-117.8876,33.9812
KIMPTON LA PEER HOTEL - LOBBY - ROOFTOP,627 N LA PEER DR WEST HOLLYWOOD CA 90069,False,Locality wide location,False,-118.38698,34.08153
KINGSLEY ELEMENTARY SCHOOL - MULTI-PURPOSE ROOM,5200 W VIRGINIA AVE LOS ANGELES CA 90029,False,Locality wide location,False,-118.30293,34.09163
KRANZ INTERMEDIATE SCHOOL - CAFETERIA,12460 FINEVIEW ST EL MONTE CA 91732,False,Locality wide location,False,-118.02401,34.04515
L ARONOFF & SONS - MAIN FLOOR,21210 ERWIN ST WOODLAND HILLS CA 91367,False,Locality wide location,False,-118.59485,34.18255
LA BREA TAR PITS - OUTDOOR - MAIN PARKING LOT,5801 WILSHIRE BLVD LOS ANGELES CA 90036,False,Locality wide location,False,-118.35546,34.06374
LA CANADA UNIFIED SCHOOL DISTRICT OFFICE - BOARD ROOM,4490 CORNISHON AVE LA CANADA FLINTRIDGE CA 91011,False,Locality wide location,False,-118.20327,34.20421
LA COUNTY ARBORETUM BOTANIC GARDEN - AYRES HALL,301 N BALDWIN AVE ARCADIA CA 91007,False,Locality wide location,False,-118.05163,34.14385
"LA COUNTY DEPARTMENT OF PUBLIC WORKS - CONFERENCE ROOMS A, B AND",900 S FREMONT AVE ALHAMBRA CA 91803,False,Locality wide location,False,-118.15012,34.08498
LA CRESCENTA WOMANS CLUB - MEETING/TEA ROOM,4004 LA CRESCENTA AVE GLENDALE CA 91214,False,Locality wide location,False,-118.23964,34.2144
LA County Registrar-Recorder / County Clerk,12400 IMPERIAL HWY ROOM 3201 NORWALK CA 90650,False,Locality wide location,False,-118.06773,33.91599
LA FAMILY HOUSING - WINN COMMUNITY ROOM,7843 LANKERSHIM BLVD NORTH HOLLYWOOD CA 91605,False,Locality wide location,False,-118.38806,34.21373
LA FETRA CENTER - SAGE ROOM,333 E FOOTHILL BLVD GLENDORA CA 91741,False,Locality wide location,False,-117.86177,34.13668
LA HARBOR MASONIC LODGE - MAIN HALL,1640 W 9TH ST SAN PEDRO CA 90732,False,Locality wide location,False,-118.31286,33.73721
LA MESA JUNIOR HIGH SCHOOL - MULTI-PURPOSE ROOM,26623 MAY WAY SANTA CLARITA CA 91351,False,Locality wide location,False,-118.48409,34.40703
LA MIRADA ACTIVITY CENTER - LIBRARY,13810 LA MIRADA BLVD LA MIRADA CA 90638,False,Locality wide location,False,-118.01042,33.90509
LA MIRADA ADULT SCHOOL - MULTI-PURPOSE ROOM,15920 BARBATA RD LA MIRADA CA 90638,False,Locality wide location,False,-118.00402,33.88772
LA MIRADA LIBRARY - MEETING ROOM AND MAGAZINE AREA,13800 LA MIRADA BLVD LA MIRADA CA 90638,False,Locality wide location,False,-118.01096,33.9058
LA MIRADA THEATER - LOBBY #2,14900 LA MIRADA BLVD LA MIRADA CA 90638,False,Locality wide location,False,-118.00955,33.89675
LA PUENTE COMMUNITY CENTER - MULTI-PURPOSE ROOMS 22 - 24,501 GLENDORA AVE LA PUENTE CA 91744,False,Locality wide location,False,-117.95349,34.02896
LA QUINTA INN & SUITES BY WYNDHAM LAX - CENTURY BALLROOM,5249 W CENTURY BLVD LOS ANGELES CA 90045,False,Locality wide location,False,-118.37172,33.94579
LA SERNA HIGH SCHOOL - CAFETERIA,15301 YOUNGWOOD DR WHITTIER CA 90605,False,Locality wide location,False,-117.99791,33.95463
LA TIJERA K-8 ACADEMY OF EXCELLENCE - GYMNASIUM,1415 N LA TIJERA BLVD INGLEWOOD CA 90302,False,Locality wide location,False,-118.3693,33.9811
LABORERS LOCAL 300 - HALL WEST,14800 DEVONSHIRE ST MISSION HILLS CA 91345,False,Locality wide location,False,-118.45474,34.25694
LAKEWOOD YOUTH CENTER - EAST & WEST ROOMS,4658 WOODRUFF AVE LAKEWOOD CA 90713,False,Locality wide location,False,-118.11586,33.84297
LANCASTER LIBRARY - ANNA DAVIS MEETING ROOM,601 W LANCASTER BLVD LANCASTER CA 93534,False,Locality wide location,False,-118.14025,34.69848
LANCASTER MARKET PLACE - SUITE 102,44920 VALLEY CENTRAL WAY LANCASTER CA 93536,False,Locality wide location,False,-118.17357,34.69892
LANCASTER NATIONAL SOCCER CENTER - EASTSIDE BUILDING AUDITORIUM,43000 30TH ST E LANCASTER CA 93535,False,Locality wide location,False,-118.07768,34.66281
LANGLEY SENIOR CENTER - FRIENDSHIP ROOM,400 W EMERSON AVE MONTEREY PARK CA 91754,False,Locality wide location,False,-118.12809,34.06571
LAS PALMAS PARK - GYMNASIUM,505 S HUNTINGTON ST SAN FERNANDO CA 91340,False,Locality wide location,False,-118.45001,34.28609
LATIN PARADISE BANQUET HALL - BANQUET HALL,6357 VAN NUYS BLVD VAN NUYS CA 91401,False,Locality wide location,False,-118.44926,34.18598
LAUREL ELEMENTARY SCHOOL - AUDITORIUM,925 N HAYWORTH AVE LOS ANGELES CA 90046,False,Locality wide location,False,-118.36294,34.08766
LELAND R WEAVER LIBRARY - ADULT ROOM,4035 TWEEDY BLVD SOUTH GATE CA 90280,False,Locality wide location,False,-118.20158,33.94409
LENNOX MIDDLE SCHOOL - CAFETERIA,11033 BUFORD AVE LENNOX CA 90304,False,Locality wide location,False,-118.36475,33.93466
LENNOX PARK - COMMUNITY ROOM A&B,10828 CONDON AVE LENNOX CA 90304,False,Locality wide location,False,-118.35864,33.93783
LEVY ADULT CENTER - MULTI-PURPOSE ROOM,3420 W 229TH PL TORRANCE CA 90505,False,Locality wide location,False,-118.34633,33.81774
LIBERTY COMMUNITY PLAZA - CONSTITUTIONAL HALL,14181 TELEGRAPH RD WHITTIER CA 90604,False,Locality wide location,False,-118.02895,33.92874
LIBERTY II FACILITY - MULTI-PURPOSE ROOM,19033 STUDEBAKER RD CERRITOS CA 90703,False,Locality wide location,False,-118.10046,33.85724
LINCOLN HEIGHTS SENIOR CITIZEN CENTER - RECREATION ROOM,2323 WORKMAN ST LOS ANGELES CA 90031,False,Locality wide location,False,-118.2147,34.07257
LINDERO CANYON MIDDLE SCHOOL - MULTI-PURPOSE ROOM,5844 LARBOARD LN AGOURA HILLS CA 91301,False,Locality wide location,False,-118.7857,34.15657
LITTLE WHITE CHAPEL - SOCIAL HALL,1711 N AVON ST BURBANK CA 91505,False,Locality wide location,False,-118.34834,34.1816
LIUNA LOCAL 1309 - UNION HALL,3971 PIXIE AVE LAKEWOOD CA 90712,False,Locality wide location,False,-118.16278,33.82941
LIVING STONE CATHEDRAL OF WORSHIP - FELLOWSHIP HALL,37721 100TH ST E LITTLEROCK CA 93543,False,Locality wide location,False,-117.95266,34.56781
LOCKWOOD AVENUE ELEMENTARY SCHOOL - MULTI-PURPOSE ROOM,4345 LOCKWOOD AVE LOS ANGELES CA 90029,False,Locality wide location,False,-118.28888,34.08904
LOMITA PARK - COMMUNITY ROOM,24428 ESHELMAN AVE LOMITA CA 90717,False,Locality wide location,False,-118.31419,33.80345
LONG BEACH CITY COLLEGE - MULTI-PURPOSE ROOM - T1200,4901 E CARSON ST LONG BEACH CA 90808,False,Locality wide location,False,-118.13478,33.83279
LONG BEACH CITY COLLEGE - PACIFIC COAST - ROOM QQ 109 AND ROOM Q,1305 E PACIFIC COAST HWY LONG BEACH CA 90806,False,Locality wide location,False,-118.17476,33.79022
LONG BEACH CONVENTION CENTER - ARENA LOBBY,300 E OCEAN BLVD LONG BEACH CA 90802,False,Locality wide location,False,-118.19089,33.76452
LONGFELLOW ELEMENTARY SCHOOL - MULTI-PURPOSE ROOM,6005 MAGNOLIA AVE WHITTIER CA 90601,False,Locality wide location,False,-118.0512,33.98786
LORETO STREET ELEMENTARY SCHOOL - AUDITORIUM,3408 ARROYO SECO AVE LOS ANGELES CA 90065,False,Locality wide location,False,-118.21634,34.08673
LOS ALTOS ELEMENTARY SCHOOL - CAFETORIUM,15565 LOS ALTOS DR HACIENDA HEIGHTS CA 91745,False,Locality wide location,False,-117.97662,33.98825
LOS ANGELES ACADEMY MIDDLE SCHOOL - MULTI-PURPOSE ROOM,644 E 56TH ST LOS ANGELES CA 90011,False,Locality wide location,False,-118.26422,33.99073
LOS ANGELES CITY COLLEGE - STUDENT UNION CAFETERIA,855 N VERMONT AVE LOS ANGELES CA 90029,False,Locality wide location,False,-118.29306,34.08655
LOS ANGELES ELEMENTARY SCHOOL - AUDITORIUM / MULTI-PURPOSE ROOM,1211 S HOBART BLVD LOS ANGELES CA 90006,False,Locality wide location,False,-118.30565,34.04768
LOS ANGELES HARBOR COLLEGE,1111 FIGUEROA PL WILMINGTON CA 90744,False,Locality wide location,False,-118.28382,33.78361
LOS ANGELES HARBOR COLLEGE - PE WELLNESS CENTER GYM,1111 FIGUEROA PLACE WILMINGTON CA 90744,False,Locality wide location,False,-118.28382,33.78361
LOS ANGELES HARBOR COLLEGE - PE WELLNESS CENTER GYM,1111 FIGUEROA PLACE WILMINGTON CA 90744,True,Locality wide location,False,-118.28382,33.78361
LOS ANGELES HIGH SCHOOL - MEMORIAL HALL / MPR,4650 W OLYMPIC BLVD LOS ANGELES CA 90019,False,Locality wide location,False,-118.33314,34.05593
LOS ANGELES MISSION COLLEGE - AUDITORIUM,13356 ELDRIDGE AVE SYLMAR CA 91342,False,Locality wide location,False,-118.41937,34.31453
LOS ANGELES PIERCE COLLEGE - BUILDING 600,6201 WINNETKA AVE WOODLAND HILLS CA 91371,False,Locality wide location,False,-118.57344,34.18531
LOS ANGELES SOUTHWEST COLLEGE - GYMNASIUM,1600 W IMPERIAL HWY LOS ANGELES CA 90047,False,Locality wide location,False,-118.30732,33.93002
LOS ANGELES TRADE TECHNICAL COLLEGE - LAUREL GYMNASIUM,400 W WASHINGTON BLVD LOS ANGELES CA 90015,False,Locality wide location,False,-118.26975,34.03255
LOS ANGELES VALLEY COLLEGE - MONARCH HALL,5800 FULTON AVE VALLEY GLEN CA 91401,False,Locality wide location,False,-118.41516,34.17522
LOS FELIZ CHARTER SCHOOL FOR THE ARTS - AUDITORIUM,2709 MEDIA CENTER DRIVE LOS ANGLELES CA 90065,False,Locality wide location,False,-118.24547,34.1108
LOS MOLINOS ELEMENTARY SCHOOL - CAFETERIA,3112 LAS MARIAS AVE HACIENDA HEIGHTS CA 91745,False,Locality wide location,False,-117.97798,33.98279
LOS NIETOS MIDDLE SCHOOL - CAFETERIA,11425 RIVERA RD LOS NIETOS CA 90606,False,Locality wide location,False,-118.07459,33.96409
LOYOLA MARYMOUNT UNIVERSITY - ROSKI DINING HALL,1 LOYOLA MARYMOUNT UNIVERSITY DR LOS ANGELES CA 90045,False,Locality wide location,False,-118.42255,33.96687
LUCY AVALOS COMMUNITY CENTER - COMMUNITY ROOM 1 & 2,11832 ATLANTIC AVE LYNWOOD CA 90262,False,Locality wide location,False,-118.19016,33.91301
LUTHERAN CHURCH OF THE MASTER - FELLOWSHIP HALL,725 E AVENUE J LANCASTER CA 93535,False,Locality wide location,False,-118.11652,34.69044
LYNWOOD MIDDLE SCHOOL - GYMNASIUM,12124 BULLIS RD LYNWOOD CA 90262,False,Locality wide location,False,-118.20415,33.91638
LYONS STATION SHOPPING CENTER - SUITE A,23414 LYONS AVE SANTA CLARITA CA 91355,False,Locality wide location,False,-118.54316,34.3786
MACARTHUR PARK - SOCIAL HALL,1321 E ANAHEIM ST LONG BEACH CA 90813,False,Locality wide location,False,-118.17457,33.78289
MACLAY MIDDLE SCHOOL - GYMNASIUM,12540 PIERCE ST PACOIMA CA 91331,False,Locality wide location,False,-118.40597,34.27126
MAGEE ACADEMY OF ARTS AND SCIENCES - CAFETERIA,8200 SERAPIS AVE PICO RIVERA CA 90660,False,Locality wide location,False,-118.10277,33.96425
MAGIC CASTLE - INNER CIRCLE,7001 FRANKLIN AVE LOS ANGELES CA 90028,False,Locality wide location,False,-118.34179,34.10458
MALABAR STREET ELEMENTARY SCHOOL - AUDITORIUM,3200 MALABAR ST LOS ANGELES CA 90063,False,Locality wide location,False,-118.19368,34.04441
MALIBU LAKE MOUNTAIN - CLUB HOUSE,29033 LAKE VISTA DR AGOURA HILLS CA 91301,False,Locality wide location,False,-118.75574,34.10976
MANHATTAN HEIGHTS COMMUNITY CENTER - MT WHITNEY BANQUET HALL,1600 MANHATTAN BEACH BLVD MANHATTAN BEACH CA 90266,False,Locality wide location,False,-118.38486,33.88699
MANUAL ARTS SENIOR HIGH SCHOOL - GYMNASIUM,4131 S VERMONT AVE LOS ANGELES CA 90037,False,Locality wide location,False,-118.29217,34.00882
MARINA DEL REY MIDDLE SCHOOL - MULTI-PURPOSE ROOM / LIBRARY,12500 BRADDOCK DR LOS ANGELES CA 90066,False,Locality wide location,False,-118.41861,33.98661
MARY E BRAGG ELEMENTARY SCHOOL - MULTI-PURPOSE ROOM,11501 BOS ST CERRITOS CA 90703,False,Locality wide location,False,-118.08945,33.85573
MASJID AL-FATIHA - THE PRAYER HALL,210 N CITRUS AVE AZUSA CA 91702,False,Locality wide location,False,-117.88961,34.12415
MASJID UMAR IBN AL-KHATTAB - CAFETERIA,1025 EXPOSITION BLVD LOS ANGELES CA 90007,False,Locality wide location,False,-118.29245,34.0186
MASON RECREATION CENTER - GYMNASIUM,10500 MASON AVE CHATSWORTH CA 91311,False,Locality wide location,False,-118.57938,34.26126
MASONIC LODGE - HALL,135 N VALLEY CENTER AVE GLENDORA CA 91741,False,Locality wide location,False,-117.83824,34.137
MASS LIBERATION - MAIN HALL,21519 MENLO AVE TORRANCE CA 90502,False,Locality wide location,False,-118.28845,33.83282
MAURICE SENDAK ELEMENTARY SCHOOL - LIBRARY,11414 TIARA ST NORTH HOLLYWOOD CA 91601,False,Locality wide location,False,-118.38016,34.17805
MAXINE WATERS EMPLOYMENT CENTER - MOBLEY CENTER,10925 S CENTRAL AVE LOS ANGELES CA 90059,False,Locality wide location,False,-118.25463,33.93735
MAYFAIR PARK - ACTIVITY ROOM,5720 CLARK AVE LAKEWOOD CA 90712,False,Locality wide location,False,-118.13316,33.85954
MAYWOOD HALL - COUNCIL CHANBERS,4319 E SLAUSON AVE MAYWOOD CA 90270,False,Locality wide location,False,-118.18921,33.98779
MCCARTY MEMORIAL CHRISTIAN CHURCH - FELLOWSHIP HALL,4103 W ADAMS BLVD LOS ANGELES CA 90018,False,Locality wide location,False,-118.33007,34.03306
MCKINLEY ELEMENTARY SCHOOL - MULTI-PURPOSE ROOM,14431 S STANFORD AVE COMPTON CA 90220,False,Locality wide location,False,-118.26221,33.90052
MEADOWLARK ELEMENTARY SCHOOL - MULTI-PURPOSE ROOM,3015 SACRAMENTO AVE ACTON CA 93510,False,Locality wide location,False,-118.18552,34.47435
MEMORIAL PARK - GYMNASIUM,320 N ORANGE AVE AZUSA CA 91702,False,Locality wide location,False,-117.91313,34.12666
MESA ROBLES SCHOOL - CAFETERIA,16060 MESA ROBLES DR HACIENDA HEIGHTS CA 91745,False,Locality wide location,False,-117.96164,33.99296
MILDRED B JANSON ELEMENTARY - MULTI-PURPOSE ROOM,8628 MARSHALL ST ROSEMEAD CA 91770,False,Locality wide location,False,-118.08015,34.07408
MILL ELEMENTARY SCHOOL - MULTI-PURPOSE ROOM GATE M,4030 WORKMAN MILL RD WHITTIER CA 90601,False,Locality wide location,False,-118.04274,34.01477
MILLENNIUM BILTMORE HOTEL LOS ANGELES - BOWL BALLROOM,506 S GRAND AVE LOS ANGELES CA 90071,False,Locality wide location,False,-118.25419,34.04977
MILLIKAN HIGH SCHOOL - GYMNASIUM,2800 SNOWDEN AVE LONG BEACH CA 90815,False,Locality wide location,False,-118.1109,33.80703
MILLIKAN MIDDLE SCHOOL - GYMNASIUM,5041 SUNNYSLOPE AVE SHERMAN OAKS CA 91423,False,Locality wide location,False,-118.42849,34.16352
MIRALESTE INTERMEDIATE SCHOOL - GYMNASIUM,29323 PALOS VERDES DR E RANCHO PALOS VERDES CA 90275,False,Locality wide location,False,-118.32939,33.75356
MISSION CITY CHURCH - GYMNASIUM,777 N MACLAY AVE SAN FERNANDO CA 91340,False,Locality wide location,False,-118.43096,34.29143
MISSION EBENEZER FAMILY CHURCH - HERITAGE HALL,425 W TORRANCE BLVD CARSON CA 90745,False,Locality wide location,False,-118.28426,33.84231
MOFFETT ELEMENTARY SCHOOL - CAFETERIA,11060 LARCH AVE LENNOX CA 90304,False,Locality wide location,False,-118.35017,33.93596
MONA PARK - GYMNASIUM,2291 E 121ST ST COMPTON CA 90222,False,Locality wide location,False,-118.23071,33.92224
MONROE MIDDLE SCHOOL - GYMNASIUM,10711 S 10TH AVE INGLEWOOD CA 90303,False,Locality wide location,False,-118.32827,33.93929
MONROVIA COMMUNITY CENTER - KAY DALTON ROOM,119 W PALM AVE MONROVIA CA 91016,False,Locality wide location,False,-118.00187,34.14949
MONROVIA HIGH SCHOOL - SOUTH GYMNASIUM,845 W COLORADO BLVD MONROVIA CA 91016,False,Locality wide location,False,-118.01787,34.14641
MONTARA AVENUE ELEMENTARY SCHOOL - MULTI-PURPOSE ROOM,10018 MONTARA AVE SOUTH GATE CA 90280,False,Locality wide location,False,-118.21784,33.94391
MONTEBELLO HIGH SCHOOL - GYMNASIUM,2100 W CLEVELAND AVE MONTEBELLO CA 90640,False,Locality wide location,False,-118.12287,34.01564
MONTEBELLO LIBRARY - LIBRARY STUDY AREA,1550 W BEVERLY BLVD MONTEBELLO CA 90640,False,Locality wide location,False,-118.11547,34.02076
MONTEBELLO SENIOR CITIZEN CENTER - MAIN HALL,115 S TAYLOR AVE MONTEBELLO CA 90640,False,Locality wide location,False,-118.1146,34.01036
MOOSE LODGE - DINNER HALL,13212 S INGLEWOOD AVE HAWTHORNE CA 90250,False,Locality wide location,False,-118.36094,33.91252
MOUNTAINVIEW FAMILY CENTER - CENTRAL ROOM AND ROOM 1,2740 MOUNTAINVIEW RD EL MONTE CA 91732,False,Locality wide location,False,-118.02389,34.06023
MT SAN ANTONIO COLLEGE - GYMNASIUM,1100 N GRAND AVE WALNUT CA 91789,False,Locality wide location,False,-117.84512,34.0482
MURPHY RANCH ELEMENTARY SCHOOL - CAFETORIUM,16021 JANINE DR WHITTIER CA 90603,False,Locality wide location,False,-117.98761,33.94681
MUSEUM OF LATIN AMERICAN ART - EVENT CENTER,628 ALAMITOS AVE LONG BEACH CA 90802,False,Locality wide location,False,-118.17979,33.7746
NAKAOKA COMMUNITY CENTER - AUDITORIUM,1670 W 162ND ST GARDENA CA 90247,False,Locality wide location,False,-118.30658,33.88329
NATIONAL TYPEWRITER COMPANY - 1ST FLOOR GATHERING ROOM,1666 EUCLID ST SANTA MONICA CA 90404,False,Locality wide location,False,-118.48225,34.01908
NEFF PARK BARN - BARN HALL,14300 SAN CRISTOBAL DR LA MIRADA CA 90638,False,Locality wide location,False,-118.02556,33.89787
NELSON ELEMENTARY SCHOOL - CAFETERIA,330 N CALIFORNIA AVE LA PUENTE CA 91744,False,Locality wide location,False,-117.96593,34.03371
NEW HOPE YOUTH GROUP - ACTIVITY CENTER,10438 ORO VISTA AVE SUNLAND-TUJUNGA CA 91040,False,Locality wide location,False,-118.31546,34.25901
NEW LEXINGTON ELEMENTARY SCHOOL - CAFETERIA,10410 BODGER ST EL MONTE CA 91733,False,Locality wide location,False,-118.04434,34.06399
NEW POWER OF LOVE - AUDITORIUM,1430 W MANCHESTER LOS ANGELES CA 90047,False,Locality wide location,False,-118.30167,33.95958
NEW RIVER ELEMENTARY SCHOOL - MULTI-PURPOSE ROOM,13432 HALCOURT AVE NORWALK CA 90650,False,Locality wide location,False,-118.10212,33.90859
NEW VISTA MIDDLE SCHOOL - GYMNASIUM,753 E AVENUE K2 LANCASTER CA 93534,False,Locality wide location,False,-118.07616,34.67306
NEWCOMB ACADEMY - GYMNASIUM,3351 VAL VERDE AVE LONG BEACH CA 90808,False,Locality wide location,False,-118.08006,33.81623
NICKERSON GARDENS BOYS & GIRLS CLUB - GYMNASIUM,11251 COMPTON AVE LOS ANGELES CA 90059,False,Locality wide location,False,-118.24723,33.93222
NOGALES HIGH SCHOOL - MULTI-PURPOSE ROOM,401 NOGALES ST LA PUENTE CA 91744,False,Locality wide location,False,-117.88898,34.01001
NORMANDALE RECREATION CENTER - GYMNASIUM,22400 HALLDALE AVE TORRANCE CA 90501,False,Locality wide location,False,-118.30099,33.82314
NORTH HIGH SCHOOL - EAST CAFETERIA,3620 W 182ND ST TORRANCE CA 90504,False,Locality wide location,False,-118.33683,33.86477
NORTH HOLLYWOOD RECREATION CENTER - SENIOR CENTER,11430 CHANDLER BLVD NORTH HOLLYWOOD CA 91601,False,Locality wide location,False,-118.37993,34.16745
NORTH WEDDINGTON RECREATION CENTER - GYMNASIUM,10844 ACAMA ST NORTH HOLLYWOOD CA 91602,False,Locality wide location,False,-118.36701,34.14556
NORTHEAST MENTAL HEALTH CENTER - 4TH FLOOR - CONFERENCE ROOM 318,3303 N BROADWAY LOS ANGELES CA 90031,False,Locality wide location,False,-118.20558,34.07398
NORTHRIDGE ACADEMY HIGH SCHOOL - GYMNASIUM,9601 ZELZAH AVE NORTHRIDGE CA 91325,False,Locality wide location,False,-118.52444,34.24522
NORWALK ARTS & SPORTS COMPLEX - RICH REHEARSAL HALL,13200 CLARKDALE AVE NORWALK CA 90650,False,Locality wide location,False,-118.07284,33.91004
NORWALK HIGH SCHOOL - MULTI-PURPOSE ROOM,11356 LEFFINGWELL RD NORWALK CA 90650,False,Locality wide location,False,-118.09146,33.90813
NORWALK MASONIC CENTER - DINING ROOM,12345 ROSECRANS AVE NORWALK CA 90650,False,Locality wide location,False,-118.06938,33.90271
OAK TREE COMMUNITY DAY SCHOOL - KINDERGARTEN WING,37230 37TH ST PALMDALE CA 93550,False,Locality wide location,False,-118.06032,34.55902
OAKWOOD RECREATION CENTER - GYMNASIUM,767 CALIFORNIA AVE VENICE CA 90291,False,Locality wide location,False,-118.46376,33.99468
OCCIDENTAL COLLEGE - LOWER HERRICK,1600 CAMPUS RD LOS ANGELES CA 90041,False,Locality wide location,False,-118.2093,34.12649
OLIVE VISTA MIDDLE SCHOOL - AUDITORIUM,14600 TYLER ST SYLMAR CA 91342,False,Locality wide location,False,-118.44907,34.31105
ONE SANTA FE - SUITE B,300 S SANTA FE AVE LOS ANGELES CA 90013,False,Locality wide location,False,-118.23231,34.04584
ONEGENERATION - ADC ROOM AND ACTIVITY ROOM,17400 VICTORY BLVD VAN NUYS CA 91335,False,Locality wide location,False,-118.51306,34.18601
ORANGEWOOD ELEMENTARY SCHOOL - CAFETERIA,1440 S ORANGE AVE WEST COVINA CA 91790,False,Locality wide location,False,-117.95382,34.06061
OUR LADY OF THE HOLY ROSARY - AUDITORIUM,7800 VINELAND AVE SUN VALLEY CA 91352,False,Locality wide location,False,-118.36991,34.21247
OUR SAVIOR LUTHERAN CHURCH - FELLOWSHIP HALL,512 W DUARTE RD ARCADIA CA 91007,False,Locality wide location,False,-118.05031,34.12594
PACIFIC PARK COMMUNITY CENTER - GYMNASIUM,501 S PACIFIC AVE GLENDALE CA 91205,False,Locality wide location,False,-118.26474,34.13924
PACIFIC UNITARIAN CHURCH - FELLOWSHIP HALL,5621 MONTEMALAGA DR RANCHO PALOS VERDES CA 90275,False,Locality wide location,False,-118.37728,33.78868
PALISADES RECREATION CENTER - SMALL GYMNASIUM,851 ALMA REAL DR PACIFIC PALISADES CA 90272,False,Locality wide location,False,-118.52458,34.0422
PALM PARK AND COMMUNITY CENTER - ACTIVITY ROOM,12305 207TH ST LAKEWOOD CA 90715,False,Locality wide location,False,-118.07011,33.8428
PALMDALE ELKS LODGE - MEETING ROOM,2705 E AVENUE Q PALMDALE CA 93550,False,Locality wide location,False,-118.08054,34.58817
PALMDALE HIGH SCHOOL - GYMNASIUM,2137 E AVENUE R PALMDALE CA 93550,False,Locality wide location,False,-118.08835,34.57415
PALOMARES PARK - SENIOR CENTER,499 E ARROW HWY POMONA CA 91767,False,Locality wide location,False,-117.74215,34.09064
PALOS VERDES HIGH SCHOOL - MULTI-PURPOSE ROOM,600 CLOYDEN RD PALOS VERDES ESTATES CA 90274,False,Locality wide location,False,-118.4195,33.77881
PALOS VERDES PENINSULA HIGH SCHOOL - GYMNASIUM,27118 SILVER SPUR RD ROLLING HILLS ESTATES CA 90274,False,Locality wide location,False,-118.37331,33.77848
PAN AMERICAN PARK - GYMNASIUM,5157 E CENTRALIA ST LONG BEACH CA 90808,False,Locality wide location,False,-118.13087,33.84132
PANORAMA PRESBYTERIAN CHURCH - MCDILL HALL,14201 ROSCOE BLVD PANORAMA CITY CA 91402,False,Locality wide location,False,-118.44237,34.22209
PANTERA ELEMENTARY SCHOOL - MULTI-PURPOSE ROOM,801 PANTERA DR DIAMOND BAR CA 91765,False,Locality wide location,False,-117.79098,34.01088
PARADISE BAPTIST CHURCH - QUEENS HALL,5100 S BROADWAY LOS ANGELES CA 90037,False,Locality wide location,False,-118.27794,33.99623
PARAMOUNT HIGH SCHOOL - WEST CAMPUS - GYMNASIUM,14708 PARAMOUNT BLVD PARAMOUNT CA 90723,False,Locality wide location,False,-118.15958,33.8997
PARK VIEW EDUCATIONAL COMPLEX - GYMNASIUM,44327 FIG AVE LANCASTER CA 93534,False,Locality wide location,False,-118.14279,34.68853
PASADENA CITY COLLEGE - CREVELING LOUNGE,1570 E COLORADO BLVD PASADENA CA 91106,False,Locality wide location,False,-118.11913,34.14404
PASADENA CONVENTION CENTER - EXHIBIT HALL A,300 E GREEN ST PASADENA CA 91101,False,Locality wide location,False,-118.14436,34.14381
PATRICK HENRY MIDDLE SCHOOL - LIBRARY,17340 SAN JOSE ST GRANADA HILLS CA 91344,False,Locality wide location,False,-118.51203,34.25889
PERRY PARK - TEEN CENTER,2301 GRANT AVE REDONDO BEACH CA 90278,False,Locality wide location,False,-118.37035,33.8693
PHILADELPHIA ELEMENTARY SCHOOL - CAFETERIA,600 PHILADELPHIA ST POMONA CA 91766,False,Locality wide location,False,-117.74334,34.03279
PICO PARK COMMUNITY CENTER - AUDITORIUM A - C,9528 BEVERLY BLVD PICO RIVERA CA 90660,False,Locality wide location,False,-118.07372,34.00677
PIO PICO MIDDLE SCHOOL - GYMNASIUM,1512 S ARLINGTON AVE LOS ANGELES CA 90019,False,Locality wide location,False,-118.31649,34.04695
PIONEER HIGH SCHOOL - LARGE GYMNASIUM,10800 BENAVON ST WHITTIER CA 90606,False,Locality wide location,False,-118.0798,33.96994
PIUTE MIDDLE SCHOOL - GYMNASIUM,425 E AVENUE H11 LANCASTER CA 93535,False,Locality wide location,False,-118.12332,34.70917
PLAYA LAS TUNAS BANQUET HALL - MAIN ROOM,1457 W WASHINGTON BLVD LOS ANGELES CA 90007,False,Locality wide location,False,-118.28803,34.04017
PLAZA WEST COVINA - OUTPARCEL SPACE 7504,312 CALIFORNIA AVE WEST COVINA CA 91790,False,Locality wide location,False,-117.92723,34.06904
PLUMMER PARK COMMUNITY CENTER - FIESTA HALL,7377 SANTA MONICA BLVD WEST HOLLYWOOD CA 90046,False,Locality wide location,False,-118.35083,34.09146
POMONA HIGH SCHOOL - GYMNASIUM,475 BANGOR ST POMONA CA 91767,False,Locality wide location,False,-117.74107,34.08543
POP UP VOTE CENTER 4,12400 IMPERIAL HWY NORWALK CA 90650,False,Locality wide location,False,-118.06773,33.91599
PORT OF LONG BEACH MAINTENANCE DIVISION - LARGE MEETING ROOM,725 HARBOR PLAZA LONG BEACH CA 90802,False,Locality wide location,False,-118.19715,33.75256
POTRERO ELEMENTARY SCHOOL - CAFETORIUM,2611 POTRERO AVE EL MONTE CA 91733,False,Locality wide location,False,-118.0566,34.05984
POWELL ACADEMY FOR SUCCESS - GYMNASIUM,150 W VICTORIA ST LONG BEACH CA 90805,False,Locality wide location,False,-118.20259,33.86437
PRAIRIE VISTA MIDDLE SCHOOL - GYMNASIUM,13600 PRAIRIE AVE HAWTHORNE CA 90250,False,Locality wide location,False,-118.34323,33.90725
PRINCE OF PEACE EPISCOPAL CHURCH - FAMILY CENTER,5700 RUDNICK AVE WOODLAND HILLS CA 91367,False,Locality wide location,False,-118.61203,34.1742
PROGRESS PARK - AUDITORIUM,15500 DOWNEY AVE PARAMOUNT CA 90723,False,Locality wide location,False,-118.15067,33.892
PROMENADE AT DOWNEY - DRESSBARN,8980 APOLLO WAY DOWNEY CA 90242,False,Locality wide location,False,-118.12949,33.9219
PUC EXCEL CHARTER ACADEMY - WAREHOUSE/CAFETERIA,1855 N MAIN ST LOS ANGELES CA 90031,False,Locality wide location,False,-118.21986,34.0666
PUC LAKEVIEW CHARTER ACADEMY - MULTI-PURPOSE ROOM,11465 KAGEL CANYON ST LAKEVIEW TERRACE CA 91342,False,Locality wide location,False,-118.38154,34.28013
PUC TRIUMPH CHARTER HIGH SCHOOL - GYMNASIUM,13361 GLENOAKS BLVD SYLMAR CA 91342,False,Locality wide location,False,-118.45956,34.31474
RAMON GARCIA RECREATION CENTER - GYMNASIUM,1016 S FRESNO ST LOS ANGELES CA 90023,False,Locality wide location,False,-118.20695,34.02727
RAMONA HALL COMMUNITY CENTER - BANQUET HALL,4580 N FIGUEROA ST LOS ANGELES CA 90065,False,Locality wide location,False,-118.20505,34.09782
RANCH HILLS ELEMENTARY SCHOOL - CAFETERIA,2 TRABUCO PL POMONA CA 91766,False,Locality wide location,False,-117.78551,34.03544
RANCHO LOS AMIGOS NATIONAL REHAB CENTER - AUDITORIUM,7601 E IMPERIAL HWY DOWNEY CA 90242,False,Locality wide location,False,-118.15859,33.92933
RCCG VICTORY HOUSE HOLLYWOOD - SANCTUARY,16730 SCHOENBORN ST NORTH HILLS CA 91343,False,Locality wide location,False,-118.49762,34.222
RECREATION PARK - SOCIAL HALL,4900 E 7TH ST LONG BEACH CA 90804,False,Locality wide location,False,-118.13519,33.77496
REDEEMER CHRISTIAN ACADEMY - FELLOWSHIP HALL,10792 NATIONAL BLVD WEST LOS ANGELES CA 90064,False,Locality wide location,False,-118.41928,34.03088
REGIS HOUSE COMMUNITY CENTER - LIBRARY & BIG ROOM,2212 BEVERLY BLVD LOS ANGELES CA 90057,False,Locality wide location,False,-118.27199,34.06709
REIGNING CHAMP - MAIN FLOOR,115 S LA BREA AVE LOS ANGELES CA 90036,False,Locality wide location,False,-118.34441,34.07299
RIDGECREST INTERMEDIATE SCHOOL - AUDITORIUM,28915 NORTHBAY RD RANCHO PALOS VERDES CA 90275,False,Locality wide location,False,-118.37863,33.76658
RIO HONDO COLLEGE - CAMPUS INN,3600 WORKMAN MILL RD WHITTIER CA 90601,False,Locality wide location,False,-118.03187,34.01995
RIO HONDO ELEMENTARY SCHOOL - CAFETERIA,11425 WILDFLOWER RD ARCADIA CA 91006,False,Locality wide location,False,-118.01923,34.10473
RIO NORTE JUNIOR HIGH SCHOOL - MULTI-PURPOSE ROOM,28771 RIO NORTE DR SANTA CLARITA CA 91354,False,Locality wide location,False,-118.55917,34.46071
RIO VISTA ELEMENTARY SCHOOL - CAFETERIA / MPR,4300 ESTO AVE EL MONTE CA 91731,False,Locality wide location,False,-118.04042,34.08349
RIOS - LUNCH ROOM,3101 W EXPOSITION PL LOS ANGELES CA 90018,False,Locality wide location,False,-118.33014,34.02125
RIVERA PARK COMMUNITY RECREATION CENTER - AUDITORIUM,9530 SHADE LN PICO RIVERA CA 90660,False,Locality wide location,False,-118.09711,33.96319
RIVIERA UNITED METHODIST CHURCH - FELLOWSHIP HALL,375 PALOS VERDES BLVD REDONDO BEACH CA 90277,False,Locality wide location,False,-118.38713,33.81229
ROBERT GROSS PARK - MULTI-PURPOSE ROOM,2800 EMPIRE AVE BURBANK CA 91504,False,Locality wide location,False,-118.3414,34.19173
ROBINSON PARK RECREATION CENTER - MULTI-PURPOSE ROOM,1081 N FAIR OAKS AVE PASADENA CA 91103,False,Locality wide location,False,-118.15089,34.16458
ROCKDALE ELEMENTARY SCHOOL - MULTI-PURPOSE ROOM,1303 YOSEMITE DR LOS ANGELES CA 90041,False,Locality wide location,False,-118.19432,34.13335
ROGERS PARK - GYMNASIUM,400 W BEACH AVE INGLEWOOD CA 90302,False,Locality wide location,False,-118.35998,33.96902
ROOSEVELT ELEMENTARY SCHOOL - AUDITORIUM,801 MONTANA AVE SANTA MONICA CA 90403,False,Locality wide location,False,-118.50074,34.028
ROOSEVELT MIDDLE SCHOOL - GYMNASIUM,1200 E ALONDRA BLVD COMPTON CA 90221,False,Locality wide location,False,-118.21063,33.8874
ROSECRANS RECREATION CENTER - GYMNASIUM,840 W 149TH ST GARDENA CA 90247,False,Locality wide location,False,-118.29053,33.89659
ROSEMEAD COMMUNITY RECREATION CENTER - MPR & ROOM 2,3936 MUSCATEL AVE ROSEMEAD CA 91770,False,Locality wide location,False,-118.07692,34.07923
ROSEMONT PAVILION - NORTH WAREHOUSE,700 SECO ST PASADENA CA 91103,False,Locality wide location,False,-118.16411,34.15682
ROSS MIDDLE SCHOOL - MULTI-PURPOSE ROOM,17707 ELAINE AVE ARTESIA CA 90701,False,Locality wide location,False,-118.07738,33.86979
ROWLAND ELEMENTARY SCHOOL - MULTI-PURPOSE ROOM,2036 FULLERTON RD ROWLAND HEIGHTS CA 91748,False,Locality wide location,False,-117.90648,33.98313
ROWLAND HIGH SCHOOL - MULTI-PURPOSE ROOM,2000 OTTERBEIN AVE ROWLAND HEIGHTS CA 91748,False,Locality wide location,False,-117.88485,33.98187
ROXBURY PARK - OUTDOOR - BASKETBALL COURT,471 S ROXBURY DR BEVERLY HILLS CA 90212,False,Locality wide location,False,-118.40725,34.05899
ROY ROMER MIDDLE SCHOOL - MULTI-PURPOSE ROOM,6501 LAUREL CANYON BLVD NORTH HOLLYWOOD CA 91606,False,Locality wide location,False,-118.39728,34.19009
S G OSWALT ACADEMY - MULTI-PURPOSE ROOM,19501 SHADOW OAK DR WALNUT CA 91789,False,Locality wide location,False,-117.88037,34.02645
SABAN BEVERLY HILLS - ROTUNDA ROOM,8440 WILSHIRE BLVD BEVERLY HILLS CA 90211,False,Locality wide location,False,-118.37483,34.0644
SALAZAR PARK - GYMNASIUM,3864 WHITTIER BLVD LOS ANGELES CA 90023,False,Locality wide location,False,-118.19002,34.02361
SALESIAN HIGH SCHOOL - MULTI-PURPOSE ROOM,960 S SOTO ST LOS ANGELES CA 90023,False,Locality wide location,False,-118.21634,34.03261
SALON PLAYA LAS TUNAS - MAIN ROOM,1911 4TH AVE LOS ANGELES CA 90018,False,Locality wide location,False,-118.32169,34.03948
SALT LAKE PARK - SOCIAL HALL,3401 E FLORENCE AVE HUNTINGTON PARK CA 90255,False,Locality wide location,False,-118.2056,33.97275
SAN DIMAS CITY HALL - COMMUNITY BUILDING,245 E BONITA AVE SAN DIMAS CA 91773,False,Locality wide location,False,-117.80465,34.10848
SAN FERNANDO LIBRARY - READING ROOM AND MEETING ROOM,217 N MACLAY AVE SAN FERNANDO CA 91340,False,Locality wide location,False,-118.4386,34.28562
SAN FERNANDO RECREATION PARK - GYMNASIUM,208 PARK AVE SAN FERNANDO CA 91340,False,Locality wide location,False,-118.43397,34.28094
SAN FERNANDO SPANISH SDA CHURCH - GYMNASIUM,14646 CHATSWORTH DR MISSION HILLS CA 91345,False,Locality wide location,False,-118.45151,34.27109
SAN GABRIEL HIGH SCHOOL - AUDITORIUM FOYER,801 S RAMONA ST SAN GABRIEL CA 91801,False,Locality wide location,False,-118.11007,34.09284
SAN JOSE EDISON ACADEMY - MULTI-PURPOSE ROOM,2021 W ALWOOD ST WEST COVINA CA 91790,False,Locality wide location,False,-117.96046,34.06238
SAN PEDRO ELKS LODGE - PACIFIC ANTLER ROOM,1748 CUMBRE DR SAN PEDRO CA 90732,False,Locality wide location,False,-118.3152,33.73033
SAN PEDRO HIGH SCHOOL - AUDITORIUM FOYER,1001 W 15TH ST SAN PEDRO CA 90731,False,Locality wide location,False,-118.29934,33.72997
SANATANA DHARMA TEMPLE - HALL,15311 PIONEER BLVD NORWALK CA 90650,False,Locality wide location,False,-118.08328,33.89206
SANCTUARY FOR SPIRITUAL LIVING - SOCIAL HALL,5446 N CITRUS AVE COVINA CA 91722,False,Locality wide location,False,-117.89012,34.10656
SANTA ANITA CHURCH - FELLOWSHIP HALL,226 COLORADO BLVD ARCADIA CA 91007,False,Locality wide location,False,-118.03988,34.14478
SANTA CLARITA ATHLETIC CLUB - FRONT ROOM,24640 WILEY CANYON RD NEWHALL CA 91321,False,Locality wide location,False,-118.55447,34.36456
SANTA MONICA COMMUNITY COLLEGE - CORSAIR GYMNASIUM,1900 PICO BLVD SANTA MONICA CA 90405,False,Locality wide location,False,-118.47121,34.01796
SANTA MONICA HIGH SCHOOL - CAFETERIA,601 PICO BLVD SANTA MONICA CA 90405,False,Locality wide location,False,-118.48501,34.01158
SATO ACADEMY - CAFETERIA,1100 IROQUOIS AVE LONG BEACH CA 90815,False,Locality wide location,False,-118.10525,33.78013
SAUGUS UNION SCHOOL DISTRICT - BRAMLETT ROOM,24930 AVENUE STANFORD SANTA CLARITA CA 91355,False,Locality wide location,False,-118.57188,34.43906
SCHOLARSHIP PREP - SOUTH BAY - GYMNASIUM,24910 S AVALON BLVD WILMINGTON CA 90744,False,Locality wide location,False,-118.26361,33.79974
SCHURR HIGH SCHOOL - GYMNASIUM,820 N WILCOX AVE MONTEBELLO CA 90640,False,Locality wide location,False,-118.12178,34.02841
SCOTTISH RITE CATHEDRAL - BALLROOM,855 ELM AVE LONG BEACH CA 90813,False,Locality wide location,False,-118.18805,33.77751
SCOTTSDALE TOWNHOUSE - GRAND HALL,23400 S AVALON BLVD CARSON CA 90745,False,Locality wide location,False,-118.26285,33.81269
SECOND HOME HOLLYWOOD - OVAL ROOM,1370 N ST ANDREWS PL LOS ANGELES CA 90028,False,Locality wide location,False,-118.31057,34.09658
SELMA AVENUE ELEMENTARY SCHOOL - AUDITORIUM,6611 SELMA AVE LOS ANGELES CA 90028,False,Locality wide location,False,-118.33474,34.10045
SEPULVEDA MIDDLE SCHOOL - EVANS HALL,15330 PLUMMER ST NORTH HILLS CA 91343,False,Locality wide location,False,-118.46604,34.24082
SERENITY EVENT CENTER - GRAND BALL ROOM,695 E FOOTHILL BLVD POMONA CA 91767,False,Locality wide location,False,-117.73832,34.10777
SHADOW OAK PARK RECREATION CENTER - COMMUNITY HALL,2121 SHADOW OAK DR WEST COVINA CA 91792,False,Locality wide location,False,-117.9,34.01962
SHATTO RECREATION CENTER - GYMNASIUM,3191 W 4TH ST LOS ANGELES CA 90020,False,Locality wide location,False,-118.28925,34.0675
SHELYN ELEMENTARY SCHOOL - MULTI-PURPOSE ROOM,19500 NACORA ST ROWLAND HEIGHTS CA 91748,False,Locality wide location,False,-117.87626,33.98151
SHERATON GATEWAY LOS ANGELES HOTEL - CALIFORNIA BALLROOM,6101 W CENTURY BLVD LOS ANGELES CA 90045,False,Locality wide location,False,-118.39066,33.94661
SHERMAN OAKS ELEMENTARY CHARTER - MULTI-PURPOSE ROOM,14755 GREENLEAF ST SHERMAN OAKS CA 91403,False,Locality wide location,False,-118.45573,34.1501
SHIEKH COMPTON COMMUNITY CENTER - COMMUNITY CENTER,1900 N LONG BEACH BLVD COMPTON CA 90221,False,Locality wide location,False,-118.20802,33.9087
SHIRPSER ELEMENTARY SCHOOL - CAFETERIA,4020 GIBSON RD EL MONTE CA 91731,False,Locality wide location,False,-118.04841,34.07977
SHRINE AUDITORIUM & EXPO HALL - EXPO HALL,665 W JEFFERSON BLVD LOS ANGELES CA 90007,False,Locality wide location,False,-118.28127,34.02399
SIERRA PARK ELEMENTARY SCHOOL - AUDITORIUM,3170 BUDAU AVE LOS ANGELES CA 90032,False,Locality wide location,False,-118.16844,34.08276
SIERRA VISTA JR HIGH SCHOOL - MULTI-PURPOSE ROOM,19425 STILLMORE ST CANYON COUNTRY CA 91351,False,Locality wide location,False,-118.4739,34.4193
SIGNAL HILL PARK - COMMUNITY CENTER,1780 E HILL ST SIGNAL HILL CA 90755,False,Locality wide location,False,-118.16962,33.79682
SIMMS PARK COMMUNITY CENTER - AUDITORIUM,16614 CLARK AVE BELLFLOWER CA 90706,False,Locality wide location,False,-118.13302,33.88313
SKIRBALL CULTURAL CENTER - AHMANSON HALL,2701 N SEPULVEDA BLVD LOS ANGELES CA 90049,False,Locality wide location,False,-118.47952,34.12512
SMITH PARK - AUDITORIUM,6016 ROSEMEAD BLVD PICO RIVERA CA 90660,False,Locality wide location,False,-118.09,33.99097
SONIA SOTOMAYOR ARTS & SCIENCES MAGNET - MULTI-PURPOSE ROOM,2050 N SAN FERNANDO RD LOS ANGELES CA 90065,False,Locality wide location,False,-118.23735,34.10237
SOUTH BAY ADULT SCHOOL - CONFERENCE ROOM A,3401 INGLEWOOD AVE REDONDO BEACH CA 90278,False,Locality wide location,False,-118.36211,33.88669
SOUTH COAST BOTANIC GARDENS - FRANCES YOUNG HALL,26300 CRENSHAW BLVD PALOS VERDES ESTATES CA 90274,False,Locality wide location,False,-118.34894,33.78322
SOUTH EL MONTE COMMUNITY CENTER - GYMNASIUM,1530 CENTRAL AVE SOUTH EL MONTE CA 91733,False,Locality wide location,False,-118.04633,34.04621
SOUTH GATE PARK SPORTS CENTER - BICENTENNIAL ROOM,9520 HILDRETH AVE SOUTH GATE CA 90280,False,Locality wide location,False,-118.18668,33.94611
SOUTH PASADENA PUBLIC LIBRARY - COMMUNITY ROOM,1115 EL CENTRO ST SOUTH PASADENA CA 91030,False,Locality wide location,False,-118.15582,34.11437
SOUTHEAST ACADEMY HIGH SCHOOL - MULTI-PURPOSE ROOM,12940 FOSTER RD NORWALK CA 90650,False,Locality wide location,False,-118.05708,33.90908
ST BERNADETTE CATHOLIC CHURCH - PARISH HALL,3825 DON FELIPE DR LOS ANGELES CA 90008,False,Locality wide location,False,-118.34202,34.00776
ST CASIMIR CHURCH - PARISH HALL,3855 EVANS ST LOS ANGELES CA 90027,False,Locality wide location,False,-118.27525,34.10802
ST CECILIA CATHOLIC CHURCH - PARISH HALL,4230 S NORMANDIE AVE LOS ANGELES CA 90037,False,Locality wide location,False,-118.29983,34.006
ST CROSS EPISCOPAL CHURCH - PARISH HALL,1818 MONTEREY BLVD HERMOSA BEACH CA 90254,False,Locality wide location,False,-118.39929,33.86696
ST EUPHRASIA CHURCH - PARISH HALL,11766 SHOSHONE AVE GRANADA HILLS CA 91344,False,Locality wide location,False,-118.51609,34.28397
ST GERARD MAJELLA CHURCH - ST GERARD MAJELLA PARISH HALL,4471 INGLEWOOD BLVD LOS ANGELES CA 90066,False,Locality wide location,False,-118.41871,33.99455
ST IGNATIUS CHURCH - FELLOWSHIP HALL,6025 MONTE VISTA ST LOS ANGELES CA 90042,False,Locality wide location,False,-118.19093,34.11378
ST JOHNS EPISCOPAL CHURCH - VICENTI HALL,4745 WHEELER AVE LA VERNE CA 91750,False,Locality wide location,False,-117.77716,34.12401
ST LUKES EPISCOPAL CHURCH - PARISH HALL,525 E 7TH ST LONG BEACH CA 90813,False,Locality wide location,False,-118.18591,33.77575
ST MARK BAPTIST CHURCH - YOUTH EDUCATION BLD,1703 LEMON AVE LONG BEACH CA 90813,False,Locality wide location,False,-118.17878,33.78844
ST MARY & ST ATHANASIUS CHURCH - BASKETBALL COURT,17431 ROSCOE BLVD NORTHRIDGE CA 91325,False,Locality wide location,False,-118.51257,34.22251
ST MARYS CATHOLIC CHURCH - PARISH,1600 E AVENUE R4 PALMDALE CA 93550,False,Locality wide location,False,-118.12482,34.56877
ST MARYS CATHOLIC CHURCH - PARISH,1600 E AVENUE R4 PALMDALE CA 93550,True,Locality wide location,False,-118.12482,34.56877
ST PATRICK CHURCH SCHOOL - AUDITORIUM,10626 ERWIN ST NORTH HOLLYWOOD CA 91606,False,Locality wide location,False,-118.36231,34.18289
ST PAUL THE APOSTLE CATHOLIC COMMUNITY - PARISH HALL,1526 SELBY AVE LOS ANGELES CA 90024,False,Locality wide location,False,-118.43707,34.05519
ST PAULS UNITED METHODIST CHURCH - CAPPLEMAN HALL,5619 LINDLEY AVE TARZANA CA 91356,False,Locality wide location,False,-118.52755,34.17348
ST STEPHEN BAPTIST CHURCH - GYMNASIUM,1718 WALNUT AVE LA PUENTE CA 91744,False,Locality wide location,False,-117.93364,34.04925
STANLEY SOCIAL - STANLEY/SUNSET ROOM,1510 N STANLEY AVE LOS ANGELES CA 90046,False,Locality wide location,False,-118.35594,34.09838
STAPLES CENTER - FIGUEROA ST CONCOURSE,1111 S FIGUEROA LOS ANGELES CA 90015,False,Locality wide location,False,-118.26736,34.04301
STEPHEN SORENSEN COUNTY PARK - GYMNASIUM,16801 E AVENUE P PALMDALE CA 93591,False,Locality wide location,False,-117.83004,34.6043
STEVENSON RANCH LIBRARY - MEETING ROOM,25950 THE OLD RD STEVENSON RANCH CA 91381,False,Locality wide location,False,-118.57277,34.39322
STONEHURST RECREATION CENTER - GYMNASIUM,9901 DRONFIELD ST SUN VALLEY CA 91352,False,Locality wide location,False,-118.37436,34.24854
STONER RECREATION CENTER - GYMNASIUM,1835 STONER AVE LOS ANGELES CA 90025,False,Locality wide location,False,-118.45359,34.03848
SUN VALLEY SENIOR HIGH - MULTI-PURPOSE ROOM,9171 TELFAIR AVE SUN VALLEY CA 91352,False,Locality wide location,False,-118.39703,34.23604
SUNKIST LIBRARY - MAIN FLOOOR,840 N PUENTE AVE LA PUENTE CA 91746,False,Locality wide location,False,-117.97675,34.05524
SUNLAND SENIOR CITIZEN CENTER - SENIOR CLUB ROOM,8640 FENWICK ST SUNLAND CA 91040,False,Locality wide location,False,-118.32147,34.26112
TAMARISK ELEMENTARY SCHOOL - MULTI-PURPOSE ROOM,1834 E AVENUE Q5 PALMDALE CA 93550,False,Locality wide location,False,-118.09561,34.58272
TAYLOR RECEPTION HALL - TAYLOR HALL,1775 N INDIAN HILL BLVD CLAREMONT CA 91711,False,Locality wide location,False,-117.72098,34.11539
TED WATKINS PARK - GYMNASIUM,1335 E 103RD ST LOS ANGELES CA 90002,False,Locality wide location,False,-118.25139,33.94443
TELFAIR ELEMENTARY SCHOOL - MULTI-PURPOSE ROOM,10975 TELFAIR AVE PACOIMA CA 91331,False,Locality wide location,False,-118.43185,34.26873
TEMPLE CITY HIGH SCHOOL - GYMNASIUM,9501 LEMON AVE TEMPLE CITY CA 91780,False,Locality wide location,False,-118.06485,34.11794
TEMPLE INTERMEDIATE SCHOOL - CAFETERIA,8510 FERN AVE ROSEMEAD CA 91770,False,Locality wide location,False,-118.08317,34.05856
TERASAKI BUDOKAN - GYMNASIUM,249 S LOS ANGELES ST LOS ANGELES CA 90012,False,Locality wide location,False,-118.24464,34.04928
THE BEVERLY HILTON - INTERNATIONAL TERRACE ROOM,9876 WILSHIRE BLVD BEVERLY HILLS CA 90210,False,Locality wide location,False,-118.4133,34.06672
THE BREWERY ARTIST LOFTS - MULTI-PURPOSE ROOM,600 MOULTON AVE LOS ANGELES CA 90031,False,Locality wide location,False,-118.21834,34.06476
THE CANYON- SANTA CLARITA - DANCE FLOOR,24201 VALENCIA BLVD SANTA CLARITA CA 91355,False,Locality wide location,False,-118.5573,34.41561
THE CATALINA ROOM - CATALINA ROOM AND MEETING ROOM,128 CATALINA AVE REDONDO BEACH CA 90277,False,Locality wide location,False,-118.38784,33.84029
THE GRAND LONG BEACH - CATALINA ROOM,4101 E WILLOW ST LONG BEACH CA 90815,False,Locality wide location,False,-118.14692,33.80487
THE LA FORUM - LEVEL 1 ARENA FLOOR,3900 W MANCHESTER BLVD INGLEWOOD CA 90305,False,Locality wide location,False,-118.34206,33.95809
THE MOUNTAIN MERMAID - MAIN ROOM & LOBBY,20421 CALLON DR TOPANGA CA 90290,False,Locality wide location,False,-118.5803,34.11576
"THE MUSIC CENTER - DOROTHY CHANDLER, STERN GRAND HALL",135 N GRAND LOS ANGELES CA 90012,False,Locality wide location,False,-118.24685,34.05725
THE PORTOFINO HOTEL & MARINA - PACIFIC BALLROOM,260 PORTOFINO WAY REDONDO BEACH CA 90277,False,Locality wide location,False,-118.39689,33.84534
THE ROSE ROOM - ROSE ROOM AND ENTRY ROOM,6 ROSE AVE VENICE CA 90291,False,Locality wide location,False,-118.48012,33.99474
THE VALLEY VINEYARD CHRISTIAN CHURCH - FELLOWSHIP HALL,6642 RESEDA BLVD RESEDA CA 91335,False,Locality wide location,False,-118.53557,34.19136
THE VILLAGE AT INDIAN HILL - ATRIUM,1460 E HOLT AVE POMONA CA 91767,False,Locality wide location,False,-117.72043,34.06077
THE WESTIN LONG BEACH - CENTENNIAL BALLROOM,333 E OCEAN BLVD LONG BEACH CA 90802,False,Locality wide location,False,-118.18824,33.76745
THE WILTERN - MAIN FLOOR,3790 WILSHIRE BLVD LOS ANGELES CA 90010,False,Locality wide location,False,-118.30848,34.06114
THEE CHATEAU BANQUET HALL - BANQUET HALL,1700 HOLT AVE POMONA CA 91768,False,Locality wide location,False,-117.77916,34.0613
THOMAS JEFFERSON ELEMENTARY SCHOOL - AUDITORIUM,1900 N 6TH ST BURBANK CA 91504,False,Locality wide location,False,-118.32141,34.19969
THOMAS JEFFERSON MIDDLE SCHOOL - GYMNASIUM,750 EUCLID AVE LONG BEACH CA 90804,False,Locality wide location,False,-118.14889,33.77607
THOMPSON PARK BUILDING - GYMNASIUM,14001 BELLFLOWER BLVD BELLFLOWER CA 90706,False,Locality wide location,False,-118.12588,33.90572
TIBBY ELEMENTARY SCHOOL - MULTI-PURPOSE ROOM,1400 W POPLAR ST COMPTON CA 90220,False,Locality wide location,False,-118.24729,33.89964
TOBERMAN NEIGHBORHOOD CENTER - GYMNASIUM,131 N GRAND AVE SAN PEDRO CA 90731,False,Locality wide location,False,-118.29042,33.74375
TOM BRADLEY INTERNATIONAL HALL - TOM BRADLEY BALLROOM,417 CHARLES E YOUNG DR W LOS ANGELES CA 90095,False,Locality wide location,False,-118.44911,34.06964
TOOLBOX LA - EVENT SPACE AND ART GALLERY,9410 OWENSMOUTH AVE CHATSWORTH CA 91311,False,Locality wide location,False,-118.60113,34.24119
TOPANGA COMMUNITY CENTER - OUTDOOR - PARKING LOT,1440 N TOPANGA CANYON BLVD TOPANGA CA 90290,False,Locality wide location,False,-118.58987,34.11222
TOPANGA LIBRARY - LIBRARY LOBBY,122 N TOPANGA CANYON BLVD TOPANGA CA 90290,False,Locality wide location,False,-118.60341,34.08991
TORCH MIDDLE SCHOOL - WATANABE CENTER,751 VINELAND AVE CITY OF INDUSTRY CA 91746,False,Locality wide location,False,-117.98389,34.05789
TOWN CENTER HALL - SOCIAL HALL,11740 TELEGRAPH RD SANTA FE SPRINGS CA 90670,False,Locality wide location,False,-118.08331,33.94503
TREE OF LIFE BAPTIST CHURCH - FELLOWSHIP HALL,9702 HOLMES AVE LOS ANGELES CA 90002,False,Locality wide location,False,-118.24056,33.94793
TREEPEOPLE - CONFERENCE CENTER,12601 MULLHOLLAND DR BEVERLY HILLS CA 90210,False,Locality wide location,False,-118.40657,34.12923
TRINITY LUTHERAN CHURCH - GYMNASIUM,997 E WALNUT PASADENA CA 91106,False,Locality wide location,False,-118.12978,34.14987
TRINITY STREET ELEMENTARY - AUDITORIUM,3736 TRINITY ST LOS ANGELES CA 90011,False,Locality wide location,False,-118.26934,34.01212
UBER - BURBANK - PENNY ROOM,4201 VANOWEN PL BURBANK CA 91505,False,Locality wide location,False,-118.35711,34.19283
UBER - REDONDO BEACH - MAIN ROOM,2400 MARINE AVE REDONDO BEACH CA 90278,False,Locality wide location,False,-118.36966,33.89404
UCLA ACKERMAN UNION - ACKERMAN GRAND BALLROOM,340 ROYCE DR LOS ANGELES CA 90020,False,Locality wide location,False,-118.44217,34.0729
UNION AVENUE ELEMENTARY SCHOOL - AUDITORIUM,150 S BURLINGTON AVE LOS ANGELES CA 90057,False,Locality wide location,False,-118.26678,34.06415
UNION CHURCH LA - EXTENTION ROOM,201 S NEW AVE MONTEREY PARK CA 91755,False,Locality wide location,False,-118.10844,34.06128
UNION STATION - TICKET CONCOURSE,800 N ALAMEDA ST LOS ANGELES CA 90012,False,Locality wide location,False,-118.2365,34.05622
UNIVERSAL CITYWALK HOLLYWOOD - OUTDOOR - JURASSIC PARKING GARAGE,100 UNIVERSAL CITY PLAZA UNIVERSAL CITY CA 91608,False,Locality wide location,False,-118.35202,34.13619
UNIVERSITY OF SOUTHERN CALIFORNIA - GALEN CENTER / HALL OF FAME,3400 S FIGUEROA ST LOS ANGELES CA 90089,False,Locality wide location,False,-118.27985,34.02086
USC HEALTH SCIENCE CAMPUS - SOTO STREET BUILDING (SSB),2001 N SOTO ST LOS ANGELES CA 90033,False,Locality wide location,False,-118.19734,34.06655
VALENCIA VALLEY ELEMENTARY SCHOOL - MULTI-PURPOSE ROOM,23601 CARRIZO DR VALENCIA CA 91355,False,Locality wide location,False,-118.54896,34.40832
VALINDA SCHOOL OF ACADEMICS - MULTI-PURPOSE ROOM/CAFETERIA,1030 INDIAN SUMMER AVE LA PUENTE CA 91744,False,Locality wide location,False,-117.92916,34.03816
VALLEY ACADEMY OF ARTS & SCIENCES - GYMNASIUM,10445 BALBOA BLVD GRANADA HILLS CA 91344,False,Locality wide location,False,-118.50364,34.26005
VALLEY KOREAN UNITED METHODIST CHURCH - FELLOWSHIP HALL 1 & 2,10408 BALBOA BLVD GRANADA HILLS CA 91344,False,Locality wide location,False,-118.50186,34.25974
VAN NUYS ELKS LODGE - MAIN LOBBY,14440 FRIAR ST VAN NUYS CA 91401,False,Locality wide location,False,-118.44781,34.18538
VAN NUYS MIDDLE SCHOOL - GYMNASIUM,5435 VESPER AVE VAN NUYS CA 91411,False,Locality wide location,False,-118.45222,34.16876
VAN NUYS RECREATION CENTER - RECREATION CENTER,14301 VANOWEN ST VAN NUYS CA 91405,False,Locality wide location,False,-118.44511,34.19427
VASQUEZ HIGH SCHOOL - GYMNASIUM,33630 RED ROVER MINE RD ACTON CA 91350,False,Locality wide location,False,-118.216,34.49396
VECTOR 90 - 1ST FLOOR,6111 S GRAMERCY PL LOS ANGELES CA 90047,False,Locality wide location,False,-118.31391,33.9841
VERMONT AVENUE ELEMENTARY SCHOOL - AUDITORIUM,1435 W 27TH ST LOS ANGELES CA 90007,False,Locality wide location,False,-118.29281,34.03084
VETERANS MEMORIAL COMPLEX - AUDITORIUM,4117 OVERLAND AVE CULVER CITY CA 90230,False,Locality wide location,False,-118.40253,34.01295
VETERANS PARK - GYMNASIUM,22400 MONETA AVE CARSON CA 90745,False,Locality wide location,False,-118.28107,33.82361
VFW POST 8620 - BANQUET HALL,2328 MERCED AVE WEST COVINA CA 91790,False,Locality wide location,False,-117.95808,34.0697
VICTORIA COMMUNITY REGIONAL PARK - MULTI-PURPOSE ROOM,419 E 192ND ST CARSON CA 90746,False,Locality wide location,False,-118.27236,33.85726
VICTORY BOULEVARD ELEMENTARY SCHOOL - AUDITORIUM,6315 RADFORD AVE NORTH HOLLYWOOD CA 91606,False,Locality wide location,False,-118.39235,34.18559
VICTORY PARK - GYMNASIUM,2575 PALOMA ST PASADENA CA 91107,False,Locality wide location,False,-118.0958,34.15952
VILLA PARKE COMMUNITY CENTER - AUDITORIUM,363 E VILLA ST PASADENA CA 91101,False,Locality wide location,False,-118.14319,34.1544
VINEYARD RECREATION CENTER - GYMNASIUM,2942 VINEYARD AVE LOS ANGELES CA 90016,False,Locality wide location,False,-118.34636,34.02825
VIRGINIA ROAD ELEMENTARY SCHOOL - AUDITORIUM,2925 VIRGINIA RD LOS ANGELES CA 90016,False,Locality wide location,False,-118.34002,34.02855
WABASH RECREATION CENTER - GYMNASIUM,2765 WABASH AVE LOS ANGELES CA 90033,False,Locality wide location,False,-118.19816,34.05091
WALNUT ELEMENTARY SCHOOL - CAFETERIA,4701 WALNUT ST BALDWIN PARK CA 91706,False,Locality wide location,False,-117.97621,34.09771
WALNUT HIGH SCHOOL - MULTI-PURPOSE ROOM + STAGE,400 PIERRE RD WALNUT CA 91789,False,Locality wide location,False,-117.85055,34.02186
WALNUT PARK ELEMENTARY SCHOOL - MULTI-PURPOSE ROOM,2642 OLIVE ST WALNUT PARK CA 90255,False,Locality wide location,False,-118.22383,33.96762
WAR MEMORIAL BUILDING - WAR MEMORIAL HALL,435 FAIR OAKS AVE SOUTH PASADENA CA 91030,False,Locality wide location,False,-118.15062,34.12084
WARD ELEMENTARY SCHOOL - CAFETERIA,8851 ADOREE ST DOWNEY CA 90242,False,Locality wide location,False,-118.14063,33.9146
WARD VILLAS FOR SENIORS - LOBBY AND MULTI-PURPOSE ROOM,1177 W ADAMS BLVD LOS ANGELES CA 90007,False,Locality wide location,False,-118.28504,34.03271
WARNER CENTER MARRIOTT WOODLAND HILLS - GRAND BALLROOM,21850 W OXNARD ST WOODLAND HILLS CA 91367,False,Locality wide location,False,-118.60387,34.17842
WARNER GRAND THEATRE - GROUND FLOOR LOBBY,478 W 6TH ST SAN PEDRO CA 90731,False,Locality wide location,False,-118.28729,33.73904
WASHINGTON MIDDLE SCHOOL - GYMNASIUM,1505 N MARENGO AVE PASADENA CA 91103,False,Locality wide location,False,-118.14714,34.17249
WATTS LABOR COMMUNITY ACTION COMMITTEE - PHOENIX HALL,10950 S CENTRAL AVE LOS ANGELES CA 90059,False,Locality wide location,False,-118.2533,33.93636
WEBSTER ELEMENTARY SCHOOL - MULTI-PURPOSE ROOM,3602 WINTER CANYON RD MALIBU CA 90265,False,Locality wide location,False,-118.69894,34.03854
WELLNEST EMOTIONAL HEALTH & WELLNESS - MULTI-PURPOSE ROOM,3787 S VERMONT AVE LOS ANGELES CA 90007,False,Locality wide location,False,-118.2919,34.01714
WEST ANGELES CHURCH OF GOD IN CHRIST - SOUTH LOBBY,3600 CRENSHAW BLVD LOS ANGELES CA 90016,False,Locality wide location,False,-118.33424,34.02334
WEST ATHENS ELEMENTARY SCHOOL - AUDITORIUM,1110 W 119TH ST LOS ANGELES CA 90044,False,Locality wide location,False,-118.29448,33.92444
WEST COVINA LIBRARY - MEETING ROOM AND MAIN FLOOR,1601 W WEST COVINA PKWY WEST COVINA CA 91790,False,Locality wide location,False,-117.94037,34.07106
WEST LOS ANGELES COLLEGE - INSTRUMENTAL REHEARSAL HALL FA 104,9000 OVERLAND AVE CULVER CITY CA 90230,False,Locality wide location,False,-118.38716,34.00423
WEST WHITTIER ELEMENTARY SCHOOL - CAFETORIUM,6411 NORWALK BLVD WHITTIER CA 90606,False,Locality wide location,False,-118.06805,33.98684
WESTCHESTER ENRICHED SCIENCES MAGNETS - MULTI-PURPOSE ROOM,7400 W MANCHESTER AVE LOS ANGELES CA 90045,False,Locality wide location,False,-118.42889,33.95776
WESTFIELD CENTURY CITY - OUTDOOR - PARKING LOT 1,10250 SANTA MONICA BLVD LOS ANGELES CA 90067,False,Locality wide location,False,-118.41887,34.059
WESTFIELD FASHION SQUARE - SPACE #62,14006 RIVERSIDE DR SHERMAN OAKS CA 91423,False,Locality wide location,False,-118.43645,34.15637
WESTFIELD TOPANGA AND THE VILLAGE - COMMUNITY CENTER,21710 VANOWEN ST CANOGA PARK CA 91303,False,Locality wide location,False,-118.60227,34.1935
WESTMINSTER AVENUE ELEMENTARY SCHOOL - AUDITORIUM,1010 ABBOT KINNEY BLVD VENICE CA 90291,False,Locality wide location,False,-118.47216,33.99123
WESTMINSTER PRESBYTERIAN CHURCH - MORRISON HALL,1757 N LAKE AVE PASADENA CA 91104,False,Locality wide location,False,-118.13243,34.17642
WESTMINSTER SENIOR CENTER - LOBBY AND AUDITORIUM,1234 PACIFIC AVE VENICE CA 90291,False,Locality wide location,False,-118.4736,33.98989
WESTMONT PARK RECREATION CENTER - COMMUNITY ROOM,1808 W 9TH ST POMONA CA 91766,False,Locality wide location,False,-117.78358,34.04916
WGA THEATER - LOBBY,135 S DOHENY DR BEVERLY HILLS CA 90211,False,Locality wide location,False,-118.38993,34.06586
WHITNEY HIGH SCHOOL - GYMNASIUM,16800 SHOEMAKER AVE CERRITOS CA 90703,False,Locality wide location,False,-118.05429,33.8781
WILEY CANYON ELEMENTARY SCHOOL - MULTI-PURPOSE ROOM,24240 W LA GLORITA CIR NEWHALL CA 91321,False,Locality wide location,False,-118.55883,34.37591
WILKERSON MIDDLE SCHOOL - AUDITORIUM,2700 DOREEN AVE EL MONTE CA 91733,False,Locality wide location,False,-118.04429,34.06152
WILL ROGERS LEARNING COMMUNITY - CAFETERIA,2401 14TH ST SANTA MONICA CA 90405,False,Locality wide location,False,-118.47102,34.01227
WILL ROGERS MIDDLE SCHOOL - GYMNASIUM,365 MONROVIA AVE LONG BEACH CA 90803,False,Locality wide location,False,-118.13161,33.76677
WILLIAMS ELEMENTARY SCHOOL - CAFETERIA,7530 ARNETT ST DOWNEY CA 90241,False,Locality wide location,False,-118.14847,33.94388
WILLOW ADULT EDUCATION CENTER - CAFETERIA,14101 NELSON AVE LA PUENTE CA 91746,False,Locality wide location,False,-117.97924,34.04542
WILLOW ELEMENTARY SCHOOL - MULTI-PURPOSE ROOM,11733 205TH ST LAKEWOOD CA 90715,False,Locality wide location,False,-118.08316,33.8445
WILMINGTON PARK ELEMENTARY SCHOOL - AUDITORIUM,1140 MAHAR AVE WILMINGTON CA 90744,False,Locality wide location,False,-118.24544,33.7864
WILMINGTON SENIOR CITIZEN CENTER - DINING CENTER,1371 EUBANK AVE WILMINGTON CA 90744,False,Locality wide location,False,-118.25682,33.79132
WILSHIRE CREST ELEMENTARY SCHOOL - AUDITORIUM,5241 W OLYMPIC BLVD LOS ANGELES CA 90036,False,Locality wide location,False,-118.34367,34.05836
WILSHIRE PARK ELEMENTARY SCHOOL - MULTI-PURPOSE ROOM,4063 INGRAHAM ST LOS ANGELES CA 90005,False,Locality wide location,False,-118.31654,34.06098
WILSON ELEMENTARY SCHOOL - CAFETERIA,8317 SHEFFIELD RD SAN GABRIEL CA 91775,False,Locality wide location,False,-118.08902,34.1183
WILSON SENIOR HIGH - MULTI-PURPOSE ROOM,4500 MULTNOMAH ST LOS ANGELES CA 90032,False,Locality wide location,False,-118.18505,34.06747
WILSONA ELEMENTARY - MCFERSION HALL,41625 170TH ST E LAKE LOS ANGELES CA 93535,False,Locality wide location,False,-117.82764,34.63933
WINNETKA AVENUE ELEMENTARY SCHOOL - AUDITORIUM,8240 WINNETKA AVE WINNETKA CA 91306,False,Locality wide location,False,-118.57001,34.21937
WITTMANN ELEMENTARY SCHOOL - MULTI-PURPOSE ROOM,16801 YVETTE AVE CERRITOS CA 90703,False,Locality wide location,False,-118.05776,33.87766
WODOC & SOOKY GOLDMAN NATURE CENTER - EUGENE & MICHAEL ROSENFELD,2600 FRANKLIN CANYON DR BEVERLY HILLS CA 90210,False,Locality wide location,False,-118.40848,34.12275
YMCA OF GREATER WHITTIER - GYMNASIUM,12510 HADLEY ST WHITTIER CA 90601,False,Locality wide location,False,-118.04258,33.9821
YWCA- HARBOR AREA - AUDITORIUM,437 W 9TH ST SAN PEDRO CA 90731,False,Locality wide location,False,-118.28652,33.7358
EAST LOS ANGELES COLLEGE - MUSIC BLDG - ROOM 121,1301 AVENIDA CESAR CHAVEZ MONTEREY PARK CA 91754,True,Locality wide location,False,-118.15097,34.04109
EMBASSY SUITES BY HILTON LAX NORTH - PACIFIC BALLROOM,9801 AIRPORT BLVD EL SEGUNDO CA 90245,True,Locality wide location,False,-118.38655,33.94692
JOHN MARSHALL MIDDLE SCHOOL - GYMNASIUM,1921 ARROYO AVE POMONA CA 91766,True,Locality wide location,False,-117.7858,34.06549
ST MARYS CATHOLIC CHURCH - PARISH,1600 E AVENUE R-4 PALMDALE CA 93550,True,Locality wide location,False,-118.10001,34.56829
