name,address,Is Early Voting,Precincts (Or Locality-wide),Is Drop Off,lon,lat
1001 Pine Street Apartments,1001 PINE ST SAN FRANCISCO CA 94109,False,Pct 7344,False,-122.41273,37.79041
1180 Fourth St Apartments - Comm Rm,1180 4TH ST SAN FRANCISCO CA 94158,False,Pct 7653,False,-122.39171,37.77369
150 Van Ness Apartments - Basketball Gym,150 VAN NESS AVE SAN FRANCISCO CA 94102,False,Pct 7616,False,-122.41922,37.77714
1760 Bush Street Apartments - Community Rm,1760 BUSH ST SAN FRANCISCO CA 94109,False,Pct 7503,False,-122.42629,37.78823
333 Bush Street - Lobby,333 BUSH ST SAN FRANCISCO CA 94104,False,Pct 7349,False,-122.40306,37.79064
555 Ellis St Apartments - Community Rm,555 ELLIS ST SAN FRANCISCO CA 94109,False,Pct 7607,False,-122.41549,37.78428
7th Day Adventist Church - Imani Center,2520 BUSH STREET SAN FRANCISCO CA 94115-3002,False,Pct 9256,False,-122.43934,37.78656
Abraham Lincoln School - Teachers' Lounge,2162 24TH AVE SAN FRANCISCO CA 94116,False,Pct 9439,False,-122.48095,37.74698
Academic & Professional Dev - Room 118,735 24TH AVE SAN FRANCISCO CA 94121,False,Pct 9142,False,-122.48378,37.77568
Adath Israel Synagogue,1851 NORIEGA ST SAN FRANCISCO CA 94122,False,Pct 9432,False,-122.48383,37.75365
Alamo Elementary School - Lobby,250 23RD AVE SAN FRANCISCO CA 94121,False,Pct 9107,False,-122.48204,37.7828
Alemany Apartments - Community Room,560 ALEMANY BLVD SAN FRANCISCO CA 94110,False,Pct 7945,False,-122.41803,37.73237
Alice Fong Yu Alternative School - Room 401,1541 12TH AVE SAN FRANCISCO CA 94122,False,Pct 9704,False,-122.4695,37.75888
Alice Griffith Apartments - Multipurpose Rm,2600 ARELIOUS WALKER DR SAN FRANCISCO CA 94124,False,Pct 7044,False,-122.38535,37.71892
Allen Chapel - A M E Church,195 SCOTIA AVE SAN FRANCISCO CA 94124,False,Pct 7026,False,-122.3996,37.73205
Altamont Hotel - Storefront,3042 16TH ST SAN FRANCISCO CA 94103,False,Pct 7903,False,-122.42071,37.76525
Alvarado Elementary School - Motor Skills Rm,625 DOUGLASS ST SAN FRANCISCO CA 94114,False,Pct 7838,False,-122.4379,37.75341
Annex 1 - Student Event Center,1 NORTH STATE DR SAN FRANCISCO CA 94132,False,Pct 9741,False,-122.48216,37.72645
Anza Branch Library - Program Room,550 37TH AVE SAN FRANCISCO CA 94121-2612,False,Pct 9118,False,-122.49727,37.7786
Apartamentos De La Esperanza - Garage,3590 19TH ST SAN FRANCISCO CA 94110,False,Pct 7834,False,-122.42345,37.76021
Aptos Middle School - Auditorium Lobby,105 APTOS AVE SAN FRANCISCO CA 94127,False,Pct 9746,False,-122.46627,37.72976
Aptos Middle School - Room 231,105 APTOS AVE SAN FRANCISCO CA 94127,False,Pct 9728,False,-122.46627,37.72976
Argonne School - Multi Purpose Rm,680 18TH AVE SAN FRANCISCO CA 94121,False,Pct 9126,False,-122.47652,37.77525
Armstrong Place Senior Housing - Comm Rm,5600 3RD ST SAN FRANCISCO CA 94124-7614,False,Pct 7031,False,-122.39398,37.72692
Arnet Watson Apartments - Lobby,650 EDDY ST SAN FRANCISCO CA 94109-7955,False,Pct 7606,False,-122.41849,37.7833
Arriba Juntos - Computer Lab,1850 MISSION ST SAN FRANCISCO CA 94103,False,Pct 7959,False,-122.42031,37.7674
Balboa Baptist Church,200 ONONDAGA AVE SAN FRANCISCO CA 94112-3232,False,Pct 1114,False,-122.44147,37.72294
Balboa Theatre,3630 BALBOA ST SAN FRANCISCO CA 94121-2604,False,Pct 9121,False,-122.49795,37.77591
Bayanihan Community Center - Hall,1010 MISSION STREET SAN FRANCISCO CA 94103-2813,False,Pct 7622,False,-122.40925,37.78083
Bayview Apartments - Community Rm,5 COMMER CT SAN FRANCISCO CA 94124,False,Pct 7029,False,-122.38482,37.73227
Bayview Police Station - Lobby,201 WILLIAMS AVE SAN FRANCISCO CA 94124,False,Pct 7030,False,-122.39797,37.72976
Bayview Y M C A - Gymnasium,1601 LANE ST SAN FRANCISCO CA 94124,False,Pct 7028,False,-122.38979,37.73181
Bella Salon,2248 MISSION ST SAN FRANCISCO CA 94110-1812,False,Pct 7906,False,-122.41967,37.76106
Bernal Heights Library - Community Room,500 CORTLAND AVE SAN FRANCISCO CA 94110,False,Pct 7939,False,-122.41613,37.73886
Bethany United Methodist Church - Chapel,1270 SANCHEZ ST SAN FRANCISCO CA 94114,False,Pct 7855,False,-122.42967,37.74879
Betty Ong Rec Center - Lobby,1199 MASON ST SAN FRANCISCO CA 94108-1551,False,Pct 7337,False,-122.41155,37.79414
Bill Graham Civic Auditorium,99 GROVE ST SAN FRANCISCO CA 94102,False,Locality wide location,False,-122.41744,37.77814
Bnai Emunah Synagogue,3595 TARAVAL ST SAN FRANCISCO CA 94116,False,Pct 9442,False,-122.5043,37.74157
Boba Guys,1522 FILLMORE ST SAN FRANCISCO CA 94115,False,Pct 7506,False,-122.43249,37.78369
Boeddeker Park & Clubhouse - Meeting Room,246 EDDY ST SAN FRANCISCO CA 94102,False,Pct 7609,False,-122.41184,37.78431
Book & Job Gallery,838 GEARY ST SAN FRANCISCO CA 94109,False,Pct 7603,False,-122.41722,37.78645
Boys & Girls Club - Dance Studio,450 GUERRERO ST SAN FRANCISCO CA 94110,False,Pct 7819,False,-122.42429,37.76384
Boys & Girls Club - Excelsior Clubhouse - Game Room,163 LONDON STREET SAN FRANCISCO CA 94112,False,Pct 1143,False,-122.43208,37.72639
Boys & Girls Of San Francisco,901 ALABAMA STREET SAN FRANCISCO CA 94110,False,Pct 7914,False,-122.41108,37.75729
Brava Theater - Cabaret Room,2773 24TH ST SAN FRANCISCO CA 94110,False,Pct 7924,False,-122.40775,37.7528
Bret Harte Elementary School - Auditorium,1035 GILMAN AVENUE SAN FRANCISCO CA 94124,False,Pct 7054,False,-122.38903,37.71838
Bryant Elementary School - Multi Purpose Room,2641 25TH ST SAN FRANCISCO CA 94110-3514,False,Pct 7006,False,-122.40487,37.75163
C C S F - Chinatown North Beach Campus - Lobby,808 KEARNY ST SAN FRANCISCO CA 94108,False,Pct 7328,False,-122.40472,37.7956
C C S F - Southeast Campus,1800 OAKDALE AVE SAN FRANCISCO CA 94124,False,Pct 7016,False,-122.39425,37.73731
Cabrillo Playground - Clubhouse,853 38TH AVE SAN FRANCISCO CA 94121,False,Pct 9137,False,-122.49868,37.77287
Cadillac Hotel,380 EDDY ST SAN FRANCISCO CA 94102,False,Pct 7608,False,-122.41392,37.78408
Cafe International,508 HAIGHT STREET SAN FRANCISCO CA 94117,False,Pct 7541,False,-122.43067,37.7722
California College Of The Arts - Student Lounge,1111 8TH ST SAN FRANCISCO CA 94107,False,Pct 7055,False,-122.39949,37.76738
Carl Street Free Library - Garage,321 CARL ST SAN FRANCISCO CA 94117,False,Pct 7549,False,-122.45488,37.765
Cartwright Hotel - Conference Room,524 SUTTER ST SAN FRANCISCO CA 94102,False,Pct 7345,False,-122.40921,37.78945
Casa De Vida Apartments - Garage,5157 DIAMOND HEIGHTS BLVD SAN FRANCISCO CA 94131,False,Pct 7852,False,-122.43996,37.74698
Cayuga Playground Clubhouse,301 NAGLEE AVE SAN FRANCISCO CA 94112,False,Pct 1121,False,-122.45044,37.71385
Charles Drew Elementary School - Cafeteria,50 POMONA ST SAN FRANCISCO CA 94124,False,Pct 7027,False,-122.3939,37.73176
Chinatown Branch Library - Comm Rm,1135 POWELL ST SAN FRANCISCO CA 94108,False,Pct 7326,False,-122.41023,37.79521
Chinese Immersion School - Room 200,1250 WALLER ST SAN FRANCISCO CA 94117-2919,False,Pct 7548,False,-122.44434,37.76987
Church - Corpus Christi,62 SANTA ROSA AVE SAN FRANCISCO CA 94112-2618,False,Pct 1104/1105,False,-122.43516,37.72684
Church - First Unitarian Universalist,1187 FRANKLIN ST SAN FRANCISCO CA 94109,False,Pct 7208,False,-122.42341,37.7852
Church - Living Water Fellowship,2316 VICENTE ST SAN FRANCISCO CA 94116,False,Pct 9445,False,-122.49187,37.7388
Church Of Christ Church - Community Rm,701 8TH AVE SAN FRANCISCO CA 94118,False,Pct 9146,False,-122.46624,37.77513
Church Of The Visitacion,701 SUNNYDALE AVE SAN FRANCISCO CA 94134,False,Pct 7049,False,-122.4095,37.70944
City Arts & Tech High School - Hallway,325 LA GRANDE AVE SAN FRANCISCO CA 94112-2866,False,Pct 1149,False,-122.42528,37.71949
City College - Visual Arts Building - Lobby,50 FRIDA KAHLO WAY SAN FRANCISCO CA 94112,False,Pct 9753,False,-122.44938,37.7247
Civic Center Residence - Front Lobby,44 MCALLISTER ST SAN FRANCISCO CA 94102-3895,False,Pct 7617,False,-122.4128,37.78132
Claire Lilienthal School - Scott Campus - Auditorium,3630 DIVISADERO ST SAN FRANCISCO CA 94123,False,Pct 9206,False,-122.44341,37.80339
Cleanerific - Storage Room,3465 CESAR CHAVEZ ST SAN FRANCISCO CA 94110,False,Pct 7925,False,-122.41957,37.74788
Coffman Pool - Lobby,1701 VISITACION AVE SAN FRANCISCO CA 94134,False,Pct 7038,False,-122.41584,37.71324
Collins Center,2560 18TH AVENUE SAN FRANCISCO CA 94116,False,Pct 9716,False,-122.47424,37.74036
Columbarium,1 LORAINE CT SAN FRANCISCO CA 94118-4216,False,Pct 9133,False,-122.45705,37.78067
Columbia Park Apartments,1035 FOLSOM ST SAN FRANCISCO CA 94103,False,Pct 7633,False,-122.40598,37.778
Community Room,25 SANCHEZ ST SAN FRANCISCO CA 94114,False,Pct 7808,False,-122.43102,37.76894
Community Room,462 DUBOCE AVE SAN FRANCISCO CA 94117,False,Pct 7809,False,-122.43078,37.76997
Congregation Sherith Israel - Lobby,2262 CALIFORNIA ST SAN FRANCISCO CA 94115,False,Pct 9245,False,-122.43168,37.78947
Contemporary Jewish Museum,736 MISSION ST SAN FRANCISCO CA 94103,False,Pct 7626,False,-122.40385,37.78586
Convent Presbyterian Church - Portalhurst Hall,321 TARAVAL STREET SAN FRANCISCO CA 94116,False,Pct 9718,False,-122.46952,37.7431
County Fair Building,1199 9TH AVE SAN FRANCISCO CA 94122-2370,False,Pct 9518,False,-122.46714,37.76669
Creative Arts Charter School - Library,1601 TURK ST SAN FRANCISCO CA 94115-4527,False,Pct 9508,False,-122.43606,37.77975
Crosby Hotel - Activity Room,516 O' FARRELL ST SAN FRANCISCO CA 94102,False,Pct 7604,False,-122.41338,37.7859
Daniel Webster Elementary School - Lobby,465 MISSOURI ST SAN FRANCISCO CA 94107,False,Pct 7008,False,-122.39612,37.76025
Delancey Street - Store Space,600 EMBARCADERO SAN FRANCISCO CA 94107,False,Pct 7642,False,-122.38854,37.78431
Dianne Feinstein Elementary School - Cafeteria Hallway,2550 25TH AVE SAN FRANCISCO CA 94116,False,Pct 9446,False,-122.48153,37.73969
Dolores Huerta Elementary School - Cafeteria,65 CHENERY ST SAN FRANCISCO CA 94131,False,Pct 7865,False,-122.42527,37.74026
Dolores Park Church,95 DORLAND ST SAN FRANCISCO CA 94110,False,Pct 7826,False,-122.42566,37.76216
Eco-home - Garage,728 COLE ST SAN FRANCISCO CA 94117,False,Pct 7546,False,-122.45013,37.76775
Edward I I Youth Housing - Program Room,3155 SCOTT ST SAN FRANCISCO CA 94123,False,Pct 9215,False,-122.44115,37.79901
Ella Hill Hutch Center - Conference Rm,1050 MCALLISTER ST SAN FRANCISCO CA 94115,False,Pct 7514,False,-122.42947,37.77921
Ellis Gardens - Social Room,666 ELLIS ST SAN FRANCISCO CA 94109,False,Pct 7602,False,-122.4173,37.78455
Endgames Improv â€“ Storefront,2989 MISSION ST SAN FRANCISCO CA 94110,False,Pct 7919,False,-122.41791,37.7494
Episcopal Church Of The Incarnation,1750 29TH AVE SAN FRANCISCO CA 94122-4223,False,Pct 9427,False,-122.48695,37.75453
Eritrean Community Center,1055 FILLMORE ST SAN FRANCISCO CA 94115,False,Pct 7512,False,-122.43209,37.77915
Eureka Valley Rec Ctr - Tot Room,100 COLLINGWOOD ST SAN FRANCISCO CA 94114,False,Pct 7822,False,-122.43642,37.76028
Everett Middle School - Hallway,450 CHURCH ST SAN FRANCISCO CA 94114,False,Pct 7818,False,-122.42907,37.76366
Faithful Fools,234 HYDE ST SAN FRANCISCO CA 94102,False,Pct 7614,False,-122.41552,37.78306
Fire Station #44,1298 GIRARD ST SAN FRANCISCO CA 94134,False,Pct 7046,False,-122.4005,37.71663
Firehouse #1,935 FOLSOM ST SAN FRANCISCO CA 94107,False,Pct 7631,False,-122.40412,37.77945
Firehouse #11,3880 26TH ST SAN FRANCISCO CA 94131,False,Pct 7856,False,-122.42651,37.74881
Firehouse #12,1145 STANYAN ST SAN FRANCISCO CA 94117,False,Pct 7554,False,-122.45261,37.76349
Firehouse #13,530 SANSOME ST SAN FRANCISCO CA 94111,False,Pct 7329,False,-122.40141,37.79555
Firehouse #14,551 26TH AVE SAN FRANCISCO CA 94121,False,Pct 9123,False,-122.48595,37.77901
Firehouse #15,1000 OCEAN AVE SAN FRANCISCO CA 94112,False,Pct 1112,False,-122.45288,37.72349
Firehouse #16 - West Engine Bay,2251 GREENWICH ST SAN FRANCISCO CA 94123,False,Pct 9216,False,-122.43675,37.79865
Firehouse #17,1295 SHAFTER AVE SAN FRANCISCO CA 94124,False,Pct 7033,False,-122.385,37.72752
Firehouse #18,1935 32ND AVE SAN FRANCISCO CA 94116,False,Pct 9431,False,-122.49048,37.75098
Firehouse #19,390 BUCKINGHAM WAY SAN FRANCISCO CA 94132,False,Pct 9726,False,-122.47896,37.72782
Firehouse #2,1340 POWELL ST SAN FRANCISCO CA 94133,False,Pct 7322,False,-122.41003,37.79704
Firehouse #20,285 OLYMPIA WAY SAN FRANCISCO CA 94131,False,Pct 7704,False,-122.45622,37.75117
Firehouse #21,1443 GROVE ST SAN FRANCISCO CA 94117,False,Pct 7523,False,-122.44031,37.77546
Firehouse #22,1290 16TH AVENUE SAN FRANCISCO CA 94122,False,Pct 9515,False,-122.47368,37.76398
Firehouse #23,1348 45TH AVE SAN FRANCISCO CA 94122,False,Pct 9402,False,-122.50468,37.76142
Firehouse #24,100 HOFFMAN AVE SAN FRANCISCO CA 94114,False,Pct 7837,False,-122.44108,37.75317
Firehouse #26,80 DIGBY ST SAN FRANCISCO CA 94131,False,Pct 7868,False,-122.43337,37.74028
Firehouse #28,1814 STOCKTON ST SAN FRANCISCO CA 94133,False,Pct 7305,False,-122.40934,37.80256
Firehouse #29,299 VERMONT ST SAN FRANCISCO CA 94103,False,Pct 7002,False,-122.40438,37.76619
Firehouse #3,1067 POST ST SAN FRANCISCO CA 94109,False,Pct 7601,False,-122.41932,37.78663
Firehouse #31,441 12TH AVE SAN FRANCISCO CA 94118,False,Pct 9128,False,-122.47092,37.77988
Firehouse #32,194 PARK ST SAN FRANCISCO CA 94110,False,Pct 7944,False,-122.42118,37.73639
Firehouse #33,8 CAPITOL AVE SAN FRANCISCO CA 94112,False,Pct 1125,False,-122.45863,37.71088
Firehouse #34,499 41ST AVE SAN FRANCISCO CA 94121,False,Pct 9117,False,-122.50269,37.77944
Firehouse #36 - Chief's Bay,109 OAK STREET SAN FRANCISCO CA 94102,False,Pct 7545,False,-122.4212,37.77494
Firehouse #38,2150 CALIFORNIA ST SAN FRANCISCO CA 94115,False,Pct 9247,False,-122.42991,37.78966
Firehouse #39,1091 PORTOLA DR SAN FRANCISCO CA 94127,False,Pct 9731,False,-122.45866,37.74003
Firehouse #40,2155 18TH AVE SAN FRANCISCO CA 94116,False,Pct 9713,False,-122.47533,37.74764
Firehouse #41,1325 LEAVENWORTH ST SAN FRANCISCO CA 94109,False,Pct 7333,False,-122.41653,37.7934
Firehouse #42,2430 SAN BRUNO AVE SAN FRANCISCO CA 94134,False,Pct 7952,False,-122.40556,37.73158
Firehouse #43,720 MOSCOW ST SAN FRANCISCO CA 94112-3527,False,Pct 1153,False,-122.43169,37.71634
Firehouse #51,218 LINCOLN BLVD SAN FRANCISCO CA 94129,False,Pct 9202,False,-122.45543,37.80163
Firehouse #6,135 SANCHEZ ST SAN FRANCISCO CA 94114,False,Pct 7807,False,-122.43075,37.76709
Firehouse #7,2300 FOLSOM ST SAN FRANCISCO CA 94110,False,Pct 7907,False,-122.41518,37.76026
Firehouse #8 - Chief's Bay,36 BLUXOME STREET SAN FRANCISCO CA 94107,False,Pct 7636,False,-122.39679,37.77729
First Baptist Church Of San Francisco,7 OCTAVIA ST SAN FRANCISCO CA 94102,False,Pct 7544,False,-122.42385,37.77214
First Congregational Church Of S F,1300 POLK ST SAN FRANCISCO CA 94109,False,Pct 7339,False,-122.42014,37.78889
Forest Hill Association - Club House,381 MAGELLAN AVE SAN FRANCISCO CA 94116,False,Pct 9715,False,-122.46361,37.74455
Forest Hills Christian Church - Lobby,250 LAGUNA HONDA BLVD SAN FRANCISCO CA 94116-1409,False,Pct 9712,False,-122.46121,37.75007
Fox Plaza - Fitness Center,1390 MARKET ST SAN FRANCISCO CA 94102,False,Pct 7654,False,-122.41747,37.77718
Francis Scott Key Elem. - Auditorium Lobby,1530 43RD AVENUE SAN FRANCISCO CA 94122,False,Pct 9417,False,-122.50222,37.75818
Francisco Middle School - Auditorium,2190 POWELL ST SAN FRANCISCO CA 94133,False,Pct 7304,False,-122.41138,37.80446
Friends Bar,588 MONTEREY BLVD SAN FRANCISCO CA 94127,False,Pct 7711,False,-122.44856,37.73181
Fulton Playground - Fieldhouse,855 27TH AVE SAN FRANCISCO CA 94121-3619,False,Pct 9141,False,-122.4869,37.77356
Galileo High School - Room 212,1150 FRANCISCO ST SAN FRANCISCO CA 94109,False,Pct 7201,False,-122.42425,37.80381
Gallery 16,501 3RD ST SAN FRANCISCO CA 94107,False,Pct 7641,False,-122.39544,37.78129
Galvanize,44 TEHAMA ST SAN FRANCISCO CA 94105,False,Pct 7651,False,-122.39673,37.78764
Garage,1 CRESTMONT DR SAN FRANCISCO CA 94131,False,Pct 7701,False,-122.45758,37.75561
Garage,101 MADRID ST SAN FRANCISCO CA 94112,False,Pct 1142,False,-122.42807,37.72762
Garage,1035 HAYES ST SAN FRANCISCO CA 94117,False,Pct 7529,False,-122.43345,37.77535
Garage,1057 ASHBURY ST SAN FRANCISCO CA 94117,False,Pct 7552,False,-122.44673,37.76363
Garage,110 SEAL ROCK DR SAN FRANCISCO CA 94121,False,Pct 9101,False,-122.50825,37.78093
Garage,111 WESTMOORLAND DR SAN FRANCISCO CA 94132,False,Pct 9724,False,-122.49079,37.73179
Garage,1124 LEAVENWORTH ST SAN FRANCISCO CA 94109,False,Pct 7335,False,-122.41565,37.79163
Garage,1145 PACIFIC AVE SAN FRANCISCO CA 94133,False,Pct 7325,False,-122.41405,37.79584
Garage,1150 HYDE ST SAN FRANCISCO CA 94109,False,Pct 7334,False,-122.41733,37.79179
Garage,1165 DOLORES ST SAN FRANCISCO CA 94110,False,Pct 7857,False,-122.42482,37.75081
Garage,1166 FILBERT ST SAN FRANCISCO CA 94109,False,Pct 7205,False,-122.41876,37.80042
Garage,1168 PAGE ST SAN FRANCISCO CA 94117,False,Pct 7536,False,-122.44006,37.77213
Garage,1227 MONTGOMERY ST SAN FRANCISCO CA 94133,False,Pct 7308,False,-122.40454,37.80048
Garage,1259 BAY ST SAN FRANCISCO CA 94123-2302,False,Pct 9213,False,-122.42775,37.80352
Garage,126 CHENERY ST SAN FRANCISCO CA 94131-2709,False,Pct 7873,False,-122.42584,37.73941
Garage,1260 HAIGHT ST SAN FRANCISCO CA 94117,False,Pct 7535,False,-122.44308,37.77085
Garage,1279 41ST AVE SAN FRANCISCO CA 94122,False,Pct 9403,False,-122.50098,37.76296
Garage,128 EUREKA ST SAN FRANCISCO CA 94114,False,Pct 7821,False,-122.43844,37.76015
Garage,1295 48TH AVE SAN FRANCISCO CA 94122,False,Pct 9401,False,-122.50839,37.76233
Garage,130 CARMEL ST SAN FRANCISCO CA 94117,False,Pct 7556/7557,False,-122.4496,37.76094
Garage,130 DOUGLASS ST SAN FRANCISCO CA 94114,False,Pct 7816,False,-122.43978,37.76166
Garage,1315 SILLIMAN ST SAN FRANCISCO CA 94134,False,Pct 7949,False,-122.41821,37.72762
Garage,1325 23RD AVENUE SAN FRANCISCO CA 94122,False,Pct 9407,False,-122.4817,37.76288
Garage,1330 29TH AVE SAN FRANCISCO CA 94122-1406,False,Pct 9405,False,-122.48751,37.76248
Garage,1342 41ST AVE SAN FRANCISCO CA 94122,False,Pct 9413,False,-122.50042,37.76171
Garage,1346 20TH AVE SAN FRANCISCO CA 94122,False,Pct 9408,False,-122.47793,37.76266
Garage,1364 12TH AVE SAN FRANCISCO CA 94122,False,Pct 9517,False,-122.46922,37.76274
Garage,141 SCOTT ST SAN FRANCISCO CA 94117,False,Pct 7538,False,-122.43552,37.77107
Garage,1419 CORTLAND AVE SAN FRANCISCO CA 94110,False,Pct 7937,False,-122.41015,37.73992
Garage,142 20TH AVE SAN FRANCISCO CA 94121,False,Pct 9106,False,-122.47955,37.7852
Garage,1422 23RD AVE SAN FRANCISCO CA 94122,False,Pct 9415,False,-122.48102,37.76105
Garage,1429 GREEN ST SAN FRANCISCO CA 94109,False,Pct 7309,False,-122.42268,37.79762
Garage,143 POPE ST SAN FRANCISCO CA 94112,False,Pct 1132,False,-122.44075,37.71345
Garage,1437 CABRILLO ST SAN FRANCISCO CA 94118,False,Pct 9144,False,-122.47424,37.77465
Garage,1439 18TH AVE SAN FRANCISCO CA 94122-3408,False,Pct 9701,False,-122.47615,37.761
Garage,1526 FRANCISCO ST SAN FRANCISCO CA 94123-2292,False,Pct 9205,False,-122.43051,37.80272
Garage,1532 CHURCH ST SAN FRANCISCO CA 94131,False,Pct 7862,False,-122.42717,37.74636
Garage,155 SADOWA ST SAN FRANCISCO CA 94112-2941,False,Pct 1124,False,-122.45767,37.71213
Garage,1558 47TH AVE SAN FRANCISCO CA 94122,False,Pct 9412,False,-122.50659,37.75742
Garage,1570 GREENWICH ST SAN FRANCISCO CA 94123,False,Pct 9219,False,-122.42579,37.80039
Garage,1651 9TH AVE SAN FRANCISCO CA 94122,False,Pct 9705,False,-122.46609,37.75747
Garage,168 DORADO TER SAN FRANCISCO CA 94112,False,Pct 9748,False,-122.46192,37.72695
Garage,1689 17TH AVE SAN FRANCISCO CA 94122,False,Pct 9703,False,-122.47477,37.75647
Garage,1700 LAWTON ST SAN FRANCISCO CA 94122,False,Pct 9422,False,-122.48129,37.75791
Garage,1745 VALLEJO ST SAN FRANCISCO CA 94123,False,Pct 9226,False,-122.42593,37.79616
Garage,176 HIGHLAND AVE SAN FRANCISCO CA 94110,False,Pct 7938,False,-122.42185,37.73713
Garage,177 HANCOCK ST SAN FRANCISCO CA 94114,False,Pct 7824,False,-122.43225,37.76013
Garage,1816 FUNSTON AVE SAN FRANCISCO CA 94116,False,Pct 9711,False,-122.47014,37.75357
Garage,1848 PINE ST SAN FRANCISCO CA 94109,False,Pct 7207,False,-122.42635,37.78918
Garage,1854 GROVE ST SAN FRANCISCO CA 94117,False,Pct 7519,False,-122.44729,37.77503
Garage,1859 34TH AVE SAN FRANCISCO CA 94122,False,Pct 9426,False,-122.49269,37.75242
Garage,1867 JEFFERSON ST SAN FRANCISCO CA 94123,False,Pct 9203,False,-122.44315,37.80452
Garage,1877 17TH AVE SAN FRANCISCO CA 94122,False,Pct 9709,False,-122.47465,37.75289
Garage,188 RIDGEWOOD AVE SAN FRANCISCO CA 94112,False,Pct 9752,False,-122.45315,37.73128
Garage,1887 PALOU AVE SAN FRANCISCO CA 94124,False,Pct 7019,False,-122.39645,37.73683
Garage,19 MAYWOOD DR SAN FRANCISCO CA 94127,False,Pct 9734,False,-122.46152,37.73538
Garage,1928 WEBSTER ST SAN FRANCISCO CA 94115,False,Pct 7206,False,-122.43183,37.78864
Garage,1977 PACIFIC AVE SAN FRANCISCO CA 94109,False,Pct 9241,False,-122.42762,37.79401
Garage,2 EL SERENO CT SAN FRANCISCO CA 94127,False,Pct 7707,False,-122.44422,37.73875
Garage,2 SAN GABRIEL AVE SAN FRANCISCO CA 94112-1905,False,Pct 1103,False,-122.438,37.72935
Garage,20 CRESTLAKE DR SAN FRANCISCO CA 94132,False,Pct 9453,False,-122.48024,37.73509
Garage,2019 PACIFIC AVE SAN FRANCISCO CA 94109,False,Pct 9239,False,-122.42893,37.79385
Garage,209 RANDALL ST SAN FRANCISCO CA 94131,False,Pct 7869,False,-122.42808,37.73965
Garage,21 JERSEY ST SAN FRANCISCO CA 94114,False,Pct 7849,False,-122.42571,37.75074
Garage,210 HOLLADAY AVE SAN FRANCISCO CA 94110,False,Pct 7932,False,-122.40542,37.74634
Garage,2151 GREEN ST SAN FRANCISCO CA 94123,False,Pct 9223,False,-122.43463,37.79595
Garage,2200 LARKIN ST SAN FRANCISCO CA 94109,False,Pct 7311,False,-122.42043,37.79825
Garage,2243 14TH AVE SAN FRANCISCO CA 94116-1842,False,Pct 9717,False,-122.47069,37.74626
Garage,2248 FRANCISCO ST SAN FRANCISCO CA 94123,False,Pct 9207,False,-122.44224,37.80122
Garage,225 WALLER ST SAN FRANCISCO CA 94102,False,Pct 7543,False,-122.4274,37.77137
Garage,2271 35TH AVE SAN FRANCISCO CA 94116,False,Pct 9437,False,-122.49324,37.74471
Garage,2412 POLK ST SAN FRANCISCO CA 94109,False,Pct 7203,False,-122.4221,37.79906
Garage,2424 LARKIN ST SAN FRANCISCO CA 94109,False,Pct 7204,False,-122.42067,37.80033
Garage,245 UPPER TERRACE SAN FRANCISCO CA 94117,False,Pct 7801,False,-122.4451,37.76278
Garage,246 BOCANA ST SAN FRANCISCO CA 94110,False,Pct 7935,False,-122.41847,37.73984
Garage,2477 21ST AVE SAN FRANCISCO CA 94116,False,Pct 9448,False,-122.47801,37.74154
Garage,249 17TH AVE SAN FRANCISCO CA 94121-2310,False,Pct 9109,False,-122.4766,37.78332
Garage,250 ATHENS ST SAN FRANCISCO CA 94112,False,Pct 1145,False,-122.42688,37.72403
Garage,256 CASITAS AVE SAN FRANCISCO CA 94127,False,Pct 9735,False,-122.46024,37.73633
Garage,2584 SAN JOSE AVE SAN FRANCISCO CA 94112,False,Pct 1119,False,-122.45023,37.71674
Garage,261 WAWONA ST SAN FRANCISCO CA 94127,False,Pct 9722,False,-122.46886,37.73892
Garage,2618 45TH AVE SAN FRANCISCO CA 94116,False,Pct 9441,False,-122.50304,37.7377
Garage,2625 LINCOLN WAY SAN FRANCISCO CA 94122-1520,False,Pct 9406,False,-122.48631,37.76484
Garage,263 MAYNARD ST SAN FRANCISCO CA 94112-1638,False,Pct 1141,False,-122.42467,37.72966
Garage,264 GLENVIEW DR SAN FRANCISCO CA 94131,False,Pct 7835,False,-122.44564,37.74816
Garage,265 MINERVA ST SAN FRANCISCO CA 94112,False,Pct 1117,False,-122.46122,37.71559
Garage,267 ANDERSON ST SAN FRANCISCO CA 94110,False,Pct 7936,False,-122.41504,37.73946
Garage,27 BLANKEN AVE SAN FRANCISCO CA 94134,False,Pct 7052,False,-122.40097,37.71222
Garage,2700 22ND ST SAN FRANCISCO CA 94110,False,Pct 7915,False,-122.4087,37.75625
Garage,2715 35TH AVE SAN FRANCISCO CA 94116,False,Pct 9451,False,-122.49273,37.7366
Garage,276 WILLARD NORTH ST SAN FRANCISCO CA 94118-4120,False,Pct 9149,False,-122.4563,37.77599
Garage,277 MONTEREY BLVD SAN FRANCISCO CA 94131,False,Pct 9755,False,-122.44154,37.73145
Garage,2774 FOLSOM ST SAN FRANCISCO CA 94110,False,Pct 7918,False,-122.41447,37.75287
Garage,28 MIRABEL AVE SAN FRANCISCO CA 94110-4615,False,Pct 7926,False,-122.41693,37.74615
Garage,2831 RIVERA ST SAN FRANCISCO CA 94116,False,Pct 9436,False,-122.49689,37.74565
Garage,2835 BROADWAY ST SAN FRANCISCO CA 94115,False,Pct 9221,False,-122.44385,37.79283
Garage,291 SUSSEX ST SAN FRANCISCO CA 94131,False,Pct 7867,False,-122.43795,37.73651
Garage,2929 CLAY ST SAN FRANCISCO CA 94115,False,Pct 9237,False,-122.44136,37.78962
Garage,293 CAYUGA AVE SAN FRANCISCO CA 94112,False,Pct 9801,False,-122.43447,37.72994
Garage,3 CARPENTER CT SAN FRANCISCO CA 94124,False,Pct 7023,False,-122.38537,37.73459
Garage,3002 BAKER ST SAN FRANCISCO CA 94123,False,Pct 9214,False,-122.44581,37.79881
Garage,3020 LAGUNA ST SAN FRANCISCO CA 94123,False,Pct 9218,False,-122.4306,37.7992
Garage,305 SCOTT ST SAN FRANCISCO CA 94117,False,Pct 7537,False,-122.43588,37.77259
Garage,3059 25TH ST SAN FRANCISCO CA 94110,False,Pct 7922,False,-122.41113,37.75088
Garage,311 GAVEN ST SAN FRANCISCO CA 94134,False,Pct 7947,False,-122.4114,37.73236
Garage,315 HOLLOWAY AVE SAN FRANCISCO CA 94112,False,Pct 1111,False,-122.45648,37.7217
Garage,3150 STEINER ST SAN FRANCISCO CA 94123,False,Pct 9217,False,-122.43729,37.79858
Garage,32 BURLWOOD DR SAN FRANCISCO CA 94127,False,Pct 9736,False,-122.45462,37.73478
Garage,32 SAN JACINTO WAY SAN FRANCISCO CA 94127,False,Pct 9729,False,-122.46351,37.73484
Garage,3201 BAKER ST SAN FRANCISCO CA 94123,False,Pct 9211,False,-122.44661,37.80059
Garage,3232 25TH ST SAN FRANCISCO CA 94110,False,Pct 7921,False,-122.41466,37.75097
Garage,3240 LAWTON ST SAN FRANCISCO CA 94122-3028,False,Pct 9418,False,-122.49789,37.7572
Garage,3245 CABRILLO ST SAN FRANCISCO CA 94121,False,Pct 9139,False,-122.49369,37.77387
Garage,33 BELLA VISTA WAY SAN FRANCISCO CA 94127,False,Pct 7708,False,-122.44739,37.73773
Garage,3350 SANTIAGO ST SAN FRANCISCO CA 94116,False,Pct 9434,False,-122.50348,37.74386
Garage,3549 23RD ST SAN FRANCISCO CA 94110-3010,False,Pct 7844,False,-122.42242,37.7534
Garage,358 JERSEY ST SAN FRANCISCO CA 94114,False,Pct 7847,False,-122.43314,37.75072
Garage,3632 FILLMORE ST SAN FRANCISCO CA 94123,False,Pct 9209,False,-122.43644,37.80333
Garage,3733 LAWTON ST SAN FRANCISCO CA 94122,False,Pct 9416,False,-122.50305,37.75661
Garage,3753 21ST ST SAN FRANCISCO CA 94114,False,Pct 7839,False,-122.43134,37.75607
Garage,3760 WEBSTER ST SAN FRANCISCO CA 94123,False,Pct 9204,False,-122.43534,37.80573
Garage,38 20TH AVE SAN FRANCISCO CA 94121-1306,False,Pct 9229,False,-122.47961,37.78664
Garage,38 ORD ST SAN FRANCISCO CA 94114-1415,False,Pct 7803,False,-122.44051,37.76308
Garage,3820 WASHINGTON ST SAN FRANCISCO CA 94118,False,Pct 9233,False,-122.45634,37.78896
Garage,3887 17TH ST SAN FRANCISCO CA 94114,False,Pct 7823,False,-122.43256,37.76246
Garage,39 NAYLOR ST SAN FRANCISCO CA 94112,False,Pct 1134,False,-122.43355,37.71107
Garage,390 MELROSE AVE SAN FRANCISCO CA 94127,False,Pct 9737,False,-122.45121,37.73393
Garage,40 DANVERS ST SAN FRANCISCO CA 94114,False,Pct 7815,False,-122.44387,37.7608
Garage,4046 20TH ST SAN FRANCISCO CA 94114,False,Pct 7832,False,-122.43139,37.75811
Garage,4132 26TH ST SAN FRANCISCO CA 94131-1915,False,Pct 7854,False,-122.43241,37.74832
Garage,421 MORAGA ST SAN FRANCISCO CA 94122,False,Pct 9708,False,-122.46729,37.75627
Garage,422 DAY ST SAN FRANCISCO CA 94131,False,Pct 7861,False,-122.43171,37.74283
Garage,4242 LAWTON ST SAN FRANCISCO CA 94122,False,Pct 9411,False,-122.5085,37.75675
Garage,430 CAPISTRANO AVE SAN FRANCISCO CA 94112,False,Pct 1102,False,-122.43921,37.72519
Garage,430 SOMERSET ST SAN FRANCISCO CA 94134,False,Pct 7955,False,-122.40756,37.72606
Garage,4323 23RD ST SAN FRANCISCO CA 94114,False,Pct 7845,False,-122.43947,37.75242
Garage,437 LISBON ST SAN FRANCISCO CA 94112,False,Pct 1147,False,-122.43384,37.72133
Garage,44 VASQUEZ AVE SAN FRANCISCO CA 94127,False,Pct 9721,False,-122.45869,37.746
Garage,46 BEAVER ST SAN FRANCISCO CA 94114,False,Pct 7805,False,-122.43428,37.76524
Garage,463 28TH AVE SAN FRANCISCO CA 94121,False,Pct 9104,False,-122.48822,37.7807
Garage,472 COUNTRY CLUB DR SAN FRANCISCO CA 94132,False,Pct 9723,False,-122.4948,37.73066
Garage,479 23RD AVE SAN FRANCISCO CA 94121,False,Pct 9124,False,-122.48275,37.77867
Garage,483 ELLINGTON AVE SAN FRANCISCO CA 94112,False,Pct 1127,False,-122.44789,37.71116
Garage,484 21ST AVE SAN FRANCISCO CA 94121,False,Pct 9125,False,-122.48018,37.77872
Garage,494 POPE ST SAN FRANCISCO CA 94112,False,Pct 1133,False,-122.44063,37.70841
Garage,506 YALE ST SAN FRANCISCO CA 94134,False,Pct 7953,False,-122.41604,37.72287
Garage,514 PERALTA AVE SAN FRANCISCO CA 94110,False,Pct 7931,False,-122.40884,37.74418
Garage,514 PRECITA AVENUE SAN FRANCISCO CA 94110,False,Pct 7928,False,-122.41026,37.74708
Garage,524 CONNECTICUT ST SAN FRANCISCO CA 94107,False,Pct 7011,False,-122.39741,37.759
Garage,54 7TH AVE SAN FRANCISCO CA 94118-1205,False,Pct 9231,False,-122.46549,37.78743
Garage,541 DUNCAN ST SAN FRANCISCO CA 94131,False,Pct 7859,False,-122.43229,37.74563
Garage,542 MOSCOW ST SAN FRANCISCO CA 94112-2808,False,Pct 1148,False,-122.42951,37.7191
Garage,55 BORICA ST SAN FRANCISCO CA 94127,False,Pct 9747,False,-122.46855,37.72275
Garage,55 MOUNT VERNON AVE SAN FRANCISCO CA 94112,False,Pct 1128,False,-122.44388,37.71528
Garage,558 17TH AVE SAN FRANCISCO CA 94121,False,Pct 9127,False,-122.47581,37.77747
Garage,560 4TH AVE SAN FRANCISCO CA 94118,False,Pct 9132,False,-122.4617,37.77813
Garage,566 ORTEGA ST SAN FRANCISCO CA 94122,False,Pct 9707,False,-122.46933,37.75473
Garage,583 VICTORIA ST SAN FRANCISCO CA 94132-2741,False,Pct 1108,False,-122.46568,37.72125
Garage,59 28TH ST SAN FRANCISCO CA 94110,False,Pct 7863,False,-122.42347,37.74536
Garage,626 20TH AVE SAN FRANCISCO CA 94121,False,Pct 9143,False,-122.4789,37.776
Garage,628 HAIGHT ST SAN FRANCISCO CA 94117,False,Pct 7539,False,-122.43303,37.77206
Garage,632 11TH AVE SAN FRANCISCO CA 94118,False,Pct 9145,False,-122.46909,37.7763
Garage,634 OAK ST SAN FRANCISCO CA 94117,False,Pct 7531,False,-122.4299,37.77424
Garage,65 GRAND VIEW AVE SAN FRANCISCO CA 94114-2741,False,Pct 7829,False,-122.44044,37.75693
Garage,666 MORSE ST SAN FRANCISCO CA 94112,False,Pct 1131,False,-122.44563,37.71138
Garage,68 PARK ST SAN FRANCISCO CA 94110,False,Pct 7875,False,-122.42499,37.73653
Garage,682 MONTEREY BLVD SAN FRANCISCO CA 94127,False,Pct 7709,False,-122.45073,37.73173
Garage,687 40TH AVE SAN FRANCISCO CA 94121-2524,False,Pct 9119,False,-122.50074,37.77584
Garage,700 3RD AVE SAN FRANCISCO CA 94118,False,Pct 9148,False,-122.46041,37.7754
Garage,708 GUERRERO ST SAN FRANCISCO CA 94110,False,Pct 7833,False,-122.42392,37.75974
Garage,71 LANDERS ST SAN FRANCISCO CA 94114,False,Pct 7813,False,-122.42754,37.76669
Garage,710 MASONIC AVE SAN FRANCISCO CA 94117,False,Pct 7521,False,-122.44592,37.77481
Garage,715 SCOTT ST SAN FRANCISCO CA 94117,False,Pct 7522,False,-122.43672,37.77661
Garage,731 JUDAH ST SAN FRANCISCO CA 94122,False,Pct 9702,False,-122.4699,37.76181
Garage,734 46TH AVE SAN FRANCISCO CA 94121,False,Pct 9136,False,-122.50662,37.77458
Garage,740 ANZA ST SAN FRANCISCO CA 94118,False,Pct 9134,False,-122.45464,37.78036
Garage,8 CHICAGO WAY SAN FRANCISCO CA 94112,False,Pct 1136,False,-122.42811,37.71007
Garage,80 WILMOT ST SAN FRANCISCO CA 94115,False,Pct 7501,False,-122.43316,37.78764
Garage,801 UNIVERSITY ST SAN FRANCISCO CA 94134,False,Pct 7957,False,-122.4113,37.7202
Garage,829 DUNCAN ST SAN FRANCISCO CA 94131,False,Pct 7853,False,-122.43866,37.7453
Garage,90 25TH AVE SAN FRANCISCO CA 94121,False,Pct 9228,False,-122.48509,37.78806
Garage,915 BRODERICK ST SAN FRANCISCO CA 94115,False,Pct 9507,False,-122.44055,37.77878
Garage,96 TURQUOISE WAY SAN FRANCISCO CA 94131,False,Pct 7851,False,-122.44462,37.74326
Garage,99 BOSWORTH ST SAN FRANCISCO CA 94112,False,Pct 7874,False,-122.42759,37.73341
Garage,99 SAINT GERMAIN AVE SAN FRANCISCO CA 94114,False,Pct 7705,False,-122.45015,37.7573
Garage (on Left Side),211 27TH AVE SAN FRANCISCO CA 94121-1152,False,Pct 9227,False,-122.48743,37.78541
Garage - Enter Through Glass Door,885 CORBETT AVE SAN FRANCISCO CA 94131,False,Pct 7836,False,-122.44356,37.75267
Geneva Ave United Methodist Church - Fellowship Hall,1261 GENEVA AVE SAN FRANCISCO CA 94112,False,Pct 1152,False,-122.43502,37.71401
Geneva Powerhouse,2301 SAN JOSE AVE SAN FRANCISCO CA 94112,False,Pct 1122,False,-122.44677,37.72023
George Peabody School - Library,251 6TH AVE SAN FRANCISCO CA 94118,False,Pct 9115,False,-122.46499,37.78386
Glen Park Library - Program Room,2825 DIAMOND ST SAN FRANCISCO CA 94131,False,Pct 7872,False,-122.43369,37.73396
Glen Park School - Auditorium,151 LIPPARD AVE SAN FRANCISCO CA 94131,False,Pct 7871,False,-122.43549,37.73313
Glide Memorial United Church - Freedom Hall,330 ELLIS ST SAN FRANCISCO CA 94102,False,Pct 7605,False,-122.41179,37.78522
Golden Gate Church - Garage,1901 FRANKLIN ST SAN FRANCISCO CA 94109,False,Pct 9242,False,-122.42474,37.79216
Golden Gate Park Sr. Center - Lobby,6101 FULTON ST SAN FRANCISCO CA 94121-3460,False,Pct 9138,False,-122.49699,37.77163
Golden Gate Valley Library - Program Rm,1801 GREEN ST SAN FRANCISCO CA 94123,False,Pct 9224,False,-122.42905,37.79681
Goldmine Hill Homeowners Assoc - Rec Rm,43 ORA WAY SAN FRANCISCO CA 94131-2531,False,Pct 7866,False,-122.43763,37.74146
Gordon J. Lau Elementary School - Auditorium Lobby,950 CLAY ST SAN FRANCISCO CA 94108,False,Pct 7327,False,-122.40889,37.79457
Grace Cathedral Church - Conference Rm.,1051 TAYLOR ST SAN FRANCISCO CA 94108,False,Pct 7336,False,-122.41276,37.79224
Grattan Elementary School - Auditorium,165 GRATTAN ST SAN FRANCISCO CA 94117,False,Pct 7555,False,-122.4507,37.76359
Grattan Elementary School - Room 215,165 GRATTAN ST SAN FRANCISCO CA 94117,False,Pct 7551,False,-122.4507,37.76359
Gray Area - Lobby,2665 MISSION ST SAN FRANCISCO CA 94110,False,Pct 7912,False,-122.41835,37.75441
Guadalupe Elementary School - Hallway,859 PRAGUE ST SAN FRANCISCO CA 94112,False,Pct 1135,False,-122.43417,37.71036
Gun Mun Center - Conference Room,777 STOCKTON ST SAN FRANCISCO CA 94108,False,Pct 7338,False,-122.40784,37.79282
Hampton Court,378 GOLDEN GATE AVE SAN FRANCISCO CA 94102,False,Pct 7613,False,-122.41696,37.78174
Harvey Milk Elementary School - Auditorium,4235 19TH STREET SAN FRANCISCO CA 94114,False,Pct 7831,False,-122.43642,37.75902
Harvey Milk Memorial Branch Library,1 JOSE SARRIA CT SAN FRANCISCO CA 94114,False,Pct 7817,False,-122.43182,37.76408
Harvey Milk Recreation Center,50 SCOTT ST SAN FRANCISCO CA 94117,False,Pct 7806,False,-122.43468,37.76961
Helen Wills Park - Garden Room,1965 LARKIN ST SAN FRANCISCO CA 94109,False,Pct 7319,False,-122.42019,37.79578
Herbert Hoover Middle School - Aud Lobby,2290 14TH AVE SAN FRANCISCO CA 94116,False,Pct 9714,False,-122.46829,37.74532
Heritage Homes Child & Family - Community Rm,243 REY ST SAN FRANCISCO CA 94134,False,Pct 7048,False,-122.41248,37.71021
Hero Shop,982 POST ST SAN FRANCISCO CA 94109,False,Pct 7346,False,-122.41803,37.78719
Hillcrest School - Auditorium,810 SILVER AVE SAN FRANCISCO CA 94134,False,Pct 7946,False,-122.41899,37.72856
Holloway Terrace,1099 CAPITOL AVE SAN FRANCISCO CA 94112,False,Pct 1109,False,-122.45923,37.72184
Hoogasian Flowers - Display Area,615 7TH ST SAN FRANCISCO CA 94103-4910,False,Pct 7635,False,-122.40253,37.77301
Hope Evangelical Free Church,3601 NORIEGA ST SAN FRANCISCO CA 94122,False,Pct 9424,False,-122.50253,37.75286
Hospitality House,290 TURK ST SAN FRANCISCO CA 94102,False,Pct 7615,False,-122.41382,37.78299
Hostwell Warehouse,758 NATOMA ST SAN FRANCISCO CA 94103,False,Pct 7649,False,-122.41321,37.776
Human Services Agency - Born Auditorium,170 OTIS ST SAN FRANCISCO CA 94103,False,Pct 7618,False,-122.42115,37.77045
Hunters View - Community Rm,1101 FAIRFAX AVE SAN FRANCISCO CA 94124-1773,False,Pct 7024,False,-122.3814,37.73678
I D E O,501 THE EMBARCADERO SAN FRANCISCO CA 94105,False,Pct 7656,False,-122.38636,37.78812
I. T. Bookman Comm Ctr - Mult Purpose Rm,446 RANDOLPH ST SAN FRANCISCO CA 94132-3122,False,Pct 1115,False,-122.46685,37.7145
Independence High School - Lobby,1350 7TH AVE SAN FRANCISCO CA 94122,False,Pct 9519,False,-122.46382,37.7633
Ingleside Branch Library,1298 OCEAN AVE SAN FRANCISCO CA 94112-1831,False,Pct 9751,False,-122.45626,37.72415
Ingleside Police Station - Community Room,1 SGT JOHN V YOUNG SAN FRANCISCO CA 94112,False,Pct 1101,False,-122.44628,37.72474
James Denman School - Front Lobby,241 ONEIDA AVE SAN FRANCISCO CA 94112-3228,False,Pct 1113,False,-122.44295,37.72163
Japanese Cultural And Community Center,1840 SUTTER ST SAN FRANCISCO CA 94115,False,Pct 7502,False,-122.43089,37.78666
Jean Parker Elementary School - Multi Purpose Room,840 BROADWAY ST SAN FRANCISCO CA 94133-4219,False,Pct 7313,False,-122.41131,37.79747
Jefferson High School - Auditorium,1725 IRVING ST SAN FRANCISCO CA 94122,False,Pct 9409,False,-122.47662,37.76298
Jewish Community Center - Fitness Center,415 PRESIDIO AVE SAN FRANCISCO CA 94115,False,Pct 9234,False,-122.44699,37.78748
Joe & The Juice,301 HOWARD ST SAN FRANCISCO CA 94105,False,Pct 7655,False,-122.3943,37.7897
Joe Dimaggio North Beach Playground,651 LOMBARD ST SAN FRANCISCO CA 94133,False,Pct 7307,False,-122.41235,37.80275
John Adams Campus - Cafeteria,1860 HAYES ST SAN FRANCISCO CA 94117,False,Pct 7518,False,-122.44712,37.77407
John Muir School - Auditorium,380 WEBSTER ST SAN FRANCISCO CA 94117,False,Pct 7542,False,-122.42881,37.77379
John Yehall Chin Elementary School - Library,350 BROADWAY ST SAN FRANCISCO CA 94133,False,Pct 7317,False,-122.40315,37.79858
Jones Memorial Methodist Church - Multi Purpose Rm,1975 POST ST SAN FRANCISCO CA 94115-3571,False,Pct 7504,False,-122.43436,37.78485
Jose Ortega Elementary School - Lobby,400 SARGENT ST SAN FRANCISCO CA 94132,False,Pct 1107,False,-122.4663,37.7164
Joseph Lee Rec Center - Gymnasium,1598 OAKDALE AVE SAN FRANCISCO CA 94124,False,Pct 7022,False,-122.38969,37.73487
Junipero Serra House - Parking Garage,926 FILLMORE ST SAN FRANCISCO CA 94117,False,Pct 7524,False,-122.43142,37.77806
Lakeshore Elementary - Multi Purpose Room,220 MIDDLEFIELD DRIVE SAN FRANCISCO CA 94132,False,Pct 9725,False,-122.48546,37.73048
Lawton School - Auditorium,1570 31ST AVE SAN FRANCISCO CA 94122-3104,False,Pct 9419,False,-122.48943,37.75848
Lawton School - Cafeteria,1570 31ST AVE SAN FRANCISCO CA 94122,False,Pct 9414,False,-122.48943,37.75848
Legion Of Honor - Cafe,100 34TH AVE SAN FRANCISCO CA 94121,False,Pct 9102,False,-122.50089,37.78448
Leo T Mc Carthy Center - Room 116,281 MASONIC AVE SAN FRANCISCO CA 94118,False,Pct 9151,False,-122.44746,37.77892
Leonard Flynn School - Auditorium,3125 CESAR CHAVEZ ST SAN FRANCISCO CA 94110,False,Pct 7927,False,-122.41197,37.74812
Lighthouse Church - Main Lobby,1337 SUTTER ST SAN FRANCISCO CA 94109,False,Pct 7209,False,-122.42253,37.78736
Lincoln H. S. - Auditorium,1415 QUINTARA ST SAN FRANCISCO CA 94116,False,Pct 9438,False,-122.48057,37.74827
Lincoln High School - Lobby Of Gym,2135 22ND AVE SAN FRANCISCO CA 94116,False,Pct 9433,False,-122.47967,37.74784
Lobby At U C S F Parking Garage,1 IRVING ST SAN FRANCISCO CA 94122,False,Pct 9514/9522,False,-122.45756,37.76408
Log Cabin,1299 STOREY AVE SAN FRANCISCO CA 94129,False,Pct 9201,False,-122.47468,37.80302
Longfellow School - Front Lobby,755 MORSE ST SAN FRANCISCO CA 94112,False,Pct 1129,False,-122.44664,37.71033
M L K - M G Square Apts - Community Room,1680 EDDY ST SAN FRANCISCO CA 94115,False,Pct 9505,False,-122.43518,37.78129
Marina Middle School - Auditorium Lobby,3500 FILLMORE ST SAN FRANCISCO CA 94123-2103,False,Pct 9208,False,-122.43602,37.80235
Market Heights Apts - Garage,1000 TOMPKINS AVE - BLDG A SAN FRANCISCO CA 94110,False,Pct 7942,False,-122.41022,37.7368
Marsh Theatre - Cafe,1070 VALENCIA ST SAN FRANCISCO CA 94110-2427,False,Pct 7843,False,-122.42131,37.75575
Marshall Elementary School - Cafeteria,1575 15TH ST SAN FRANCISCO CA 94103,False,Pct 7901,False,-122.41894,37.76644
Martin Luther King Jr School - Cafeteria,350 GIRARD STREET SAN FRANCISCO CA 94134,False,Pct 7956,False,-122.40536,37.72775
Mary Elizabeth Inn - Dining Hall,1040 BUSH ST SAN FRANCISCO CA 94109,False,Pct 7342,False,-122.41454,37.78974
Mc Calls Catering & Events - Lobby,1798 BRYANT ST SAN FRANCISCO CA 94110,False,Pct 7001,False,-122.41067,37.76455
Mckinley Elementary School - Front Lobby,1025 14TH ST SAN FRANCISCO CA 94114,False,Pct 7804,False,-122.43637,37.76696
Memorial Gym - North Lobby,2335 GOLDEN GATE AVE SAN FRANCISCO CA 94118,False,Pct 9152,False,-122.44951,37.77687
Mendelsohn House - Activities Room,747 FOLSOM ST SAN FRANCISCO CA 94107,False,Pct 7634,False,-122.40007,37.78271
Menorah Park- Conference Room,3365 SACRAMENTO ST SAN FRANCISCO CA 94118,False,Pct 9253,False,-122.44798,37.7879
Merced Branch Library,155 WINSTON DR SAN FRANCISCO CA 94132,False,Pct 9742,False,-122.47448,37.72671
Mercy Housing - Community Room,1028 HOWARD ST SAN FRANCISCO CA 94103-2865,False,Pct 7629,False,-122.40792,37.77947
Mercy Terrace - Rec Room,1555 HAYES ST SAN FRANCISCO CA 94117,False,Pct 7527/7528,False,-122.44166,37.77442
Metropolitan Transportation Commission - Temazcal Rm 102,375 BEALE ST SAN FRANCISCO CA 94105,False,Pct 7638,False,-122.39098,37.78814
Midtown Terrace Clubhouse,280 OLYMPIA WAY SAN FRANCISCO CA 94131,False,Pct 7702,False,-122.45586,37.7516
Miette Patisserie,449 OCTAVIA ST SAN FRANCISCO CA 94102,False,Pct 7526,False,-122.42476,37.77632
Minnesota Street Project - Lounge,1275 MINNESOTA ST SAN FRANCISCO CA 94107,False,Pct 7056,False,-122.38939,37.75425
Minnie & Lovie Rec Center - Gymnasium,650 CAPITOL AVE SAN FRANCISCO CA 94112-2958,False,Pct 1118,False,-122.45741,37.71612
Miraloma Elementary School - Gym,175 OMAR WAY SAN FRANCISCO CA 94127,False,Pct 7706,False,-122.45022,37.73884
Mission Arts Center - Lobby,745 TREAT AVE SAN FRANCISCO CA 94110,False,Pct 7909,False,-122.41298,37.75821
Mission Creek Park Pavilion,290 CHANNEL ST SAN FRANCISCO CA 94158,False,Pct 7657,False,-122.39371,37.77311
Mission Creek Senior - Community Room,225 BERRY ST SAN FRANCISCO CA 94158,False,Pct 7643,False,-122.39366,37.77508
Mission High School - Cafeteria,3750 18TH ST SAN FRANCISCO CA 94114,False,Pct 7825,False,-122.42717,37.76175
Mission Language And Vocational School,701 ALABAMA ST SAN FRANCISCO CA 94110,False,Pct 7905,False,-122.41149,37.75995
Mission Police Station - Community Room,630 VALENCIA STREET SAN FRANCISCO CA 94110,False,Pct 7827,False,-122.422,37.76285
Mission United Presbyterian Church,3261 23RD STREET SAN FRANCISCO CA 94110,False,Pct 7917,False,-122.41775,37.75366
Mission Workforce Development - Career Link Center,3125 MISSION ST SAN FRANCISCO CA 94110,False,Pct 7929,False,-122.41836,37.74746
Monroe School - Multipurpose Room,260 MADRID ST SAN FRANCISCO CA 94112-2055,False,Pct 1144,False,-122.4304,37.72557
Moscone Rec Ctr - Community Room,1800 CHESTNUT ST SAN FRANCISCO CA 94123,False,Pct 9212,False,-122.43305,37.80144
Muni Barn - Room D106,700 PENNSYLVANIA AVE SAN FRANCISCO CA 94107,False,Pct 7012,False,-122.39345,37.757
Muni Barn Classroom C,2640 GEARY BLVD SAN FRANCISCO CA 94118,False,Pct 9255,False,-122.44665,37.78276
Neighborhood Baptist Church - Confer Rm,608 HAYES ST SAN FRANCISCO CA 94102,False,Pct 7525,False,-122.42662,37.77661
Neighborhood Network Center,460 FULTON ST SAN FRANCISCO CA 94102,False,Pct 7515,False,-122.42478,37.77873
New Greater Prosperity Church - Sanctuary,3560 SAN BRUNO AVE SAN FRANCISCO CA 94134-2027,False,Pct 7042,False,-122.40007,37.71706
New Harmony Cafe,2401 MISSION ST SAN FRANCISCO CA 94110,False,Pct 7908,False,-122.41879,37.7585
New Providence Baptist Church,218 GRANADA AVENUE SAN FRANCISCO CA 94112-2244,False,Pct 9749,False,-122.45695,37.72248
New Traditions Elementary School - Auditorium,2049 GROVE ST SAN FRANCISCO CA 94117,False,Pct 7517,False,-122.45031,37.7741
Noe Valley Branch Library - Program Room,451 JERSEY ST SAN FRANCISCO CA 94114,False,Pct 7846,False,-122.43509,37.75027
North Beach Library - Community Rm,850 COLUMBUS AVE SAN FRANCISCO CA 94133-2308,False,Pct 7303,False,-122.41327,37.80258
North Pt Wet Weather Facility - Lobby,111 BAY ST SAN FRANCISCO CA 94133,False,Pct 7302,False,-122.40914,37.806
Northbeach Place - Community Rm,455 BAY ST SAN FRANCISCO CA 94133,False,Pct 7301,False,-122.41443,37.80537
Norwegian Seaman's Church - Garage,2454 HYDE ST SAN FRANCISCO CA 94109,False,Pct 7202,False,-122.41978,37.80366
O D C Dance Commons,351 SHOTWELL ST SAN FRANCISCO CA 94110,False,Pct 7904,False,-122.41595,37.76277
Ocean View Library,345 RANDOLPH ST SAN FRANCISCO CA 94132-3119,False,Pct 1116,False,-122.46599,37.71415
Ocean View Shopping Center - Storefront,"3931 ALEMANY BLVD, #2003 SAN FRANCISCO CA 94132",False,Pct 9756,False,-122.46736,37.71052
Odd Fellows Building - Lobby,26 7TH STREET SAN FRANCISCO CA 94103,False,Pct 7621,False,-122.41228,37.78001
Office Building - 1st Floor Conf Room,"150 EXECUTIVE PARK BLVD, SUITE 4000 SAN FRANCISCO CA 94134",False,Pct 7053,False,-122.39335,37.71106
Old First Presbyterian Church - Fellowship Hall,1751 SACRAMENTO ST SAN FRANCISCO CA 94109,False,Pct 7332,False,-122.42208,37.79119
Opera Plaza - 2nd Fl Mezzanine - Community Rm,601 VAN NESS AVE SAN FRANCISCO CA 94102,False,Pct 7516,False,-122.42133,37.78112
Ortega Branch Library - Program Room,3223 ORTEGA ST SAN FRANCISCO CA 94122,False,Pct 9425,False,-122.4981,37.7512
Osmanthus Dim Sum,504 BROADWAY ST SAN FRANCISCO CA 94133,False,Pct 7316,False,-122.40564,37.79822
Our Lady Of Lourdes Church,410 HAWES ST SAN FRANCISCO CA 94124,False,Pct 7025,False,-122.37772,37.73342
Palega Rec Center - Lobby,500 FELTON ST SAN FRANCISCO CA 94134,False,Pct 7951,False,-122.4097,37.72913
Park Branch Library,1833 PAGE ST SAN FRANCISCO CA 94117-1909,False,Pct 7533,False,-122.45101,37.77016
Park Presidio United Methodist Church,4301 GEARY BLVD SAN FRANCISCO CA 94118,False,Pct 9129,False,-122.46554,37.78066
Paul Revere Elementary School - Lobby,555 TOMPKINS AVE SAN FRANCISCO CA 94110,False,Pct 7941,False,-122.41319,37.7373
Pentecostal Temple Church - Dining Room,1915 MCALLISTER ST SAN FRANCISCO CA 94115,False,Pct 9509,False,-122.44361,37.77702
Portola Baptist Church,225 PIOCHE ST SAN FRANCISCO CA 94134,False,Pct 7948,False,-122.42085,37.7283
Potrero Hill Neighborhood House,953 DE HARO ST SAN FRANCISCO CA 94107,False,Pct 7007,False,-122.40067,37.75832
Presidio Library - Program Room,3150 SACRAMENTO ST SAN FRANCISCO CA 94115-2006,False,Pct 9243,False,-122.44487,37.78889
Presidio Middle School - Auditorium Lobby,450 30TH AVE SAN FRANCISCO CA 94121,False,Pct 9103,False,-122.48984,37.78127
Providence Baptist Church - Gym,1601 MCKINNON AVE SAN FRANCISCO CA 94124,False,Pct 7021,False,-122.3896,37.73587
Pure Skinz Aesthetics,"2189 BAYSHORE BLVD, SUITE101 SAN FRANCISCO CA 94134",False,Pct 7047,False,-122.40117,37.71229
R. L. Stevenson Elementary School - Main Lobby,2051 34TH AVE SAN FRANCISCO CA 94116,False,Pct 9429,False,-122.49285,37.74871
Rachel Townsend Apts - Community Rm,1750 MCALLISTER ST SAN FRANCISCO CA 94115,False,Pct 9511,False,-122.4409,37.77776
Randall Museum - Buckley Redwood Room,199 MUSEUM WAY SAN FRANCISCO CA 94114,False,Pct 7802,False,-122.43832,37.76443
Redding Elementary School - Music Room,1421 PINE ST SAN FRANCISCO CA 94109,False,Pct 7341,False,-122.41899,37.78954
Rene Cazenave Apartments - Program Rm,25 ESSEX ST SAN FRANCISCO CA 94105,False,Pct 7652,False,-122.39514,37.78649
Rich Sorro Commons - Lobby,225 KING STREET SAN FRANCISCO CA 94107,False,Pct 7644,False,-122.39247,37.77712
Richmond Branch Library - Program Room,350 10TH AVE SAN FRANCISCO CA 94118,False,Pct 9114,False,-122.46864,37.7818
Richmond Police Station - Community Room,450 7TH AVE SAN FRANCISCO CA 94118,False,Pct 9131,False,-122.4653,37.77997
Richmond Rec Center,251 18TH AVE SAN FRANCISCO CA 94121,False,Pct 9108,False,-122.47812,37.78328
Rickshaw Bagworks,904 22ND ST SAN FRANCISCO CA 94107,False,Pct 7014,False,-122.39058,37.75807
Rincon Green Apartments,333 HARRISON ST SAN FRANCISCO CA 94105,False,Pct 7637,False,-122.39142,37.78629
Robert B Pitts - Community Room,1150 SCOTT ST SAN FRANCISCO CA 94115-4007,False,Pct 9506,False,-122.43687,37.78039
Rochambeau Playground - Clubhouse,250 25TH AVE SAN FRANCISCO CA 94121,False,Pct 9105,False,-122.48454,37.78484
Rooftop Mayeda Campus - Gym,500 CORBETT AVE SAN FRANCISCO CA 94114,False,Pct 7828,False,-122.44473,37.75758
Roosevelt School - Auditorium,460 ARGUELLO BLVD SAN FRANCISCO CA 94118,False,Pct 9249,False,-122.45862,37.78226
Rosa Parks Elementary School - Auditorium,1501 O' FARRELL ST SAN FRANCISCO CA 94115,False,Pct 7507,False,-122.42996,37.78331
Royal Apartments - Community Rm,1390 1/2 TURK ST SAN FRANCISCO CA 94115,False,Pct 7513,False,-122.43174,37.78066
S F Christian Center,5833 MISSION ST SAN FRANCISCO CA 94112,False,Pct 1126,False,-122.45109,37.7091
S F Eagle,398 12TH ST SAN FRANCISCO CA 94103,False,Pct 7628,False,-122.4134,37.76999
S F F D Headquarters,698 2ND ST SAN FRANCISCO CA 94107-2015,False,Pct 7639,False,-122.3912,37.78051
S F Firefighters Union Hall,325 NEWHALL ST SAN FRANCISCO CA 94124,False,Pct 7017,False,-122.38527,37.74227
S F Gay Men's Chorus - Lobby,170 VALENCIA ST SAN FRANCISCO CA 94103,False,Pct 7811,False,-122.42279,37.77043
S F International High School - Lobby,655 DE HARO ST SAN FRANCISCO CA 94107,False,Pct 7004,False,-122.40062,37.76172
S F Italian Athletic Club - Upstairs Function Room,1630 STOCKTON ST SAN FRANCISCO CA 94133,False,Pct 7315,False,-122.40899,37.80088
S F Jazz Center,201 FRANKLIN ST SAN FRANCISCO CA 94102,False,Pct 7532,False,-122.42151,37.77645
S F Korean United Methodist Fellowship,3030 JUDAH ST SAN FRANCISCO CA 94122,False,Pct 9404,False,-122.49488,37.76118
S F Public Montessori School - Auditorium,2340 JACKSON ST SAN FRANCISCO CA 94115-1323,False,Pct 9238,False,-122.43359,37.79294
S F Taekwondo Center,3469 MISSION ST SAN FRANCISCO CA 94110-5438,False,Pct 7934,False,-122.42249,37.74134
S F U S D Special Ed Center - Multi Purpose Rm,3045 SANTIAGO ST SAN FRANCISCO CA 94116,False,Pct 9435,False,-122.49983,37.74365
S F University High School,3150 WASHINGTON ST SAN FRANCISCO CA 94115,False,Pct 9236,False,-122.44543,37.79032
S F University High School - Parking Garage,3220 SACRAMENTO ST SAN FRANCISCO CA 94115,False,Pct 9235,False,-122.44597,37.78853
Saint Francis Medical - Lower Level Conf Room,1199 BUSH ST SAN FRANCISCO CA 94109,False,Pct 7343,False,-122.41673,37.78893
Saint Phillips Missionary Baptist Church,745 VELASCO AVE SAN FRANCISCO CA 94134,False,Pct 7036,False,-122.41914,37.70975
Saint Thomas More Church - Scanlan Hall,1300 JUNIPERO SERRA BLVD SAN FRANCISCO CA 94132,False,Pct 9738,False,-122.47348,37.71231
Salvation Army - Lobby,1450 POWELL STREET SAN FRANCISCO CA 94133,False,Pct 7314,False,-122.41005,37.79802
San Francisco Evangelical Free Church,756 UNION ST SAN FRANCISCO CA 94133,False,Pct 7306,False,-122.4118,37.80033
Sava Pool - Multipurpose Room,2695 19TH AVE SAN FRANCISCO CA 94116-3078,False,Pct 9452,False,-122.47587,37.73777
School - Cesar Chavez - Cafeteria,825 SHOTWELL ST SAN FRANCISCO CA 94110,False,Pct 7913,False,-122.41505,37.75483
School - Edison Charter- Auditorium,3531 22ND ST SAN FRANCISCO CA 94114,False,Pct 7841,False,-122.42602,37.75443
School - El Dorado - Cafeteria,70 DELTA ST SAN FRANCISCO CA 94134,False,Pct 7039,False,-122.40735,37.71853
School - Mccoppin - Cafeteria,651 6TH AVE SAN FRANCISCO CA 94118,False,Pct 9147,False,-122.46437,37.77617
School - Sunshine - S F Education Fund,2730 BRYANT ST SAN FRANCISCO CA 94110,False,Pct 7923,False,-122.40916,37.75051
Senior Housing - Community Room,345 ARGUELLO BLVD SAN FRANCISCO CA 94118,False,Pct 9116,False,-122.45951,37.78422
Senior Housing - Social Room,2698 CALIFORNIA ST SAN FRANCISCO CA 94115,False,Pct 9244,False,-122.43863,37.78849
Sf Public Montessori School - Music Room,2340 JACKSON ST SAN FRANCISCO CA 94115,False,Pct 9246,False,-122.43359,37.79294
Sfusd Office - Assembly Room,20 COOK ST SAN FRANCISCO CA 94118,False,Pct 9252,False,-122.45225,37.78342
Sheridan School - Auditorium Lobby,431 CAPITOL AVE SAN FRANCISCO CA 94112-2934,False,Pct 1123,False,-122.45964,37.7146
Sherman School - Library,1651 UNION ST SAN FRANCISCO CA 94123,False,Pct 9225,False,-122.42611,37.79781
Shiekh Shoes,929 MARKET ST SAN FRANCISCO CA 94103,False,Pct 7624,False,-122.40852,37.78325
Ship Shape Community Center,850 AVE I BLDG 497 SAN FRANCISCO CA 94130,False,Pct 7647,False,-122.36891,37.8275
Soma Arts Cultural Center,934 BRANNAN ST SAN FRANCISCO CA 94103,False,Pct 7632,False,-122.40663,37.77118
Sons Of Italy - Hall Of Mirrors,5051 MISSION ST SAN FRANCISCO CA 94112-3417,False,Pct 1146,False,-122.43981,37.71771
Soto Mission Of San Francisco Temple,1691 LAGUNA ST SAN FRANCISCO CA 94115,False,Pct 7505,False,-122.42854,37.78653
South Beach Harbor Pier 40 A - Comm Rm,PIER 40 A - THE EMBARCADERO SAN FRANCISCO CA 94107,False,Pct 7645,False,-122.38761,37.78188
South Sunset Playground- Community Room,40TH AVENUE AND VICENTE SAN FRANCISCO CA 94116,False,Pct 9449,False,-122.49794,37.73833
Southern Exposure,3030 20TH ST SAN FRANCISCO CA 94110,False,Pct 7911,False,-122.41144,37.75939
Spring Valley Elementary School - Lobby,1451 JACKSON ST SAN FRANCISCO CA 94109,False,Pct 7324,False,-122.41881,37.79391
St Annes Church - 1390 Center,1390 14TH AVE SAN FRANCISCO CA 94122-2104,False,Pct 9516,False,-122.47128,37.76231
St Brendan's Parish - Parish Hall,29 ROCKAWAY AVE SAN FRANCISCO CA 94127,False,Pct 9719,False,-122.45676,37.74323
St Gregory Armenian - Youth Hall,51 COMMONWEALTH AVE SAN FRANCISCO CA 94118,False,Pct 9251,False,-122.45606,37.78506
St Gregory Church - Rotunda,500 DE HARO STREET SAN FRANCISCO CA 94107,False,Pct 7003,False,-122.40173,37.76328
St James Catholic Church,1086 GUERRERO ST SAN FRANCISCO CA 94110,False,Pct 7842,False,-122.42334,37.75394
St James Episcopal Church - Parish Hall,4620 CALIFORNIA ST SAN FRANCISCO CA 94118,False,Pct 9113,False,-122.46722,37.78498
St John Of God Catholic Church,1290 5TH AVENUE SAN FRANCISCO CA 94122,False,Pct 9521,False,-122.46181,37.76441
St John's Presbyterian Church - Lobby,25 LAKE ST SAN FRANCISCO CA 94118,False,Pct 9232,False,-122.45981,37.78671
St Mary's Rec Center - Gym,95 JUSTIN DRIVE SAN FRANCISCO CA 94112,False,Pct 7943,False,-122.42168,37.73424
St Teresa Of Avila Church - Sammon Hall,1490 19TH ST SAN FRANCISCO CA 94107,False,Pct 7005,False,-122.39713,37.76149
St Vincent De Paul School - Gymnasium,2350 GREEN ST SAN FRANCISCO CA 94123,False,Pct 9222,False,-122.43774,37.79627
St. Andrew's Society Of San Francisco,1088 GREEN STREET SAN FRANCISCO CA 94133,False,Pct 7312,False,-122.41697,37.79867
St. Francis Of Assisi - Garage,145 GUERRERO ST SAN FRANCISCO CA 94103,False,Pct 7812,False,-122.42376,37.76902
Starr King Elementary School - Library,1215 CAROLINA ST SAN FRANCISCO CA 94107,False,Pct 7009,False,-122.39912,37.75347
Store Front,1801 POLK ST SAN FRANCISCO CA 94109,False,Pct 7323,False,-122.42153,37.7934
Store-Relax The Back,1765 VAN NESS AVE SAN FRANCISCO CA 94109,False,Pct 9248,False,-122.42304,37.79201
Sunnydale Development Community Rm,1654 SUNNYDALE AVE SAN FRANCISCO CA 94134,False,Pct 7037,False,-122.41826,37.71266
Sunnyside Conservatory,236 MONTEREY BLVD SAN FRANCISCO CA 94131,False,Pct 7712,False,-122.44082,37.73192
Sunnyside Elementary - Main Hallway,250 FOERSTER ST SAN FRANCISCO CA 94112,False,Pct 9754,False,-122.44832,37.7303
Sunset Bible Assembly Of God,1690 21ST AVE SAN FRANCISCO CA 94122,False,Pct 9428,False,-122.47863,37.75624
Sunset Neighborhood Beacon Ctr - Computer Rm,3925 NORIEGA STREET SAN FRANCISCO CA 94122,False,Pct 9423,False,-122.50585,37.7527
Sunset Rec Center,2201 LAWTON ST. SAN FRANCISCO CA 94122-3247,False,Pct 9421,False,-122.4867,37.75645
Sutro Elementary School - Cafeteria,235 12TH AVE SAN FRANCISCO CA 94118-2103,False,Pct 9112,False,-122.4716,37.78341
Synergy School - Lobby,1387 VALENCIA ST SAN FRANCISCO CA 94110,False,Pct 7916,False,-122.42024,37.75089
Taraval Police Station,2345 24TH AVE SAN FRANCISCO CA 94116,False,Pct 9447,False,-122.48153,37.74371
Temple United Methodist Church,65 BEVERLY ST SAN FRANCISCO CA 94132,False,Pct 1106,False,-122.47182,37.71739
Templo Da La Fe - Church Lobby,1220 VALENCIA ST SAN FRANCISCO CA 94110-3029,False,Pct 7858,False,-122.42111,37.75323
Tenderloin Community School - Lobby,627 TURK ST SAN FRANCISCO CA 94102,False,Pct 7612,False,-122.41974,37.78178
The Arc San Francisco,1500 HOWARD ST SAN FRANCISCO CA 94103,False,Pct 7619,False,-122.41599,37.77307
The Butterfly Joint,4411 CABRILLO ST SAN FRANCISCO CA 94121,False,Pct 9135,False,-122.50605,37.77325
The Church For The Fellowship Of All Peoples,2041 LARKIN ST SAN FRANCISCO CA 94109,False,Pct 7318,False,-122.42058,37.79679
The Commonwealth Club,115 STEUART ST SAN FRANCISCO CA 94105,False,Pct 7627,False,-122.39281,37.79309
The Gateway - Vista West Lobby,550 BATTERY ST SAN FRANCISCO CA 94111,False,Pct 7331,False,-122.40018,37.79634
The Maria Manors,174 ELLIS ST SAN FRANCISCO CA 94102,False,Pct 7611,False,-122.4091,37.78552
The Museum Of Ice Cream,1 GRANT AVE SAN FRANCISCO CA 94108,False,Pct 7348,False,-122.40518,37.78701
The S F L G B T Center,1800 MARKET ST SAN FRANCISCO CA 94102,False,Pct 7876,False,-122.42403,37.77169
Theresa S. Mahler School - Room 4,990 CHURCH ST SAN FRANCISCO CA 94114-3044,False,Pct 7848,False,-122.42805,37.75527
Third Baptist Church,1399 MC ALLISTER ST SAN FRANCISCO CA 94115,False,Pct 9513,False,-122.43455,37.77787
Thurgood Marshall High School - Cafeteria,45 CONKLING ST SAN FRANCISCO CA 94124,False,Pct 7018,False,-122.40182,37.73614
True Sunshine Episcopal Church - Garage,1430 MASON ST SAN FRANCISCO CA 94133,False,Pct 7321,False,-122.41162,37.79674
U C S F - Lobby,654 MINNESOTA ST SAN FRANCISCO CA 94107,False,Pct 7013,False,-122.39106,37.76198
U C S F Housing - Comm Room,1505 4TH ST SAN FRANCISCO CA 94158-2268,False,Pct 7646,False,-122.39085,37.76938
U C S F Mission Center - Confer Rm #126,1855 FOLSOM ST SAN FRANCISCO CA 94103,False,Pct 7902,False,-122.41505,37.76734
Ulloa Elementary School - Lobby,2650 42ND AVE SAN FRANCISCO CA 94116,False,Pct 9444,False,-122.49944,37.73704
Ulloa School - Gymnasium,2650 42ND AVE SAN FRANCISCO CA 94116,False,Pct 9443,False,-122.49944,37.73704
United Council Of Human Services - Serenity Rm,2111 JENNINGS ST SAN FRANCISCO CA 94124,False,Pct 7032,False,-122.38863,37.72681
United House Of Prayer Church - Hall,1249 JAMESTOWN AVE SAN FRANCISCO CA 94124,False,Pct 7043,False,-122.39828,37.72089
Unity Spiritual Center,2690 OCEAN AVE SAN FRANCISCO CA 94132,False,Pct 9727,False,-122.47472,37.73263
Upper Noe Recreation Center,295 DAY ST SAN FRANCISCO CA 94131,False,Pct 7864,False,-122.42779,37.74257
Urban Life Center,1031 FRANKLIN ST SAN FRANCISCO CA 94109,False,Pct 7509/7511,False,-122.42302,37.78427
Urban School Of S. F. - Gym,1530 PAGE ST SAN FRANCISCO CA 94117,False,Pct 7534,False,-122.4465,37.77125
Valencia Gardens - Community Room,390 VALENCIA ST SAN FRANCISCO CA 94103,False,Pct 7814,False,-122.42226,37.76667
Villas Park Merced - Lobby,150 FONT BLVD SAN FRANCISCO CA 94132-2560,False,Pct 9745,False,-122.47375,37.7158
Villas Park Merced - Lobby,350 ARBALLO DR SAN FRANCISCO CA 94132,False,Pct 9739,False,-122.48356,37.72024
Villas Park Merced - Lobby,50 CHUMASERO DR SAN FRANCISCO CA 94132,False,Pct 9743,False,-122.47366,37.71419
Villas Park Merced - Lobby,750 GONZALEZ DR SAN FRANCISCO CA 94132,False,Pct 9744,False,-122.48118,37.71776
Visitacion Valley Branch Library,201 LELAND AVE SAN FRANCISCO CA 94134,False,Pct 7051,False,-122.40792,37.71243
Visitacion Valley Elementary School,55 SCHWERIN ST SAN FRANCISCO CA 94134,False,Pct 7045,False,-122.41023,37.71255
Wallenberg High School - Cafeteria,40 VEGA ST SAN FRANCISCO CA 94115,False,Pct 9258,False,-122.44628,37.78029
Waller Center,1525 WALLER ST SAN FRANCISCO CA 94117-2817,False,Pct 7547,False,-122.44907,37.76853
Warwick San Francisco,490 GEARY ST SAN FRANCISCO CA 94102,False,Pct 7347,False,-122.4114,37.78712
Washington High School - Audit Lobby,600 32ND AVE SAN FRANCISCO CA 94121,False,Pct 9122,False,-122.49189,37.77783
West Bay Pilipino Multi Service Center,175 7TH STREET SAN FRANCISCO CA 94103-2835,False,Pct 7623,False,-122.40968,37.77838
Western Addition Library - Program Rm,1550 SCOTT ST SAN FRANCISCO CA 94115-3512,False,Pct 9503/9504,False,-122.43759,37.78436
Western Park Apartments - Community Room,1280 LAGUNA ST SAN FRANCISCO CA 94115,False,Pct 7508,False,-122.42723,37.78272
William Cobb E. S. - Main Hallway,2725 CALIFORNIA ST SAN FRANCISCO CA 94115,False,Pct 9254,False,-122.43969,37.78786
Willie Mays Boys And Girls Clubhouse,195 KISKA RD SAN FRANCISCO CA 94124,False,Pct 7034,False,-122.37628,37.72964
Wu Yee Children's Services,729 KIRKWOOD AVE SAN FRANCISCO CA 94124-2877,False,Pct 7035,False,-122.37402,37.72888
Y M C A Richmond District,360 18TH AVE SAN FRANCISCO CA 94121,False,Pct 9111,False,-122.47706,37.78122
Yerba Buena Center For The Arts - Grand Lobby,701 MISSION ST SAN FRANCISCO CA 94103,False,Pct 7625,False,-122.40151,37.78513
Zygmunt Arendt House - Community Rm,850 BRODERICK ST SAN FRANCISCO CA 94115,False,Pct 9512,False,-122.44002,37.77832
